;FLAVOR:Marlin
;TIME:176
;Filament used: 0.0710269m
;Layer height: 0.2
;MINX:92.103
;MINY:97.359
;MINZ:0.28
;MAXX:127.898
;MAXY:122.64
;MAXZ:8.88
;Generated with Cura_SteamEngine main
M82 ;absolute extrusion mode
M201 X500.00 Y500.00 Z100.00 E5000.00 ;Setup machine max acceleration
M203 X500.00 Y500.00 Z10.00 E50.00 ;Setup machine max feedrate
M204 P500.00 R1000.00 T500.00 ;Setup Print/Retract/Travel acceleration
M205 X8.00 Y8.00 Z0.40 E5.00 ;Setup Jerk
M220 S100 ;Reset Feedrate
M221 S100 ;Reset Flowrate

;*** Start Dual Nozzle/Bed Preheating ***
M140 S50 ; start preheating the bed
M104 S210 ?T0 ; start preheating hotend
M190 S50 ; heat to Cura Bed setting and WAIT
M109 S210 ?T0 ; heat to Cura Hotend and WAIT
;*** End Preheating ***


;*** Single Print Start Tone
M300 S1000 P500 ; chirp to indicate starting to print
;*** End Single Start Tone

G28 ;Home

G92 E0 ;Reset Extruder
G1 Z2.0 F3000 ;Move Z Axis up
G1 X10.1 Y20 Z0.28 F5000.0 ;Move to start position
G1 X10.1 Y200.0 Z0.28 F1500.0 E15 ;Draw the first line
G1 X10.4 Y200.0 Z0.28 F5000.0 ;Move to side a little
G1 X10.4 Y20 Z0.28 F1500.0 E30 ;Draw the second line
G92 E0 ;Reset Extruder
G1 Z2.0 F3000 ;Move Z Axis up
G92 E0
G92 E0
G1 F2400 E-2
;LAYER_COUNT:44
;LAYER:0
M107
M204 S500
M205 X5 Y5
G0 F7500 X96.043 Y100.847 Z0.28
G0 X92.103 Y109.663
M205 X8 Y8
;TYPE:SKIRT
G1 F1200 E0
G1 F1500 X92.167 Y108.786 E0.04157
G1 X92.216 Y108.355 E0.06208
G1 X92.362 Y107.424 E0.10663
G1 X92.587 Y106.507 E0.15127
G1 X93.034 Y105.255 E0.21412
G1 X93.18 Y104.912 E0.23175
G1 X93.586 Y104.06 E0.27637
G1 X94.062 Y103.247 E0.32091
G1 X94.556 Y102.541 E0.36164
G1 X94.78 Y102.246 E0.37916
G1 X95.382 Y101.52 E0.42374
G1 X96.043 Y100.847 E0.46834
G1 X96.836 Y100.173 E0.51754
G1 X97.193 Y99.897 E0.53888
G1 X97.963 Y99.352 E0.58348
G1 X98.776 Y98.874 E0.62806
G1 X99.826 Y98.384 E0.68284
G1 X100.192 Y98.236 E0.70151
G1 X101.081 Y97.92 E0.74612
G1 X101.993 Y97.68 E0.7907
G1 X102.8 Y97.535 E0.82946
G1 X103.103 Y97.492 E0.84393
G1 X104.441 Y97.384 E0.90739
G1 X105.58 Y97.361 E0.96125
G1 X114.51 Y97.359 E1.38344
G1 X115.244 Y97.368 E1.41814
G1 X116.27 Y97.43 E1.46674
G1 X116.805 Y97.487 E1.49218
G1 X117.737 Y97.626 E1.53672
G1 X118.655 Y97.844 E1.58133
G1 X119.739 Y98.212 E1.63545
G1 X120.116 Y98.362 E1.65464
G1 X120.977 Y98.748 E1.69925
G1 X121.802 Y99.205 E1.74383
G1 X122.574 Y99.722 E1.78776
G1 X122.865 Y99.935 E1.80481
G1 X123.602 Y100.524 E1.84941
G1 X124.286 Y101.173 E1.89399
G1 X124.895 Y101.856 E1.93725
G1 X125.169 Y102.19 E1.95768
G1 X125.736 Y102.944 E2.00228
G1 X126.237 Y103.743 E2.04686
G1 X126.736 Y104.733 E2.09928
G1 X126.898 Y105.098 E2.11816
G1 X127.244 Y105.975 E2.16273
G1 X127.514 Y106.879 E2.20733
G1 X127.748 Y108.074 E2.2649
G1 X127.796 Y108.418 E2.28132
G1 X127.887 Y109.356 E2.32588
G1 X127.898 Y110.3 E2.37051
G1 X127.834 Y111.195 E2.41293
G1 X127.785 Y111.632 E2.43372
G1 X127.64 Y112.564 E2.47831
G1 X127.417 Y113.48 E2.52288
G1 X126.95 Y114.786 E2.58846
G1 X126.809 Y115.114 E2.60534
G1 X126.4 Y115.964 E2.64993
G1 X125.92 Y116.776 E2.69453
G1 X125.44 Y117.458 E2.73396
G1 X125.185 Y117.793 E2.75386
G1 X124.583 Y118.519 E2.79845
G1 X123.921 Y119.191 E2.84304
G1 X123.022 Y119.944 E2.89849
G1 X122.723 Y120.169 E2.91618
G1 X121.946 Y120.704 E2.96078
G1 X121.127 Y121.171 E3.00535
G1 X120.377 Y121.522 E3.0445
G1 X119.969 Y121.695 E3.06545
G1 X119.086 Y122.026 E3.11003
G1 X118.178 Y122.281 E3.15462
G1 X117.05 Y122.487 E3.20883
G1 X116.647 Y122.539 E3.22804
G1 X115.589 Y122.624 E3.27822
G1 X114.92 Y122.64 E3.30986
G1 X105.328 Y122.64 E3.76334
G1 X104.574 Y122.629 E3.79899
G1 X103.632 Y122.575 E3.8436
G1 X102.769 Y122.461 E3.88476
G1 X101.842 Y122.286 E3.92936
G1 X100.934 Y122.032 E3.97393
G1 X100.285 Y121.799 E4.00653
G1 X99.928 Y121.658 E4.02468
G1 X99.067 Y121.275 E4.06923
G1 X98.24 Y120.82 E4.11386
G1 X97.51 Y120.336 E4.15527
G1 X97.184 Y120.101 E4.17426
G1 X96.442 Y119.517 E4.21891
G1 X95.753 Y118.873 E4.26349
G1 X95.061 Y118.099 E4.31258
G1 X94.803 Y117.782 E4.3319
G1 X94.239 Y117.025 E4.37653
G1 X93.741 Y116.224 E4.42112
G1 X93.402 Y115.574 E4.45578
G1 X93.245 Y115.247 E4.47293
G1 X92.873 Y114.38 E4.51753
G1 X92.576 Y113.485 E4.56212
G1 X92.356 Y112.568 E4.6067
G1 X92.251 Y111.934 E4.63708
G1 X92.198 Y111.545 E4.65564
G1 X92.11 Y110.606 E4.70023
G1 X92.103 Y109.663 E4.74481
M205 X5 Y5
G0 F7500 X92.554 Y109.64
M205 X8 Y8
G1 F1500 X92.614 Y108.837 E4.78288
G1 X92.663 Y108.406 E4.80339
G1 X92.807 Y107.494 E4.84704
G1 X93.03 Y106.597 E4.89074
G1 X93.448 Y105.431 E4.9493
G1 X93.594 Y105.088 E4.96692
G1 X93.992 Y104.254 E5.01061
G1 X94.461 Y103.458 E5.05429
G1 X94.914 Y102.813 E5.09156
G1 X95.138 Y102.518 E5.10907
G1 X95.728 Y101.807 E5.15275
G1 X96.378 Y101.15 E5.19644
G1 X97.111 Y100.529 E5.24186
G1 X97.468 Y100.253 E5.26319
G1 X98.222 Y99.72 E5.30685
G1 X99.02 Y99.254 E5.35054
G1 X99.995 Y98.801 E5.40136
G1 X100.361 Y98.653 E5.42003
G1 X101.232 Y98.345 E5.46371
G1 X102.126 Y98.112 E5.50738
G1 X102.863 Y97.981 E5.54277
G1 X103.166 Y97.938 E5.55724
G1 X104.45 Y97.834 E5.61815
G1 X105.805 Y97.809 E5.68222
G1 X114.51 Y97.809 E6.09376
G1 X115.238 Y97.818 E6.12819
G1 X116.222 Y97.877 E6.17479
G1 X116.757 Y97.934 E6.20023
G1 X117.671 Y98.072 E6.24393
G1 X118.569 Y98.288 E6.28759
G1 X119.572 Y98.63 E6.33769
G1 X119.949 Y98.78 E6.35688
G1 X120.792 Y99.159 E6.40057
G1 X121.599 Y99.609 E6.44426
G1 X122.308 Y100.085 E6.48463
G1 X122.599 Y100.298 E6.50168
G1 X123.32 Y100.875 E6.54534
G1 X123.989 Y101.513 E6.58904
G1 X124.547 Y102.141 E6.62876
G1 X124.821 Y102.475 E6.64918
G1 X125.376 Y103.214 E6.69288
G1 X125.864 Y103.999 E6.73658
G1 X126.325 Y104.915 E6.78506
G1 X126.487 Y105.28 E6.80394
G1 X126.825 Y106.14 E6.84762
G1 X127.087 Y107.026 E6.8913
G1 X127.303 Y108.136 E6.94477
G1 X127.351 Y108.48 E6.96119
G1 X127.439 Y109.399 E7.00483
G1 X127.447 Y110.323 E7.04852
G1 X127.387 Y111.145 E7.08748
G1 X127.338 Y111.582 E7.10827
G1 X127.195 Y112.494 E7.15192
G1 X126.974 Y113.391 E7.19559
G1 X126.536 Y114.608 E7.25674
G1 X126.395 Y114.936 E7.27362
G1 X125.994 Y115.768 E7.31729
G1 X125.522 Y116.563 E7.361
G1 X125.082 Y117.186 E7.39706
G1 X124.827 Y117.521 E7.41696
G1 X124.236 Y118.231 E7.46063
G1 X123.586 Y118.887 E7.50429
G1 X122.752 Y119.585 E7.55571
G1 X122.453 Y119.81 E7.5734
G1 X121.691 Y120.333 E7.6171
G1 X120.887 Y120.788 E7.66077
G1 X120.201 Y121.108 E7.69656
G1 X119.793 Y121.281 E7.71751
G1 X118.928 Y121.605 E7.76118
G1 X118.038 Y121.852 E7.80485
G1 X116.992 Y122.04 E7.85509
G1 X116.589 Y122.092 E7.8743
G1 X115.574 Y122.174 E7.92244
G1 X114.92 Y122.19 E7.95337
G1 X105.334 Y122.19 E8.40657
G1 X104.58 Y122.179 E8.44222
G1 X103.658 Y122.125 E8.48589
G1 X102.834 Y122.016 E8.52518
G1 X101.926 Y121.843 E8.56888
G1 X101.037 Y121.593 E8.61254
G1 X100.451 Y121.381 E8.642
G1 X100.094 Y121.24 E8.66015
G1 X99.25 Y120.863 E8.70385
G1 X98.442 Y120.416 E8.74751
G1 X97.773 Y119.971 E8.78549
G1 X97.447 Y119.736 E8.80449
G1 X96.721 Y119.163 E8.84822
G1 X96.048 Y118.531 E8.89187
G1 X95.41 Y117.814 E8.93724
G1 X95.152 Y117.497 E8.95657
G1 X94.6 Y116.756 E9.00025
G1 X94.114 Y115.97 E9.04394
G1 X93.808 Y115.379 E9.0754
G1 X93.651 Y115.052 E9.09255
G1 X93.287 Y114.203 E9.13622
G1 X92.999 Y113.325 E9.17991
G1 X92.787 Y112.426 E9.22358
G1 X92.697 Y111.873 E9.25007
G1 X92.644 Y111.484 E9.26863
G1 X92.559 Y110.564 E9.31231
G1 X92.554 Y109.64 E9.35599
M205 X5 Y5
G0 F7500 X93.005 Y109.619
M205 X8 Y8
G1 F1500 X93.061 Y108.888 E9.39065
G1 X93.11 Y108.457 E9.41116
G1 X93.252 Y107.564 E9.45391
G1 X93.472 Y106.687 E9.49666
G1 X93.862 Y105.607 E9.55094
G1 X94.008 Y105.264 E9.56857
G1 X94.398 Y104.449 E9.61128
G1 X94.86 Y103.671 E9.65406
G1 X95.273 Y103.086 E9.68792
G1 X95.497 Y102.791 E9.70543
G1 X96.075 Y102.095 E9.7482
G1 X96.712 Y101.454 E9.79092
G1 X97.386 Y100.885 E9.83262
G1 X97.743 Y100.609 E9.85396
G1 X98.482 Y100.088 E9.89671
G1 X99.264 Y99.634 E9.93946
G1 X100.164 Y99.219 E9.98631
G1 X100.53 Y99.071 E10.00498
G1 X101.382 Y98.769 E10.04771
G1 X102.258 Y98.544 E10.09047
G1 X102.926 Y98.426 E10.12254
G1 X103.229 Y98.383 E10.13701
G1 X104.46 Y98.284 E10.19539
G1 X105.805 Y98.259 E10.25899
G1 X114.51 Y98.259 E10.67054
G1 X115.232 Y98.268 E10.70468
G1 X116.174 Y98.325 E10.7493
G1 X116.709 Y98.382 E10.77473
G1 X117.603 Y98.517 E10.81748
G1 X118.482 Y98.731 E10.86025
G1 X119.406 Y99.048 E10.90643
G1 X119.783 Y99.198 E10.92561
G1 X120.608 Y99.569 E10.96838
G1 X121.396 Y100.012 E11.01112
G1 X122.042 Y100.448 E11.04796
G1 X122.333 Y100.661 E11.06501
G1 X123.039 Y101.227 E11.10779
G1 X123.691 Y101.853 E11.15052
G1 X124.199 Y102.427 E11.18676
G1 X124.473 Y102.761 E11.20719
G1 X125.015 Y103.485 E11.24994
G1 X125.491 Y104.253 E11.29266
G1 X125.914 Y105.098 E11.33734
G1 X126.076 Y105.463 E11.35622
G1 X126.406 Y106.305 E11.39897
G1 X126.66 Y107.173 E11.44173
G1 X126.857 Y108.198 E11.49108
G1 X126.905 Y108.542 E11.5075
G1 X126.99 Y109.442 E11.55024
G1 X126.996 Y110.346 E11.59298
G1 X126.939 Y111.094 E11.62844
G1 X126.89 Y111.531 E11.64923
G1 X126.75 Y112.425 E11.69201
G1 X126.531 Y113.302 E11.73475
G1 X126.123 Y114.43 E11.79146
G1 X125.982 Y114.758 E11.80834
G1 X125.588 Y115.572 E11.85109
G1 X125.124 Y116.348 E11.89384
G1 X124.724 Y116.913 E11.92656
G1 X124.469 Y117.248 E11.94647
G1 X123.89 Y117.943 E11.98923
G1 X123.252 Y118.583 E12.03196
G1 X122.481 Y119.225 E12.07939
G1 X122.182 Y119.45 E12.09708
G1 X121.436 Y119.961 E12.13983
G1 X120.648 Y120.405 E12.18259
G1 X120.026 Y120.694 E12.21502
G1 X119.618 Y120.867 E12.23597
G1 X118.77 Y121.183 E12.27875
G1 X117.898 Y121.422 E12.3215
G1 X116.935 Y121.594 E12.36775
G1 X116.532 Y121.646 E12.38696
G1 X115.559 Y121.724 E12.43311
G1 X114.92 Y121.74 E12.46333
G1 X105.341 Y121.74 E12.9162
G1 X104.587 Y121.729 E12.95185
G1 X103.263 Y121.623 E13.01464
G1 X102.899 Y121.57 E13.03203
G1 X102.011 Y121.401 E13.07477
G1 X101.141 Y121.153 E13.11754
G1 X100.616 Y120.962 E13.14395
G1 X100.259 Y120.821 E13.1621
G1 X99.433 Y120.452 E13.20487
G1 X98.644 Y120.012 E13.24758
G1 X98.036 Y119.606 E13.28214
G1 X97.71 Y119.371 E13.30114
G1 X97 Y118.81 E13.34392
G1 X96.343 Y118.189 E13.38666
G1 X95.759 Y117.53 E13.42829
G1 X95.501 Y117.213 E13.44761
G1 X94.961 Y116.488 E13.49035
G1 X94.488 Y115.717 E13.53312
G1 X94.213 Y115.185 E13.56143
G1 X94.056 Y114.858 E13.57858
G1 X93.701 Y114.026 E13.62134
G1 X93.421 Y113.166 E13.6641
G1 X93.218 Y112.285 E13.70685
G1 X93.09 Y111.423 E13.74805
G1 X93.007 Y110.523 E13.79078
G1 X93.005 Y109.619 E13.83351
M205 X5 Y5
G1 F2400 E11.83351
;MESH:bodyswitch.stl
G0 F7500 X102.556 Y109.868
G0 X103.655 Y110.009
G0 X115.515 Y109.885
M205 X8 Y8
;TYPE:WALL-INNER
G1 F1200 E13.83351
G1 F1325.1 X115.399 Y109.774 E13.84306
G1 X115.133 Y109.717 E13.85924
G1 X104.725 Y109.717 E14.47814
G1 X104.529 Y109.825 E14.49145
G1 X104.452 Y110.01 E14.50336
G1 X104.529 Y110.175 E14.51419
G1 X104.679 Y110.257 E14.52436
G1 X104.865 Y110.283 E14.53552
G1 X115.133 Y110.283 E15.1461
G1 X115.399 Y110.226 E15.16228
G1 X115.515 Y110.115 E15.17183
G1 X115.548 Y109.998 E15.17906
G1 X115.515 Y109.885 E15.18606
M205 X5 Y5
G0 F7500 X104.44 Y109.504
G0 X104.335 Y109.306
M205 X8 Y8
G1 F1500 X104.154 Y109.44 E15.19789
G1 X104.023 Y109.608 E15.20908
G1 X103.942 Y109.795 E15.21978
G1 X103.914 Y110.011 E15.23122
G1 X103.943 Y110.23 E15.24283
G1 X104.155 Y110.56 E15.26343
G1 X104.335 Y110.695 E15.27525
G1 X104.543 Y110.777 E15.287
G1 X104.83 Y110.816 E15.30221
G1 X115.168 Y110.816 E15.84527
G1 X115.455 Y110.778 E15.86048
G1 X115.662 Y110.695 E15.87219
G1 X115.843 Y110.56 E15.88405
G1 X115.977 Y110.39 E15.89542
G1 X116.058 Y110.201 E15.90622
G1 X116.086 Y109.998 E15.91699
G1 X116.058 Y109.798 E15.9276
G1 X115.977 Y109.61 E15.93835
G1 X115.843 Y109.44 E15.94972
G1 X115.662 Y109.306 E15.96155
G1 X115.453 Y109.221 E15.9734
G1 X115.169 Y109.184 E15.98845
G1 X104.829 Y109.184 E16.53161
G1 X104.545 Y109.222 E16.54666
G1 X104.335 Y109.306 E16.55854
M205 X5 Y5
G0 F7500 X104.1 Y108.888
M205 X8 Y8
;TYPE:WALL-OUTER
G1 F1500 X103.82 Y109.096 E16.57503
G1 X103.611 Y109.363 E16.59107
G1 X103.48 Y109.668 E16.60676
G1 X103.435 Y110.012 E16.62316
G1 X103.482 Y110.365 E16.64
G1 X103.606 Y110.631 E16.65387
G1 X103.821 Y110.904 E16.6703
G1 X104.101 Y111.113 E16.68682
G1 X104.422 Y111.241 E16.70316
G1 X104.799 Y111.291 E16.72114
G1 X115.199 Y111.291 E17.21282
G1 X115.576 Y111.241 E17.2308
G1 X115.896 Y111.113 E17.24709
G1 X116.177 Y110.903 E17.26368
G1 X116.388 Y110.635 E17.2798
G1 X116.521 Y110.329 E17.29558
G1 X116.565 Y109.998 E17.31136
G1 X116.521 Y109.669 E17.32706
G1 X116.388 Y109.365 E17.34274
G1 X116.178 Y109.096 E17.35888
G1 X115.897 Y108.888 E17.37541
G1 X115.573 Y108.757 E17.39193
G1 X115.201 Y108.709 E17.40966
G1 X104.797 Y108.709 E17.90153
G1 X104.425 Y108.757 E17.91927
G1 X104.1 Y108.888 E17.93583
M205 X5 Y5
G0 F7500 X103.94 Y109.007
M104 S210
G0 X104.592 Y109.892
;MESH:NONMESH
G0 F600 X104.592 Y109.892 Z0.48
G0 F7500 X104.042 Y110.206
;TIME_ELAPSED:21.163578
;LAYER:1
M140 S40
M106 S85
M205 X14 Y14
;TYPE:WALL-INNER
;MESH:bodyswitch.stl
G1 F956.7 X104.227 Y110.488 E17.94915
G1 X104.558 Y110.674 E17.96415
G1 X104.852 Y110.716 E17.97588
G1 X115.144 Y110.716 E18.38238
G1 X115.438 Y110.676 E18.3941
G1 X115.776 Y110.484 E18.40945
G1 X115.892 Y110.337 E18.41685
G1 X115.983 Y110 E18.43063
G1 X115.897 Y109.673 E18.44399
G1 X115.77 Y109.51 E18.45215
G1 X115.438 Y109.324 E18.46718
G1 X115.144 Y109.284 E18.4789
G1 X104.853 Y109.284 E18.88536
G1 X104.558 Y109.326 E18.89712
G1 X104.223 Y109.515 E18.91232
G1 X104.108 Y109.66 E18.91963
G1 X104.016 Y110.015 E18.93411
G1 X104.042 Y110.206 E18.94172
M205 X12.5 Y12.5
G0 F8250 X104.669 Y110.476
G0 X115.384 Y110.47
G0 X116.23 Y110.252
G0 X116.442 Y110.32
M205 X14 Y14
G1 F956.7 X116.488 Y110 E18.95449
G1 X116.443 Y109.681 E18.96722
G1 X116.332 Y109.418 E18.97849
G1 X116.121 Y109.148 E18.99203
G1 X115.843 Y108.946 E19.0056
G1 X115.565 Y108.836 E19.01741
G1 X115.179 Y108.784 E19.03279
G1 X104.82 Y108.784 E19.44193
G1 X104.431 Y108.837 E19.45744
G1 X104.153 Y108.947 E19.46925
G1 X103.873 Y109.151 E19.48293
G1 X103.673 Y109.404 E19.49567
G1 X103.558 Y109.679 E19.50744
G1 X103.511 Y110.014 E19.5208
G1 X103.557 Y110.349 E19.53416
G1 X103.664 Y110.576 E19.54407
G1 X103.875 Y110.85 E19.55773
G1 X104.154 Y111.053 E19.57136
G1 X104.432 Y111.162 E19.58315
G1 X104.819 Y111.216 E19.59858
G1 X115.177 Y111.216 E20.00769
G1 X115.565 Y111.163 E20.02315
G1 X115.843 Y111.054 E20.03495
G1 X116.126 Y110.847 E20.0488
G1 X116.326 Y110.594 E20.06153
G1 X116.442 Y110.32 E20.07329
M205 X12.5 Y12.5
G1 F2400 E18.07329
G0 F8250 X116.23 Y110.252
G0 X115.24 Y110.479
G0 X104.498 Y110.951
G1 F1200 E20.07329
G0 F8250 X104.312 Y111.626
M205 X14 Y14
;TYPE:WALL-OUTER
G1 F797.3 X104.787 Y111.691 E20.09033
G1 X115.209 Y111.691 E20.4608
G1 X115.685 Y111.626 E20.47787
G1 X116.075 Y111.473 E20.49276
G1 X116.458 Y111.193 E20.50963
G1 X116.739 Y110.839 E20.5257
G1 X116.904 Y110.448 E20.54078
G1 X116.968 Y110 E20.55687
G1 X116.904 Y109.552 E20.57295
G1 X116.745 Y109.176 E20.58747
G1 X116.455 Y108.803 E20.60426
G1 X116.074 Y108.526 E20.62101
G1 X115.686 Y108.373 E20.63583
G1 X115.211 Y108.309 E20.65287
G1 X104.788 Y108.309 E21.02337
G1 X104.311 Y108.373 E21.04048
G1 X103.922 Y108.527 E21.05535
G1 X103.54 Y108.805 E21.07215
G1 X103.26 Y109.161 E21.08825
G1 X103.096 Y109.552 E21.10332
G1 X103.032 Y110.013 E21.11986
G1 X103.096 Y110.485 E21.13679
G1 X103.256 Y110.825 E21.15015
G1 X103.54 Y111.194 E21.1667
G1 X103.923 Y111.473 E21.18355
G1 X104.312 Y111.626 E21.19841
M205 X12.5 Y12.5
G0 F8250 X104.51 Y111.653
G0 X104.599 Y110.963
G0 X104.182 Y110.132
G0 X104.306 Y110.113
M205 X14 Y14
;TYPE:SKIN
G1 F744.1 X104.422 Y110.288 E21.20305
G1 X104.635 Y110.407 E21.20845
G1 X104.873 Y110.443 E21.21377
G1 X115.124 Y110.443 E21.4405
G1 X115.359 Y110.409 E21.44575
G1 X115.59 Y110.276 E21.45165
G1 X115.649 Y110.201 E21.45376
G1 X115.703 Y109.999 E21.45838
G1 X115.653 Y109.806 E21.46279
G1 X115.582 Y109.715 E21.46535
G1 X115.359 Y109.591 E21.47099
G1 X115.124 Y109.557 E21.47624
G1 X104.874 Y109.557 E21.70295
G1 X104.637 Y109.592 E21.70825
G1 X104.363 Y109.75 E21.71525
G1 X104.294 Y110.024 E21.7215
G1 X104.306 Y110.113 E21.72348
M205 X12.5 Y12.5
G0 F8250 X104.182 Y110.132
G0 X104.557 Y110.447
G0 X115.464 Y110.505
G0 X115.36 Y110.247
M205 X14 Y14
G1 F744.1 X115.36 Y109.752 E21.73443
M205 X12.5 Y12.5
G0 F8250 X115.08 Y109.697
M205 X14 Y14
G1 F744.1 X115.08 Y110.303 E21.74783
M205 X12.5 Y12.5
G0 F8250 X114.8 Y110.303
M205 X14 Y14
G1 F744.1 X114.8 Y109.697 E21.76124
M205 X12.5 Y12.5
G0 F8250 X114.52 Y109.697
M205 X14 Y14
G1 F744.1 X114.52 Y110.303 E21.77464
M205 X12.5 Y12.5
G0 F8250 X114.24 Y110.303
M205 X14 Y14
G1 F744.1 X114.24 Y109.697 E21.78804
M205 X12.5 Y12.5
G0 F8250 X113.96 Y109.697
M205 X14 Y14
G1 F744.1 X113.96 Y110.303 E21.80145
M205 X12.5 Y12.5
G0 F8250 X113.68 Y110.303
M205 X14 Y14
G1 F744.1 X113.68 Y109.697 E21.81485
M205 X12.5 Y12.5
G0 F8250 X113.4 Y109.697
M205 X14 Y14
G1 F744.1 X113.4 Y110.303 E21.82825
M205 X12.5 Y12.5
G0 F8250 X113.12 Y110.303
M205 X14 Y14
G1 F744.1 X113.12 Y109.697 E21.84166
M205 X12.5 Y12.5
G0 F8250 X112.84 Y109.697
M205 X14 Y14
G1 F744.1 X112.84 Y110.303 E21.85506
M205 X12.5 Y12.5
G0 F8250 X112.56 Y110.303
M205 X14 Y14
G1 F744.1 X112.56 Y109.697 E21.86846
M205 X12.5 Y12.5
G0 F8250 X112.28 Y109.697
M205 X14 Y14
G1 F744.1 X112.28 Y110.303 E21.88187
M205 X12.5 Y12.5
G0 F8250 X112 Y110.303
M205 X14 Y14
G1 F744.1 X112 Y109.697 E21.89527
M205 X12.5 Y12.5
G0 F8250 X111.72 Y109.697
M205 X14 Y14
G1 F744.1 X111.72 Y110.303 E21.90868
M205 X12.5 Y12.5
G0 F8250 X111.44 Y110.303
M205 X14 Y14
G1 F744.1 X111.44 Y109.697 E21.92208
M205 X12.5 Y12.5
G0 F8250 X111.16 Y109.697
M205 X14 Y14
G1 F744.1 X111.16 Y110.303 E21.93548
M205 X12.5 Y12.5
G0 F8250 X110.88 Y110.303
M205 X14 Y14
G1 F744.1 X110.88 Y109.697 E21.94889
M205 X12.5 Y12.5
G0 F8250 X110.6 Y109.697
M205 X14 Y14
G1 F744.1 X110.6 Y110.303 E21.96229
M205 X12.5 Y12.5
G0 F8250 X110.32 Y110.303
M205 X14 Y14
G1 F744.1 X110.32 Y109.697 E21.97569
M205 X12.5 Y12.5
G0 F8250 X110.04 Y109.697
M205 X14 Y14
G1 F744.1 X110.04 Y110.303 E21.9891
M205 X12.5 Y12.5
G0 F8250 X109.76 Y110.303
M205 X14 Y14
G1 F744.1 X109.76 Y109.697 E22.0025
M205 X12.5 Y12.5
G0 F8250 X109.48 Y109.697
M205 X14 Y14
G1 F744.1 X109.48 Y110.303 E22.0159
M205 X12.5 Y12.5
G0 F8250 X109.2 Y110.303
M205 X14 Y14
G1 F744.1 X109.2 Y109.697 E22.02931
M205 X12.5 Y12.5
G0 F8250 X108.92 Y109.697
M205 X14 Y14
G1 F744.1 X108.92 Y110.303 E22.04271
M205 X12.5 Y12.5
G0 F8250 X108.64 Y110.303
M205 X14 Y14
G1 F744.1 X108.64 Y109.697 E22.05611
M205 X12.5 Y12.5
G0 F8250 X108.36 Y109.697
M205 X14 Y14
G1 F744.1 X108.36 Y110.303 E22.06952
M205 X12.5 Y12.5
G0 F8250 X108.08 Y110.303
M205 X14 Y14
G1 F744.1 X108.08 Y109.697 E22.08292
M205 X12.5 Y12.5
G0 F8250 X107.8 Y109.697
M205 X14 Y14
G1 F744.1 X107.8 Y110.303 E22.09632
M205 X12.5 Y12.5
G0 F8250 X107.52 Y110.303
M205 X14 Y14
G1 F744.1 X107.52 Y109.697 E22.10973
M205 X12.5 Y12.5
G0 F8250 X107.24 Y109.697
M205 X14 Y14
G1 F744.1 X107.24 Y110.303 E22.12313
M205 X12.5 Y12.5
G0 F8250 X106.96 Y110.303
M205 X14 Y14
G1 F744.1 X106.96 Y109.697 E22.13653
M205 X12.5 Y12.5
G0 F8250 X106.68 Y109.697
M205 X14 Y14
G1 F744.1 X106.68 Y110.303 E22.14994
M205 X12.5 Y12.5
G0 F8250 X106.4 Y110.303
M205 X14 Y14
G1 F744.1 X106.4 Y109.697 E22.16334
M205 X12.5 Y12.5
G0 F8250 X106.12 Y109.697
M205 X14 Y14
G1 F744.1 X106.12 Y110.303 E22.17675
M205 X12.5 Y12.5
G0 F8250 X105.84 Y110.303
M205 X14 Y14
G1 F744.1 X105.84 Y109.697 E22.19015
M205 X12.5 Y12.5
G0 F8250 X105.56 Y109.697
M205 X14 Y14
G1 F744.1 X105.56 Y110.303 E22.20355
M205 X12.5 Y12.5
G0 F8250 X105.28 Y110.303
M205 X14 Y14
G1 F744.1 X105.28 Y109.697 E22.21696
M205 X12.5 Y12.5
G0 F8250 X105 Y109.697
M205 X14 Y14
G1 F744.1 X105 Y110.303 E22.23036
M205 X12.5 Y12.5
G0 F8250 X104.72 Y110.277
M205 X14 Y14
G1 F744.1 X104.72 Y109.721 E22.24266
M205 X12.5 Y12.5
G0 F8250 X104.666 Y109.433
;MESH:NONMESH
G0 F600 X104.666 Y109.433 Z0.68
G0 F8250 X104.042 Y110.206
;TIME_ELAPSED:33.858847
;LAYER:2
M106 S170
M205 X20 Y20
;TYPE:WALL-INNER
;MESH:bodyswitch.stl
G1 F990.9 X104.227 Y110.488 E22.25598
G1 X104.558 Y110.674 E22.27097
G1 X104.852 Y110.716 E22.2827
G1 X115.144 Y110.716 E22.6892
G1 X115.438 Y110.676 E22.70092
G1 X115.776 Y110.484 E22.71627
G1 X115.892 Y110.337 E22.72367
G1 X115.983 Y110 E22.73746
G1 X115.897 Y109.673 E22.75081
G1 X115.77 Y109.51 E22.75897
G1 X115.438 Y109.324 E22.774
G1 X115.144 Y109.284 E22.78572
G1 X104.853 Y109.284 E23.19218
G1 X104.558 Y109.326 E23.20395
G1 X104.223 Y109.515 E23.21914
G1 X104.108 Y109.66 E23.22645
G1 X104.016 Y110.015 E23.24093
G1 X104.042 Y110.206 E23.24855
G0 F9000 X104.669 Y110.476
G0 X115.384 Y110.47
G0 X116.23 Y110.252
G0 X116.442 Y110.32
G1 F990.9 X116.488 Y110 E23.26132
G1 X116.443 Y109.681 E23.27404
G1 X116.332 Y109.418 E23.28531
G1 X116.121 Y109.148 E23.29885
G1 X115.843 Y108.946 E23.31242
G1 X115.565 Y108.836 E23.32423
G1 X115.179 Y108.784 E23.33961
G1 X104.82 Y108.784 E23.74876
G1 X104.431 Y108.837 E23.76426
G1 X104.153 Y108.947 E23.77607
G1 X103.873 Y109.151 E23.78975
G1 X103.673 Y109.404 E23.80249
G1 X103.558 Y109.679 E23.81426
G1 X103.511 Y110.014 E23.82762
G1 X103.557 Y110.349 E23.84098
G1 X103.664 Y110.576 E23.85089
G1 X103.875 Y110.85 E23.86455
G1 X104.154 Y111.053 E23.87818
G1 X104.432 Y111.162 E23.88997
G1 X104.819 Y111.216 E23.90541
G1 X115.177 Y111.216 E24.31451
G1 X115.565 Y111.163 E24.32998
G1 X115.843 Y111.054 E24.34177
G1 X116.126 Y110.847 E24.35562
G1 X116.326 Y110.594 E24.36836
G1 X116.442 Y110.32 E24.38011
G1 F2400 E22.38011
G0 F9000 X116.23 Y110.252
G0 X115.24 Y110.479
G0 X104.498 Y110.951
G1 F1200 E24.38011
G0 F9000 X104.312 Y111.626
;TYPE:WALL-OUTER
G1 F762.2 X104.787 Y111.691 E24.39715
G1 X115.209 Y111.691 E24.76762
G1 X115.685 Y111.626 E24.7847
G1 X116.075 Y111.473 E24.79959
G1 X116.458 Y111.193 E24.81645
G1 X116.739 Y110.839 E24.83252
G1 X116.904 Y110.448 E24.8476
G1 X116.968 Y110 E24.86369
G1 X116.904 Y109.552 E24.87978
G1 X116.745 Y109.176 E24.89429
G1 X116.455 Y108.803 E24.91108
G1 X116.074 Y108.526 E24.92783
G1 X115.686 Y108.373 E24.94265
G1 X115.211 Y108.309 E24.95969
G1 X104.788 Y108.309 E25.3302
G1 X104.311 Y108.373 E25.3473
G1 X103.922 Y108.527 E25.36218
G1 X103.54 Y108.805 E25.37897
G1 X103.26 Y109.161 E25.39507
G1 X103.096 Y109.552 E25.41014
G1 X103.032 Y110.013 E25.42668
G1 X103.096 Y110.485 E25.44362
G1 X103.256 Y110.825 E25.45697
G1 X103.54 Y111.194 E25.47353
G1 X103.923 Y111.473 E25.49037
G1 X104.312 Y111.626 E25.50523
G0 F9000 X104.51 Y111.653
G0 X104.599 Y110.963
G0 X104.182 Y110.132
G0 X104.306 Y110.113
;TYPE:SKIN
G1 F686 X104.422 Y110.288 E25.50987
G1 X104.635 Y110.407 E25.51527
G1 X104.873 Y110.443 E25.52059
G1 X115.124 Y110.443 E25.74732
G1 X115.359 Y110.409 E25.75258
G1 X115.59 Y110.276 E25.75847
G1 X115.649 Y110.201 E25.76058
G1 X115.703 Y109.999 E25.76521
G1 X115.653 Y109.806 E25.76962
G1 X115.582 Y109.715 E25.77217
G1 X115.359 Y109.591 E25.77781
G1 X115.124 Y109.557 E25.78306
G1 X104.874 Y109.557 E26.00977
G1 X104.637 Y109.592 E26.01507
G1 X104.363 Y109.75 E26.02207
G1 X104.294 Y110.024 E26.02832
G1 X104.306 Y110.113 E26.0303
G0 F9000 X104.634 Y109.76
G1 F686 X115.375 Y109.76 E26.26787
G0 F9000 X115.542 Y110.04
G1 F686 X104.446 Y110.04 E26.5133
G0 F9000 X104.151 Y110.074
;MESH:NONMESH
G0 F600 X104.151 Y110.074 Z0.88
G0 F9000 X104.042 Y110.206
;TIME_ELAPSED:44.791033
;LAYER:3
M106 S255
;TYPE:WALL-INNER
;MESH:bodyswitch.stl
G1 F780 X104.227 Y110.488 E26.52662
G1 X104.558 Y110.674 E26.54161
G1 X104.852 Y110.716 E26.55334
G1 X115.144 Y110.716 E26.95984
G1 X115.438 Y110.676 E26.97156
G1 X115.776 Y110.484 E26.98691
G1 X115.892 Y110.337 E26.99431
G1 X115.983 Y110 E27.00809
G1 X115.897 Y109.673 E27.02145
G1 X115.77 Y109.51 E27.02961
G1 X115.438 Y109.324 E27.04464
G1 X115.144 Y109.284 E27.05636
G1 X104.853 Y109.284 E27.46282
G1 X104.558 Y109.326 E27.47459
G1 X104.223 Y109.515 E27.48978
G1 X104.108 Y109.66 E27.49709
G1 X104.016 Y110.015 E27.51157
G1 X104.042 Y110.206 E27.51918
G0 F9000 X116.23 Y110.252
G0 X116.442 Y110.32
G1 F780 X116.488 Y110 E27.53195
G1 X116.443 Y109.681 E27.54468
G1 X116.332 Y109.418 E27.55595
G1 X116.121 Y109.148 E27.56949
G1 X115.843 Y108.946 E27.58306
G1 X115.565 Y108.836 E27.59487
G1 X115.179 Y108.784 E27.61025
G1 X104.82 Y108.784 E28.01939
G1 X104.431 Y108.837 E28.0349
G1 X104.153 Y108.947 E28.04671
G1 X103.873 Y109.151 E28.06039
G1 X103.673 Y109.404 E28.07313
G1 X103.558 Y109.679 E28.0849
G1 X103.511 Y110.014 E28.09826
G1 X103.557 Y110.349 E28.11162
G1 X103.664 Y110.576 E28.12153
G1 X103.875 Y110.85 E28.13519
G1 X104.154 Y111.053 E28.14882
G1 X104.432 Y111.162 E28.16061
G1 X104.819 Y111.216 E28.17604
G1 X115.177 Y111.216 E28.58515
G1 X115.565 Y111.163 E28.60061
G1 X115.843 Y111.054 E28.61241
G1 X116.126 Y110.847 E28.62626
G1 X116.326 Y110.594 E28.63899
G1 X116.442 Y110.32 E28.65075
G1 F2400 E26.65075
G0 F9000 X116.23 Y110.252
G0 X104.498 Y110.951
G1 F1200 E28.65075
G0 F9000 X104.312 Y111.626
;TYPE:WALL-OUTER
G1 F600 X104.787 Y111.691 E28.66779
G1 X115.209 Y111.691 E29.03826
G1 X115.685 Y111.626 E29.05533
G1 X116.075 Y111.473 E29.07023
G1 X116.458 Y111.193 E29.08709
G1 X116.739 Y110.839 E29.10316
G1 X116.904 Y110.448 E29.11824
G1 X116.968 Y110 E29.13433
G1 X116.904 Y109.552 E29.15042
G1 X116.745 Y109.176 E29.16493
G1 X116.455 Y108.803 E29.18172
G1 X116.074 Y108.526 E29.19847
G1 X115.686 Y108.373 E29.21329
G1 X115.211 Y108.309 E29.23033
G1 X104.788 Y108.309 E29.60083
G1 X104.311 Y108.373 E29.61794
G1 X103.922 Y108.527 E29.63281
G1 X103.54 Y108.805 E29.64961
G1 X103.26 Y109.161 E29.66571
G1 X103.096 Y109.552 E29.68078
G1 X103.032 Y110.013 E29.69732
G1 X103.096 Y110.485 E29.71425
G1 X103.256 Y110.825 E29.72761
G1 X103.54 Y111.194 E29.74416
G1 X103.923 Y111.473 E29.76101
G1 X104.312 Y111.626 E29.77587
G0 F9000 X104.51 Y111.653
G0 X104.599 Y110.963
G0 X109.23 Y110.465
;TYPE:FILL
G1 F720 X109.48 Y109.532 E29.81936
G0 F9000 X110.414 Y109.534
G1 F720 X111.345 Y110.465 E29.87864
G0 F9000 X110.659 Y110.466
G1 F720 X114.141 Y109.533 E30.04095
;MESH:NONMESH
G0 F600 X114.141 Y109.533 Z1.08
G0 F9000 X104.042 Y110.206
;TIME_ELAPSED:54.152959
;LAYER:4
;TYPE:WALL-INNER
;MESH:bodyswitch.stl
G1 F946.3 X104.227 Y110.488 E30.05427
G1 X104.558 Y110.674 E30.06927
G1 X104.852 Y110.716 E30.081
G1 X115.144 Y110.716 E30.48749
G1 X115.438 Y110.676 E30.49921
G1 X115.776 Y110.484 E30.51457
G1 X115.892 Y110.337 E30.52196
G1 X115.983 Y110 E30.53575
G1 X115.897 Y109.673 E30.5491
G1 X115.77 Y109.51 E30.55727
G1 X115.438 Y109.324 E30.5723
G1 X115.144 Y109.284 E30.58402
G1 X104.853 Y109.284 E30.99047
G1 X104.558 Y109.326 E31.00224
G1 X104.223 Y109.515 E31.01743
G1 X104.108 Y109.66 E31.02474
G1 X104.016 Y110.015 E31.03923
G1 X104.042 Y110.206 E31.04684
G0 F9000 X104.669 Y110.476
G0 X115.384 Y110.47
G0 X116.23 Y110.252
G0 X116.442 Y110.32
G1 F946.3 X116.488 Y110 E31.05961
G1 X116.443 Y109.681 E31.07233
G1 X116.332 Y109.418 E31.08361
G1 X116.121 Y109.148 E31.09714
G1 X115.843 Y108.946 E31.11072
G1 X115.565 Y108.836 E31.12252
G1 X115.179 Y108.784 E31.13791
G1 X104.82 Y108.784 E31.54705
G1 X104.431 Y108.837 E31.56256
G1 X104.153 Y108.947 E31.57436
G1 X103.873 Y109.151 E31.58805
G1 X103.673 Y109.404 E31.60078
G1 X103.558 Y109.679 E31.61256
G1 X103.511 Y110.014 E31.62592
G1 X103.557 Y110.349 E31.63927
G1 X103.664 Y110.576 E31.64919
G1 X103.875 Y110.85 E31.66285
G1 X104.154 Y111.053 E31.67647
G1 X104.432 Y111.162 E31.68827
G1 X104.819 Y111.216 E31.7037
G1 X115.177 Y111.216 E32.1128
G1 X115.565 Y111.163 E32.12827
G1 X115.843 Y111.054 E32.14006
G1 X116.126 Y110.847 E32.15391
G1 X116.326 Y110.594 E32.16665
G1 X116.442 Y110.32 E32.1784
G1 F2400 E30.1784
G0 F9000 X116.23 Y110.252
G0 X115.24 Y110.479
G0 X104.498 Y110.951
G1 F1200 E32.1784
G0 F9000 X104.312 Y111.626
;TYPE:WALL-OUTER
G1 F727.9 X104.787 Y111.691 E32.19544
G1 X115.209 Y111.691 E32.56591
G1 X115.685 Y111.626 E32.58299
G1 X116.075 Y111.473 E32.59788
G1 X116.458 Y111.193 E32.61475
G1 X116.739 Y110.839 E32.63081
G1 X116.904 Y110.448 E32.6459
G1 X116.968 Y110 E32.66199
G1 X116.904 Y109.552 E32.67807
G1 X116.745 Y109.176 E32.69258
G1 X116.455 Y108.803 E32.70938
G1 X116.074 Y108.526 E32.72612
G1 X115.686 Y108.373 E32.74095
G1 X115.211 Y108.309 E32.75799
G1 X104.788 Y108.309 E33.12849
G1 X104.311 Y108.373 E33.1456
G1 X103.922 Y108.527 E33.16047
G1 X103.54 Y108.805 E33.17726
G1 X103.26 Y109.161 E33.19336
G1 X103.096 Y109.552 E33.20843
G1 X103.032 Y110.013 E33.22498
G1 X103.096 Y110.485 E33.24191
G1 X103.256 Y110.825 E33.25527
G1 X103.54 Y111.194 E33.27182
G1 X103.923 Y111.473 E33.28866
G1 X104.312 Y111.626 E33.30352
G0 F9000 X104.51 Y111.653
G0 X104.599 Y110.963
G0 X109.084 Y110.466
;TYPE:FILL
G1 F873.5 X109.334 Y109.533 E33.34701
G0 F9000 X109.941 Y110.442
G0 X110.063 Y110.443
;TYPE:SKIN
G1 F655.1 X115.124 Y110.443 E33.45895
G1 X115.359 Y110.409 E33.4642
G1 X115.59 Y110.276 E33.4701
G1 X115.649 Y110.201 E33.47221
G1 X115.703 Y109.999 E33.47684
G1 X115.653 Y109.806 E33.48124
G1 X115.582 Y109.715 E33.4838
G1 X115.359 Y109.591 E33.48944
G1 X115.124 Y109.557 E33.49469
G1 X110.07 Y109.557 E33.60648
G1 X110.063 Y110.443 E33.62607
G0 F9000 X110.209 Y109.76
G1 F655.1 X115.375 Y109.76 E33.74034
G0 F9000 X115.542 Y110.04
G1 F655.1 X110.207 Y110.04 E33.85834
G0 F9000 X109.943 Y110.038
G0 X108.013 Y109.434
G0 X108.013 Y109.557
G1 F655.1 X104.874 Y109.557 E33.92776
G1 X104.637 Y109.592 E33.93306
G1 X104.363 Y109.75 E33.94006
G1 X104.294 Y110.024 E33.94631
G1 X104.306 Y110.113 E33.94829
G1 X104.422 Y110.288 E33.95294
G1 X104.635 Y110.407 E33.95833
G1 X104.873 Y110.443 E33.96366
G1 X108.014 Y110.443 E34.03313
G1 X108.013 Y109.557 E34.05273
G0 F9000 X107.874 Y109.76
G1 F655.1 X104.634 Y109.76 E34.12439
G0 F9000 X104.446 Y110.04
G1 F655.1 X107.874 Y110.04 E34.20021
G0 F9000 X108.537 Y110.04
;MESH:NONMESH
G0 F600 X108.537 Y110.04 Z1.28
G0 F9000 X108.065 Y110.494
G0 X104.611 Y110.468
G0 X104.042 Y110.206
;TIME_ELAPSED:65.550664
;LAYER:5
;TYPE:WALL-INNER
;MESH:bodyswitch.stl
G1 F982.8 X104.227 Y110.488 E34.21353
G1 X104.558 Y110.674 E34.22853
G1 X104.852 Y110.716 E34.24026
G1 X115.144 Y110.716 E34.64675
G1 X115.438 Y110.676 E34.65847
G1 X115.776 Y110.484 E34.67383
G1 X115.892 Y110.337 E34.68122
G1 X115.983 Y110 E34.69501
G1 X115.897 Y109.673 E34.70836
G1 X115.77 Y109.51 E34.71653
G1 X115.438 Y109.324 E34.73156
G1 X115.144 Y109.284 E34.74327
G1 X104.853 Y109.284 E35.14973
G1 X104.558 Y109.326 E35.1615
G1 X104.223 Y109.515 E35.17669
G1 X104.108 Y109.66 E35.184
G1 X104.016 Y110.015 E35.19849
G1 X104.042 Y110.206 E35.2061
G0 F9000 X104.669 Y110.476
G0 X115.384 Y110.47
G0 X116.23 Y110.252
G0 X116.442 Y110.32
G1 F982.8 X116.488 Y110 E35.21887
G1 X116.443 Y109.681 E35.23159
G1 X116.332 Y109.418 E35.24287
G1 X116.121 Y109.148 E35.2564
G1 X115.843 Y108.946 E35.26997
G1 X115.565 Y108.836 E35.28178
G1 X115.179 Y108.784 E35.29717
G1 X104.82 Y108.784 E35.70631
G1 X104.431 Y108.837 E35.72182
G1 X104.153 Y108.947 E35.73362
G1 X103.873 Y109.151 E35.74731
G1 X103.673 Y109.404 E35.76004
G1 X103.558 Y109.679 E35.77182
G1 X103.511 Y110.014 E35.78518
G1 X103.557 Y110.349 E35.79853
G1 X103.664 Y110.576 E35.80845
G1 X103.875 Y110.85 E35.8221
G1 X104.154 Y111.053 E35.83573
G1 X104.432 Y111.162 E35.84753
G1 X104.819 Y111.216 E35.86296
G1 X115.177 Y111.216 E36.27206
G1 X115.565 Y111.163 E36.28753
G1 X115.843 Y111.054 E36.29932
G1 X116.126 Y110.847 E36.31317
G1 X116.326 Y110.594 E36.32591
G1 X116.442 Y110.32 E36.33766
G1 F2400 E34.33766
G0 F9000 X116.23 Y110.252
G0 X115.24 Y110.479
G0 X104.498 Y110.951
G1 F1200 E36.33766
G0 F9000 X104.312 Y111.626
;TYPE:WALL-OUTER
G1 F756 X104.787 Y111.691 E36.3547
G1 X115.209 Y111.691 E36.72517
G1 X115.685 Y111.626 E36.74225
G1 X116.075 Y111.473 E36.75714
G1 X116.458 Y111.193 E36.77401
G1 X116.739 Y110.839 E36.79007
G1 X116.904 Y110.448 E36.80516
G1 X116.968 Y110 E36.82124
G1 X116.904 Y109.552 E36.83733
G1 X116.745 Y109.176 E36.85184
G1 X116.455 Y108.803 E36.86864
G1 X116.074 Y108.526 E36.88538
G1 X115.686 Y108.373 E36.90021
G1 X115.211 Y108.309 E36.91725
G1 X104.788 Y108.309 E37.28775
G1 X104.311 Y108.373 E37.30486
G1 X103.922 Y108.527 E37.31973
G1 X103.54 Y108.805 E37.33652
G1 X103.26 Y109.161 E37.35262
G1 X103.096 Y109.552 E37.36769
G1 X103.032 Y110.013 E37.38424
G1 X103.096 Y110.485 E37.40117
G1 X103.256 Y110.825 E37.41453
G1 X103.54 Y111.194 E37.43108
G1 X103.923 Y111.473 E37.44792
G1 X104.312 Y111.626 E37.46278
G0 F9000 X104.51 Y111.653
G0 X104.599 Y110.963
G0 X108.734 Y110.494
G0 X108.734 Y109.605
G0 X108.682 Y109.557
;TYPE:SKIN
G1 F680.4 X104.874 Y109.557 E37.54701
G1 X104.637 Y109.592 E37.55231
G1 X104.363 Y109.75 E37.5593
G1 X104.294 Y110.024 E37.56555
G1 X104.306 Y110.113 E37.56754
G1 X104.422 Y110.288 E37.57218
G1 X104.635 Y110.407 E37.57758
G1 X104.873 Y110.443 E37.5829
G1 X108.683 Y110.443 E37.66717
G1 X108.682 Y109.557 E37.68677
G0 F9000 X108.36 Y109.697
G1 F680.4 X108.36 Y110.303 E37.70017
G0 F9000 X108.08 Y110.303
G1 F680.4 X108.08 Y109.697 E37.71357
G0 F9000 X107.8 Y109.697
G1 F680.4 X107.8 Y110.303 E37.72698
G0 F9000 X107.52 Y110.303
G1 F680.4 X107.52 Y109.697 E37.74038
G0 F9000 X107.24 Y109.697
G1 F680.4 X107.24 Y110.303 E37.75379
G0 F9000 X106.96 Y110.303
G1 F680.4 X106.96 Y109.697 E37.76719
G0 F9000 X106.68 Y109.697
G1 F680.4 X106.68 Y110.303 E37.78059
G0 F9000 X106.4 Y110.303
G1 F680.4 X106.4 Y109.697 E37.794
G0 F9000 X106.12 Y109.697
G1 F680.4 X106.12 Y110.303 E37.8074
G0 F9000 X105.84 Y110.303
G1 F680.4 X105.84 Y109.697 E37.8208
G0 F9000 X105.56 Y109.697
G1 F680.4 X105.56 Y110.303 E37.83421
G0 F9000 X105.28 Y110.303
G1 F680.4 X105.28 Y109.697 E37.84761
G0 F9000 X105 Y109.697
G1 F680.4 X105 Y110.303 E37.86101
G0 F9000 X104.72 Y110.277
G1 F680.4 X104.72 Y109.721 E37.87331
G0 F9000 X104.681 Y109.46
G0 X108.733 Y109.506
G0 X109.941 Y110.442
G0 X110.063 Y110.443
G1 F680.4 X115.124 Y110.443 E37.98525
G1 X115.359 Y110.409 E37.9905
G1 X115.59 Y110.276 E37.9964
G1 X115.649 Y110.201 E37.99851
G1 X115.703 Y109.999 E38.00313
G1 X115.653 Y109.806 E38.00754
G1 X115.582 Y109.715 E38.0101
G1 X115.359 Y109.591 E38.01574
G1 X115.124 Y109.557 E38.02099
G1 X110.069 Y109.557 E38.1328
G1 X110.063 Y110.443 E38.15239
G0 F9000 X109.941 Y110.442
G0 X115.464 Y110.505
G0 X115.36 Y110.247
G1 F680.4 X115.36 Y109.752 E38.16334
G0 F9000 X115.08 Y109.697
G1 F680.4 X115.08 Y110.303 E38.17675
G0 F9000 X114.8 Y110.303
G1 F680.4 X114.8 Y109.697 E38.19015
G0 F9000 X114.52 Y109.697
G1 F680.4 X114.52 Y110.303 E38.20355
G0 F9000 X114.24 Y110.303
G1 F680.4 X114.24 Y109.697 E38.21696
G0 F9000 X113.96 Y109.697
G1 F680.4 X113.96 Y110.303 E38.23036
G0 F9000 X113.68 Y110.303
G1 F680.4 X113.68 Y109.697 E38.24376
G0 F9000 X113.4 Y109.697
G1 F680.4 X113.4 Y110.303 E38.25717
G0 F9000 X113.12 Y110.303
G1 F680.4 X113.12 Y109.697 E38.27057
G0 F9000 X112.84 Y109.697
G1 F680.4 X112.84 Y110.303 E38.28397
G0 F9000 X112.56 Y110.303
G1 F680.4 X112.56 Y109.697 E38.29738
G0 F9000 X112.28 Y109.697
G1 F680.4 X112.28 Y110.303 E38.31078
G0 F9000 X112 Y110.303
G1 F680.4 X112 Y109.697 E38.32418
G0 F9000 X111.72 Y109.697
G1 F680.4 X111.72 Y110.303 E38.33759
G0 F9000 X111.44 Y110.303
G1 F680.4 X111.44 Y109.697 E38.35099
G0 F9000 X111.16 Y109.697
G1 F680.4 X111.16 Y110.303 E38.3644
G0 F9000 X110.88 Y110.303
G1 F680.4 X110.88 Y109.697 E38.3778
G0 F9000 X110.6 Y109.697
G1 F680.4 X110.6 Y110.303 E38.3912
G0 F9000 X110.32 Y110.303
G1 F680.4 X110.32 Y109.697 E38.40461
G0 F9000 X110.32 Y109.409
;MESH:NONMESH
G0 F600 X110.32 Y109.409 Z1.48
G0 F9000 X104.612 Y109.532
G0 X104.353 Y109.722
G0 X104.042 Y110.206
;TIME_ELAPSED:78.259518
;LAYER:6
;TYPE:WALL-INNER
;MESH:bodyswitch.stl
G1 F3900 X104.227 Y110.488 E38.41793
G1 X104.558 Y110.674 E38.43292
G1 X104.852 Y110.716 E38.44465
G1 X115.144 Y110.716 E38.85115
G1 X115.438 Y110.676 E38.86287
G1 X115.776 Y110.484 E38.87822
G1 X115.892 Y110.337 E38.88562
G1 X115.983 Y110 E38.8994
G1 X115.897 Y109.673 E38.91276
G1 X115.77 Y109.51 E38.92092
G1 X115.438 Y109.324 E38.93595
G1 X115.144 Y109.284 E38.94767
G1 X104.853 Y109.284 E39.35413
G1 X104.558 Y109.326 E39.3659
G1 X104.223 Y109.515 E39.38109
G1 X104.108 Y109.66 E39.3884
G1 X104.016 Y110.015 E39.40288
G1 X104.042 Y110.206 E39.4105
G0 F9000 X104.669 Y110.476
G0 X115.384 Y110.47
G0 X116.23 Y110.252
G0 X116.442 Y110.32
G1 F3900 X116.488 Y110 E39.42326
G1 X116.443 Y109.681 E39.43599
G1 X116.332 Y109.418 E39.44726
G1 X116.121 Y109.148 E39.4608
G1 X115.843 Y108.946 E39.47437
G1 X115.565 Y108.836 E39.48618
G1 X115.179 Y108.784 E39.50156
G1 X104.82 Y108.784 E39.9107
G1 X104.431 Y108.837 E39.92621
G1 X104.153 Y108.947 E39.93802
G1 X103.873 Y109.151 E39.9517
G1 X103.673 Y109.404 E39.96444
G1 X103.558 Y109.679 E39.97621
G1 X103.511 Y110.014 E39.98957
G1 X103.557 Y110.349 E40.00293
G1 X103.664 Y110.576 E40.01284
G1 X103.875 Y110.85 E40.0265
G1 X104.154 Y111.053 E40.04013
G1 X104.432 Y111.162 E40.05192
G1 X104.819 Y111.216 E40.06735
G1 X115.177 Y111.216 E40.47646
G1 X115.565 Y111.163 E40.49193
G1 X115.843 Y111.054 E40.50372
G1 X116.126 Y110.847 E40.51757
G1 X116.326 Y110.594 E40.53031
G1 X116.442 Y110.32 E40.54206
G1 F2400 E38.54206
G0 F9000 X116.23 Y110.252
G0 X115.24 Y110.479
G0 X104.498 Y110.951
G1 F1200 E40.54206
G0 F9000 X104.312 Y111.626
;TYPE:WALL-OUTER
G1 F3000 X104.787 Y111.691 E40.5591
G1 X115.209 Y111.691 E40.92957
G1 X115.685 Y111.626 E40.94665
G1 X116.075 Y111.473 E40.96154
G1 X116.458 Y111.193 E40.9784
G1 X116.739 Y110.839 E40.99447
G1 X116.904 Y110.448 E41.00955
G1 X116.968 Y110 E41.02564
G1 X116.904 Y109.552 E41.04173
G1 X116.745 Y109.176 E41.05624
G1 X116.455 Y108.803 E41.07303
G1 X116.074 Y108.526 E41.08978
G1 X115.686 Y108.373 E41.1046
G1 X115.211 Y108.309 E41.12164
G1 X104.788 Y108.309 E41.49214
G1 X104.311 Y108.373 E41.50925
G1 X103.922 Y108.527 E41.52412
G1 X103.54 Y108.805 E41.54092
G1 X103.26 Y109.161 E41.55702
G1 X103.096 Y109.552 E41.57209
G1 X103.032 Y110.013 E41.58863
G1 X103.096 Y110.485 E41.60557
G1 X103.256 Y110.825 E41.61892
G1 X103.54 Y111.194 E41.63547
G1 X103.923 Y111.473 E41.65232
G1 X104.312 Y111.626 E41.66718
G0 F9000 X104.51 Y111.653
G0 X104.599 Y110.963
G0 X108.85 Y110.536
G0 X108.791 Y110.466
;TYPE:FILL
G1 F3600 X109.041 Y109.532 E41.75425
G0 F9000 X110.012 Y110.494
G0 X111.631 Y110.566
G0 X111.631 Y110.326
;TYPE:SKIN
G1 F2700 X115.115 Y110.326 E41.83131
G1 X115.329 Y110.296 E41.83608
G1 X115.508 Y110.192 E41.84066
G1 X115.585 Y109.999 E41.84526
G1 X115.5 Y109.8 E41.85005
G1 X115.329 Y109.704 E41.85438
G1 X115.115 Y109.674 E41.85916
G1 X111.636 Y109.674 E41.93611
G1 X111.631 Y110.326 E41.95053
G0 F9000 X111.774 Y110.04
;TYPE:SKIN
G1 F3000 X115.427 Y110.04 E42.03133
G0 F9000 X115.786 Y110.199
G0 X115.384 Y110.47
G0 X110.012 Y110.494
G0 X110.063 Y110.443
;TYPE:SKIN
G1 F2700 X111.466 Y110.442 E42.06236
G1 X111.472 Y109.558 E42.08191
G1 X110.069 Y109.557 E42.11295
G1 X110.063 Y110.443 E42.13254
G0 F9000 X110.208 Y109.76
G1 F2700 X111.33 Y109.76 E42.15736
G0 F9000 X111.328 Y110.04
G1 F2700 X110.206 Y110.04 E42.18218
G0 F9000 X109.943 Y110.039
G0 X108.807 Y109.506
G0 X106.446 Y109.434
G0 X106.446 Y109.674
G1 F2700 X104.882 Y109.674 E42.21677
G1 X104.665 Y109.707 E42.22162
G1 X104.499 Y109.803 E42.22586
G1 X104.428 Y109.917 E42.22883
G1 X104.427 Y110.092 E42.23271
G1 X104.47 Y110.155 E42.23439
G1 X104.666 Y110.293 E42.23969
G1 X104.882 Y110.326 E42.24453
G1 X106.447 Y110.326 E42.27914
G1 X106.446 Y109.674 E42.29356
G0 F9000 X106.307 Y110.04
;TYPE:SKIN
G1 F3000 X104.568 Y110.04 E42.33203
G0 F9000 X104.268 Y110.293
G0 X104.25 Y109.869
G0 X104.499 Y109.576
G0 X106.61 Y109.434
G0 X106.61 Y109.557
;TYPE:SKIN
G1 F2700 X106.61 Y110.443 E42.35162
G1 X108.757 Y110.443 E42.39911
G1 X108.756 Y109.557 E42.41871
G1 X106.61 Y109.557 E42.46617
G0 F9000 X106.75 Y109.76
G1 F2700 X108.617 Y109.76 E42.50747
G0 F9000 X108.617 Y110.04
G1 F2700 X106.75 Y110.04 E42.54876
G0 F9000 X106.75 Y110.591
G0 X104.557 Y110.447
G0 X103.737 Y110.008
G0 X103.13 Y110.003
G0 X103.199 Y110.158
;TYPE:SKIN
G1 F1800 X103.199 Y109.854 E42.54901
G1 X103.232 Y109.6 E42.54923
G1 X103.299 Y109.443 E42.54937
G1 X103.299 Y110.574 E42.55031
G1 X103.399 Y110.78 E42.5505
G1 X103.399 Y109.217 E42.5518
G1 X103.499 Y109.09 E42.55193
G1 X103.499 Y110.907 E42.55344
G1 X103.599 Y111.034 E42.55358
G1 X103.599 Y108.964 E42.5553
G1 X103.699 Y108.865 E42.55542
G1 X103.699 Y111.129 E42.5573
G1 X103.799 Y111.204 E42.5574
G1 X103.799 Y108.792 E42.55941
G1 X103.899 Y108.718 E42.55951
G1 X103.899 Y111.279 E42.56164
G1 X103.999 Y111.345 E42.56174
G1 X103.999 Y108.652 E42.56398
G1 X104.099 Y108.611 E42.56407
G1 X104.099 Y111.385 E42.56638
G1 X104.199 Y111.425 E42.56647
G1 X104.199 Y108.571 E42.56884
G1 X104.299 Y108.531 E42.56893
G1 X104.299 Y111.465 E42.57137
G1 X104.399 Y111.492 E42.57145
G1 X104.399 Y108.504 E42.57394
G1 X104.499 Y108.491 E42.57402
G1 X104.499 Y111.505 E42.57653
G1 X104.599 Y111.518 E42.57661
G1 X104.599 Y108.478 E42.57914
G1 X104.699 Y108.466 E42.57922
G1 X104.699 Y111.531 E42.58177
G1 X104.799 Y111.542 E42.58186
G1 X104.799 Y108.455 E42.58442
G1 X104.899 Y108.455 E42.58451
G1 X104.899 Y111.542 E42.58707
G1 X104.999 Y111.542 E42.58716
G1 X104.999 Y108.455 E42.58972
G1 X105.099 Y108.455 E42.58981
G1 X105.099 Y111.542 E42.59237
G1 X105.199 Y111.542 E42.59246
G1 X105.199 Y108.455 E42.59502
G1 X105.299 Y108.455 E42.59511
G1 X105.299 Y111.542 E42.59767
G1 X105.399 Y111.542 E42.59776
G1 X105.399 Y108.455 E42.60032
G1 X105.499 Y108.455 E42.60041
G1 X105.499 Y111.542 E42.60297
G1 X105.599 Y111.542 E42.60306
G1 X105.599 Y108.455 E42.60562
G1 X105.699 Y108.455 E42.60571
G1 X105.699 Y111.542 E42.60827
G1 X105.799 Y111.542 E42.60836
G1 X105.799 Y108.455 E42.61092
G1 X105.899 Y108.455 E42.61101
G1 X105.899 Y111.542 E42.61357
G1 X105.999 Y111.542 E42.61366
G1 X105.999 Y108.455 E42.61622
G1 X106.099 Y108.455 E42.61631
G1 X106.099 Y111.542 E42.61887
G1 X106.199 Y111.542 E42.61896
G1 X106.199 Y108.455 E42.62152
G0 F9000 X106.199 Y109.009
G0 X111.899 Y109.009
G0 X111.899 Y108.456
G1 F1800 X111.899 Y111.543 E42.62409
G1 X111.999 Y111.543 E42.62417
G1 X111.999 Y108.456 E42.62674
G1 X112.099 Y108.456 E42.62682
G1 X112.099 Y111.543 E42.62939
G1 X112.199 Y111.543 E42.62947
G1 X112.199 Y108.456 E42.63204
G1 X112.299 Y108.456 E42.63212
G1 X112.299 Y111.543 E42.63469
G1 X112.399 Y111.543 E42.63477
G1 X112.399 Y108.456 E42.63734
G1 X112.499 Y108.456 E42.63742
G1 X112.499 Y111.543 E42.63999
G1 X112.599 Y111.543 E42.64007
G1 X112.599 Y108.456 E42.64264
G1 X112.699 Y108.456 E42.64272
G1 X112.699 Y111.543 E42.64529
G1 X112.799 Y111.543 E42.64537
G1 X112.799 Y108.456 E42.64794
G1 X112.899 Y108.456 E42.64802
G1 X112.899 Y111.543 E42.65059
G1 X112.999 Y111.543 E42.65067
G1 X112.999 Y108.456 E42.65324
G1 X113.099 Y108.456 E42.65332
G1 X113.099 Y111.543 E42.65589
G1 X113.199 Y111.543 E42.65597
G1 X113.199 Y108.456 E42.65854
G1 X113.299 Y108.456 E42.65862
G1 X113.299 Y111.543 E42.66119
G1 X113.399 Y111.543 E42.66127
G1 X113.399 Y108.456 E42.66384
G1 X113.499 Y108.456 E42.66392
G1 X113.499 Y111.543 E42.66649
G1 X113.599 Y111.543 E42.66657
G1 X113.599 Y108.456 E42.66914
G1 X113.699 Y108.456 E42.66922
G1 X113.699 Y111.543 E42.67179
G1 X113.799 Y111.543 E42.67187
G1 X113.799 Y108.456 E42.67444
G1 X113.899 Y108.456 E42.67452
G1 X113.899 Y111.543 E42.67709
G1 X113.999 Y111.543 E42.67717
G1 X113.999 Y108.456 E42.67974
G1 X114.099 Y108.456 E42.67982
G1 X114.099 Y111.543 E42.68239
G1 X114.199 Y111.543 E42.68247
G1 X114.199 Y108.456 E42.68504
G1 X114.299 Y108.456 E42.68512
G1 X114.299 Y111.543 E42.68769
G1 X114.399 Y111.543 E42.68777
G1 X114.399 Y108.456 E42.69034
G1 X114.499 Y108.456 E42.69042
G1 X114.499 Y111.543 E42.69299
G1 X114.599 Y111.543 E42.69307
G1 X114.599 Y108.456 E42.69564
G1 X114.699 Y108.456 E42.69572
G1 X114.699 Y111.543 E42.69829
G1 X114.799 Y111.543 E42.69837
G1 X114.799 Y108.456 E42.70094
G1 X114.899 Y108.456 E42.70102
G1 X114.899 Y111.543 E42.70359
G1 X114.999 Y111.543 E42.70367
G1 X114.999 Y108.456 E42.70624
G1 X115.099 Y108.456 E42.70632
G1 X115.099 Y111.543 E42.70889
G1 X115.199 Y111.543 E42.70897
G1 X115.199 Y108.456 E42.71154
G1 X115.299 Y108.467 E42.71162
G1 X115.299 Y111.532 E42.71417
G1 X115.399 Y111.519 E42.71426
G1 X115.399 Y108.479 E42.71678
G1 X115.499 Y108.492 E42.71687
G1 X115.499 Y111.506 E42.71937
G1 X115.599 Y111.493 E42.71946
G1 X115.599 Y108.505 E42.72194
G1 X115.699 Y108.533 E42.72203
G1 X115.699 Y111.465 E42.72447
G1 X115.799 Y111.425 E42.72456
G1 X115.799 Y108.573 E42.72693
G1 X115.899 Y108.613 E42.72702
G1 X115.899 Y111.385 E42.72932
G1 X115.999 Y111.345 E42.72941
G1 X115.999 Y108.653 E42.73165
G1 X116.099 Y108.721 E42.73175
G1 X116.099 Y111.279 E42.73388
G1 X116.199 Y111.204 E42.73398
G1 X116.199 Y108.795 E42.73598
G1 X116.299 Y108.869 E42.73609
G1 X116.299 Y111.129 E42.73797
G1 X116.399 Y111.029 E42.73809
G1 X116.399 Y108.967 E42.7398
G1 X116.499 Y109.094 E42.73993
G1 X116.499 Y110.904 E42.74144
G1 X116.599 Y110.779 E42.74157
G1 X116.599 Y109.222 E42.74287
G1 X116.699 Y109.444 E42.74307
G1 X116.699 Y110.555 E42.74399
G1 X116.766 Y110.398 E42.74414
G1 X116.799 Y110.15 E42.74434
G1 X116.799 Y109.849 E42.74459
;MESH:NONMESH
G0 F600 X116.799 Y109.849 Z1.68
G0 F9000 X116.251 Y109.921
G0 X115.325 Y109.521
G0 X107.787 Y109.297
;TIME_ELAPSED:93.591395
;LAYER:7
;TYPE:WALL-INNER
;MESH:bodyswitch.stl
G1 F780 X107.787 Y110.716 E42.80064
G1 X110.287 Y110.715 E42.89938
G1 X110.296 Y109.285 E42.95586
G1 X107.875 Y109.284 E43.05148
G1 X107.787 Y109.297 E43.05499
G0 F9000 X107.287 Y108.821
G1 F780 X107.287 Y111.18 E43.14817
G1 X107.501 Y111.171 E43.15663
G1 X107.779 Y111.216 E43.16775
G1 X110.78 Y111.216 E43.28628
G1 X110.8 Y108.785 E43.3823
G1 X107.794 Y108.784 E43.50102
G1 X107.511 Y108.831 E43.51235
G1 X107.287 Y108.821 E43.52121
G1 F2400 E41.52121
G0 F9000 X107.48 Y109.023
G0 X107.481 Y110.979
G1 F1200 E43.52121
G0 F9000 X106.813 Y111.678
;TYPE:WALL-OUTER
G1 F600 X107.568 Y111.644 E43.54808
G1 X107.694 Y111.691 E43.55286
G1 X110.982 Y111.691 E43.66973
G1 X111.259 Y111.403 E43.68394
G1 X111.276 Y108.596 E43.78372
G1 X110.985 Y108.309 E43.79825
G1 X107.703 Y108.309 E43.91491
G1 X107.578 Y108.358 E43.91968
G1 X106.814 Y108.323 E43.94687
G1 X106.812 Y108.329 E43.9471
G1 X106.813 Y111.678 E44.06614
G0 F9000 X107.013 Y111.669
G0 X107.481 Y110.979
G0 X108.645 Y110.465
;TYPE:FILL
G1 F720 X108.705 Y110.24 E44.07663
;MESH:NONMESH
G0 F600 X108.705 Y110.24 Z1.88
G0 F9000 X108.455 Y109.284
;TIME_ELAPSED:97.375369
;LAYER:8
;TYPE:WALL-INNER
;MESH:bodyswitch.stl
G1 F780 X108.456 Y110.716 E44.13319
G1 X110.287 Y110.716 E44.2055
G1 X110.296 Y109.285 E44.26202
G1 X108.455 Y109.284 E44.33474
G0 F9000 X110.604 Y108.979
G0 X110.799 Y108.785
G1 F780 X107.955 Y108.79 E44.44706
G1 X107.957 Y111.216 E44.54288
G1 X110.78 Y111.216 E44.65438
G1 X110.799 Y108.785 E44.7504
G1 F2400 E42.7504
G0 F9000 X110.604 Y108.979
G0 X108.15 Y108.979
G1 F1200 E44.7504
G0 F9000 X107.655 Y108.352
;TYPE:WALL-OUTER
G1 F600 X107.481 Y108.604 E44.76129
G1 X107.482 Y111.407 E44.86092
G1 X107.66 Y111.649 E44.8716
G1 X107.963 Y111.691 E44.88248
G1 X110.982 Y111.691 E44.98979
G1 X111.259 Y111.403 E45.004
G1 X111.275 Y108.596 E45.10378
G1 X110.985 Y108.309 E45.11828
G1 X107.966 Y108.309 E45.2256
G1 X107.655 Y108.352 E45.23676
G0 F9000 X107.542 Y108.516
G0 X108.15 Y108.979
G0 X108.748 Y109.533
;TYPE:FILL
G1 F720 X108.704 Y109.697 E45.25205
;MESH:NONMESH
G0 F600 X108.704 Y109.697 Z2.08
G0 F9000 X108.53 Y109.284
;TIME_ELAPSED:100.814594
;LAYER:9
;TYPE:WALL-INNER
;MESH:bodyswitch.stl
G1 F780 X108.53 Y110.716 E45.30861
G1 X110.287 Y110.716 E45.378
G1 X110.296 Y109.285 E45.43452
G1 X108.53 Y109.284 E45.50427
G0 F9000 X108.03 Y108.814
G1 F780 X108.031 Y111.186 E45.59796
G1 X108.239 Y111.216 E45.60626
G1 X110.78 Y111.216 E45.70662
G1 X110.799 Y108.785 E45.80264
G1 X108.243 Y108.784 E45.90359
G1 X108.03 Y108.814 E45.91209
G0 F9000 X107.653 Y108.386
;TYPE:WALL-OUTER
G1 F600 X107.555 Y108.59 E45.92013
G1 X107.556 Y111.411 E46.02041
G1 X107.654 Y111.614 E46.02842
G1 X108.207 Y111.691 E46.04827
G1 X110.982 Y111.691 E46.14691
G1 X111.259 Y111.403 E46.16111
G1 X111.275 Y108.596 E46.2609
G1 X110.985 Y108.309 E46.2754
G1 X108.21 Y108.309 E46.37404
G1 X107.653 Y108.386 E46.39403
G0 F9000 X107.567 Y108.566
G0 X108.529 Y109.409
;MESH:NONMESH
G0 F600 X108.529 Y109.409 Z2.28
G0 F9000 X108.575 Y109.284
;TIME_ELAPSED:103.752367
;LAYER:10
;TYPE:WALL-INNER
;MESH:bodyswitch.stl
G1 F780 X108.576 Y110.716 E46.45059
G1 X110.287 Y110.715 E46.51817
G1 X110.295 Y109.285 E46.57465
G1 X108.575 Y109.284 E46.64258
G0 F9000 X108.076 Y108.841
G1 F780 X108.077 Y111.159 E46.73413
G1 X108.483 Y111.216 E46.75033
G1 X110.78 Y111.216 E46.84105
G1 X110.798 Y108.785 E46.93707
G1 X108.485 Y108.784 E47.02842
G1 X108.076 Y108.841 E47.04473
G0 F9000 X107.68 Y108.416
;TYPE:WALL-OUTER
G1 F600 X107.601 Y108.532 E47.04972
G1 X107.602 Y111.468 E47.15409
G1 X107.68 Y111.584 E47.15906
G1 X108.45 Y111.691 E47.18669
G1 X110.982 Y111.691 E47.2767
G1 X111.259 Y111.403 E47.2909
G1 X111.274 Y108.596 E47.39068
G1 X110.983 Y108.309 E47.40521
G1 X108.453 Y108.309 E47.49514
G1 X107.68 Y108.416 E47.52288
G0 F9000 X107.601 Y108.532
G0 X107.601 Y108.592
G0 X108.577 Y109.409
;MESH:NONMESH
G0 F600 X108.577 Y109.409 Z2.48
G0 F9000 X108.689 Y109.357
;TIME_ELAPSED:106.658978
;LAYER:11
;TYPE:WALL-INNER
;MESH:bodyswitch.stl
G1 F780 X108.69 Y110.643 E47.57367
G1 X108.865 Y110.716 E47.58116
G1 X110.287 Y110.715 E47.63733
G1 X110.295 Y109.285 E47.69381
G1 X108.864 Y109.284 E47.75033
G1 X108.813 Y109.333 E47.75312
G1 X108.689 Y109.357 E47.75811
G0 F9000 X108.189 Y108.986
G1 F780 X108.19 Y111.013 E47.83817
G1 X108.535 Y111.083 E47.85207
G1 X108.675 Y111.216 E47.8597
G1 X110.78 Y111.216 E47.94284
G1 X110.798 Y108.785 E48.03886
G1 X108.675 Y108.784 E48.12271
G1 X108.534 Y108.918 E48.13039
G1 X108.189 Y108.986 E48.14428
G0 F9000 X107.714 Y108.48
;TYPE:WALL-OUTER
G1 F600 X107.714 Y111.519 E48.25231
G1 X108.099 Y111.443 E48.26626
G1 X108.27 Y111.477 E48.27245
G1 X108.441 Y111.662 E48.28141
G1 X108.617 Y111.691 E48.28775
G1 X110.982 Y111.691 E48.37182
G1 X111.259 Y111.403 E48.38602
G1 X111.274 Y108.596 E48.4858
G1 X110.983 Y108.309 E48.50033
G1 X108.62 Y108.309 E48.58433
G1 X108.441 Y108.338 E48.59077
G1 X108.268 Y108.524 E48.5998
G1 X108.096 Y108.558 E48.60604
G1 X107.714 Y108.48 E48.6199
G0 F9000 X107.714 Y108.68
G0 X108.814 Y109.604
;MESH:NONMESH
G0 F600 X108.814 Y109.604 Z2.68
G0 F9000 X109.23 Y109.284
;TIME_ELAPSED:109.541868
;LAYER:12
;TYPE:WALL-INNER
;MESH:bodyswitch.stl
G1 F780 X109.232 Y110.715 E48.67641
G1 X110.287 Y110.715 E48.71808
G1 X110.294 Y109.285 E48.77456
G1 X109.23 Y109.284 E48.81659
G0 F9000 X108.73 Y108.8
G1 F780 X108.732 Y111.216 E48.91201
G1 X110.78 Y111.216 E48.9929
G1 X110.797 Y108.785 E49.08892
G1 X108.825 Y108.784 E49.16681
G1 X108.73 Y108.8 E49.17061
G0 F9000 X108.36 Y108.379
;TYPE:WALL-OUTER
G1 F600 X108.255 Y108.594 E49.17912
G1 X108.257 Y111.407 E49.27911
G1 X108.362 Y111.621 E49.28758
G1 X108.783 Y111.691 E49.30275
G1 X110.982 Y111.691 E49.38092
G1 X111.259 Y111.403 E49.39512
G1 X111.273 Y108.596 E49.49491
G1 X110.984 Y108.309 E49.50938
G1 X108.786 Y108.309 E49.58751
G1 X108.36 Y108.379 E49.60286
G0 F9000 X108.273 Y108.558
G0 X109.356 Y109.263
;MESH:NONMESH
G0 F600 X109.356 Y109.263 Z2.88
G0 F9000 X109.236 Y109.284
;TIME_ELAPSED:112.127440
;LAYER:13
;TYPE:WALL-INNER
;MESH:bodyswitch.stl
G1 F780 X109.238 Y110.715 E49.65938
G1 X110.287 Y110.715 E49.70081
G1 X110.294 Y109.285 E49.75729
G1 X109.236 Y109.284 E49.79908
G0 F9000 X108.736 Y108.827
G1 F780 X108.738 Y111.174 E49.89178
G1 X108.986 Y111.216 E49.90171
G1 X110.78 Y111.216 E49.97257
G1 X110.797 Y108.785 E50.06859
G1 X108.99 Y108.784 E50.13996
G1 X108.736 Y108.827 E50.15013
G0 F9000 X108.312 Y108.415
;TYPE:WALL-OUTER
G1 F600 X108.261 Y108.574 E50.15607
G1 X108.263 Y111.463 E50.25876
G1 X108.316 Y111.585 E50.26349
G1 X108.947 Y111.691 E50.28623
G1 X110.982 Y111.691 E50.35857
G1 X111.259 Y111.403 E50.37278
G1 X111.273 Y108.596 E50.47256
G1 X110.984 Y108.309 E50.48704
G1 X108.95 Y108.309 E50.55934
G1 X108.312 Y108.415 E50.58233
G0 F9000 X108.261 Y108.574
G0 X108.261 Y108.608
G0 X109.242 Y109.409
;MESH:NONMESH
G0 F600 X109.242 Y109.409 Z3.08
G0 F9000 X109.247 Y109.286
;TIME_ELAPSED:114.704178
;LAYER:14
;TYPE:WALL-INNER
;MESH:bodyswitch.stl
G1 F780 X109.248 Y110.714 E50.63873
G1 X110.287 Y110.714 E50.67977
G1 X110.293 Y109.286 E50.73617
G1 X109.247 Y109.286 E50.77748
G0 F9000 X108.748 Y108.851
G1 F780 X108.748 Y111.149 E50.86824
G1 X109.179 Y111.214 E50.88546
G1 X110.781 Y111.215 E50.94873
G1 X110.796 Y108.785 E51.04471
G1 X109.138 Y108.786 E51.11019
G1 X108.748 Y108.851 E51.12581
G0 F9000 X108.293 Y108.448
;TYPE:WALL-OUTER
G1 F600 X108.272 Y108.462 E51.12671
G1 X108.272 Y111.548 E51.23641
G1 X108.766 Y111.635 E51.25424
G1 X109.051 Y111.67 E51.26444
G1 X109.111 Y111.689 E51.26668
G1 X110.982 Y111.69 E51.33319
G1 X111.259 Y111.405 E51.34732
G1 X111.272 Y108.596 E51.44717
G1 X110.984 Y108.309 E51.46162
G1 X109.099 Y108.311 E51.52863
G1 X108.293 Y108.448 E51.55769
G0 F9000 X108.272 Y108.462
G0 X108.272 Y108.637
G0 X109.271 Y109.413
;MESH:NONMESH
G0 F600 X109.271 Y109.413 Z3.28
G0 F9000 X109.815 Y110.722
;TIME_ELAPSED:117.344587
;LAYER:15
;TYPE:WALL-INNER
;MESH:bodyswitch.stl
G1 F809.1 X110.295 Y110.723 E51.57596
G1 X110.302 Y109.276 E51.63106
G1 F807.5 X109.817 Y109.276 E51.64956
G1 F809.1 X109.815 Y110.722 E51.70462
G0 F9000 X109.324 Y111.213
G1 F780 X110.784 Y111.212 E51.76228
G1 X110.796 Y108.784 E51.85818
G1 X109.326 Y108.785 E51.91624
G1 X109.324 Y111.213 E52.01214
G0 F9000 X108.984 Y111.624
;TYPE:WALL-OUTER
G1 F600 X109.183 Y111.688 E52.01957
G1 X110.983 Y111.691 E52.08355
G1 X111.259 Y111.404 E52.09771
G1 X111.271 Y108.596 E52.19752
G1 X110.984 Y108.309 E52.21195
G1 X109.219 Y108.309 E52.27469
G1 X108.982 Y108.377 E52.28346
G1 X108.85 Y108.582 E52.29212
G1 X108.849 Y111.419 E52.39297
G1 X108.984 Y111.624 E52.40169
G0 F9000 X109.174 Y111.685
G0 X109.802 Y110.591
;MESH:NONMESH
G0 F600 X109.802 Y110.591 Z3.48
G0 F9000 X109.789 Y110.717
;TIME_ELAPSED:119.619596
;LAYER:16
;TYPE:WALL-INNER
;MESH:bodyswitch.stl
G1 F781.6 X110.287 Y110.716 E52.42132
G1 X110.293 Y109.285 E52.47773
G1 F780 X109.792 Y109.285 E52.49752
G1 F781.6 X109.789 Y110.717 E52.55396
G0 F9000 X109.291 Y111.201
G1 F780 X109.368 Y111.216 E52.55706
G1 X110.784 Y111.211 E52.61299
G1 X110.796 Y108.784 E52.70885
G1 X109.292 Y108.784 E52.76825
G1 X109.291 Y111.201 E52.86371
G0 F9000 X108.914 Y111.615
;TYPE:WALL-OUTER
G1 F600 X109.325 Y111.691 E52.87857
G1 X110.982 Y111.691 E52.93747
G1 X111.259 Y111.404 E52.95165
G1 X111.271 Y108.596 E53.05147
G1 X110.984 Y108.309 E53.0659
G1 X109.325 Y108.309 E53.12487
G1 X108.912 Y108.388 E53.13981
G1 X108.817 Y108.579 E53.1474
G1 X108.816 Y111.422 E53.24846
G1 X108.914 Y111.615 E53.25615
G0 F9000 X109.111 Y111.651
G0 X109.768 Y110.591
;MESH:NONMESH
G0 F600 X109.768 Y110.591 Z3.68
G0 F9000 X109.765 Y110.709
;TIME_ELAPSED:121.916330
;LAYER:17
;TYPE:WALL-INNER
;MESH:bodyswitch.stl
G1 F757.3 X110.279 Y110.709 E53.27706
G1 X110.284 Y109.293 E53.33467
G1 F755.8 X109.767 Y109.293 E53.35574
G1 F757.3 X109.765 Y110.709 E53.41334
G0 F9000 X109.257 Y111.175
G1 F780 X109.476 Y111.216 E53.42214
G1 X110.784 Y111.212 E53.47381
G1 X110.795 Y108.784 E53.5697
G1 X109.477 Y108.784 E53.62176
G1 X109.258 Y108.826 E53.63057
G1 X109.257 Y111.175 E53.72334
G0 F9000 X108.851 Y111.582
;TYPE:WALL-OUTER
G1 F600 X109.432 Y111.691 E53.74436
G1 X110.982 Y111.691 E53.79945
G1 X111.259 Y111.404 E53.81363
G1 X111.27 Y108.597 E53.91341
G1 X110.983 Y108.309 E53.92787
G1 X109.433 Y108.309 E53.98296
G1 X108.85 Y108.42 E54.00406
G1 X108.783 Y108.518 E54.00828
G1 X108.782 Y111.481 E54.11361
G1 X108.851 Y111.582 E54.11795
G0 F9000 X109.047 Y111.618
G0 X109.766 Y110.591
;MESH:NONMESH
G0 F600 X109.766 Y110.591 Z3.88
G0 F9000 X109.826 Y110.729
;TIME_ELAPSED:124.233678
;LAYER:18
;TYPE:WALL-INNER
;MESH:bodyswitch.stl
G1 F822.8 X110.299 Y110.729 E54.13566
G1 F821.1 X110.305 Y109.273 E54.1903
G1 F819.3 X109.828 Y109.273 E54.20823
G1 F821.1 X109.826 Y110.729 E54.26286
G0 F9000 X109.541 Y108.994
G0 X109.34 Y108.833
G1 F780 X109.34 Y111.17 E54.35517
G1 X109.583 Y111.216 E54.36493
G1 X110.784 Y111.212 E54.41237
G1 X110.795 Y108.784 E54.50827
G1 X109.586 Y108.784 E54.55602
G1 X109.34 Y108.833 E54.56593
G0 F9000 X108.865 Y108.5
;TYPE:WALL-OUTER
G1 F600 X108.868 Y111.52 E54.67328
G1 X109.033 Y111.596 E54.67973
G1 X109.539 Y111.691 E54.69804
G1 X110.982 Y111.691 E54.74933
G1 X111.259 Y111.404 E54.76351
G1 X111.27 Y108.597 E54.86329
G1 X110.983 Y108.309 E54.87774
G1 X109.541 Y108.309 E54.929
G1 X109.042 Y108.406 E54.94707
G1 X108.865 Y108.5 E54.95419
G0 F9000 X108.865 Y108.7
G0 X109.849 Y109.409
;MESH:NONMESH
G0 F600 X109.849 Y109.409 Z4.08
G0 F9000 X109.782 Y108.784
;TIME_ELAPSED:126.577523
;LAYER:19
;TYPE:WALL-INNER
;MESH:bodyswitch.stl
G1 F780 X109.784 Y111.215 E55.05021
G1 X110.784 Y111.212 E55.08971
G1 X110.794 Y108.784 E55.1856
G1 X109.782 Y108.784 E55.22557
G0 F9000 X109.485 Y108.344
;TYPE:WALL-OUTER
G1 F600 X109.322 Y108.571 E55.23551
G1 X109.307 Y108.616 E55.23719
G1 X109.308 Y111.409 E55.33648
G1 X109.485 Y111.655 E55.34725
G1 X109.553 Y111.691 E55.34998
G1 X110.982 Y111.691 E55.40078
G1 X111.259 Y111.404 E55.41496
G1 X111.269 Y108.595 E55.51481
G1 X110.984 Y108.309 E55.52916
G1 X109.553 Y108.309 E55.58003
G1 X109.485 Y108.344 E55.58275
G0 F9000 X109.369 Y108.506
G0 X109.977 Y108.979
G0 X110.287 Y109.289
;TYPE:WALL-INNER
G1 F767.7 X110.286 Y110.002 E55.61136
G1 F773.8 X110.285 Y110.715 E55.63975
G0 F9000 X110.408 Y110.592
;MESH:NONMESH
G0 F600 X110.408 Y110.592 Z4.28
G0 F9000 X110.599 Y108.979
G0 X110.796 Y108.784
;TIME_ELAPSED:128.572251
;LAYER:20
;TYPE:WALL-INNER
;MESH:bodyswitch.stl
G1 F780 X109.708 Y108.787 E55.68272
G1 X109.708 Y111.212 E55.7785
G1 X110.781 Y111.215 E55.82088
G1 X110.796 Y109.65 E55.88269
G1 X110.796 Y108.784 E55.9169
G0 F9000 X110.252 Y109.33
G1 F665.5 X110.25 Y110.002 E55.948
G1 F670.1 X110.248 Y110.674 E55.9789
G0 F9000 X109.902 Y111.021
G0 X109.354 Y111.626
;TYPE:WALL-OUTER
G1 F600 X109.642 Y111.687 E55.98936
G1 X110.982 Y111.69 E56.037
G1 X111.258 Y111.403 E56.05115
G1 X111.271 Y109.65 E56.11346
G1 X111.27 Y108.596 E56.15093
G1 X110.984 Y108.309 E56.16533
G1 X109.641 Y108.313 E56.21307
G1 X109.351 Y108.375 E56.22361
G1 X109.233 Y108.586 E56.23221
G1 X109.232 Y111.414 E56.33273
G1 X109.354 Y111.626 E56.34143
G0 F9000 X109.549 Y111.667
G0 X110.185 Y110.591
;MESH:NONMESH
G0 F600 X110.185 Y110.591 Z4.48
G0 F9000 X109.903 Y108.979
G0 X109.632 Y108.788
;TIME_ELAPSED:130.673548
;LAYER:21
;TYPE:WALL-INNER
;MESH:bodyswitch.stl
G1 F780 X109.632 Y111.186 E56.43614
G1 X109.753 Y111.212 E56.44103
G1 X110.781 Y111.215 E56.48163
G1 X110.795 Y109.729 E56.54033
G1 X110.795 Y108.784 E56.57765
G1 X109.632 Y108.788 E56.62358
G0 F9000 X109.208 Y108.418
;TYPE:WALL-OUTER
G1 F600 X109.157 Y108.527 E56.62786
G1 X109.157 Y111.474 E56.73262
G1 X109.213 Y111.582 E56.73694
G1 X109.703 Y111.687 E56.75476
G1 X110.982 Y111.69 E56.80022
G1 X111.258 Y111.403 E56.81438
G1 X111.27 Y109.729 E56.87388
G1 X111.269 Y108.595 E56.91419
G1 X110.985 Y108.31 E56.92849
G1 X109.702 Y108.313 E56.9741
G1 X109.208 Y108.418 E56.99205
G0 F9000 X109.157 Y108.527
G0 X109.157 Y108.607
G0 X109.833 Y108.978
G0 X110.213 Y109.368
;TYPE:WALL-INNER
G1 F589.1 X110.212 Y110.002 E57.02521
G1 F592.7 X110.21 Y110.636 E57.05816
G0 F9000 X110.164 Y110.635
;MESH:NONMESH
G0 F600 X110.164 Y110.635 Z4.68
G0 F9000 X109.618 Y111.17
;TIME_ELAPSED:132.684016
;LAYER:22
;TYPE:WALL-INNER
;MESH:bodyswitch.stl
G1 F780 X109.814 Y111.212 E57.06608
G1 X110.781 Y111.215 E57.10427
G1 X110.795 Y109.809 E57.15981
G1 X110.795 Y108.784 E57.20029
G1 X109.814 Y108.788 E57.23904
G1 X109.618 Y108.829 E57.24694
G1 X109.618 Y111.17 E57.33941
G0 F9000 X110.203 Y110.628
G1 F580.4 X110.204 Y110.001 E57.37269
G1 F576.9 X110.206 Y109.374 E57.40617
G0 F9000 X109.82 Y108.993
G0 X109.163 Y108.44
;TYPE:WALL-OUTER
G1 F600 X109.143 Y108.457 E57.4071
G1 X109.143 Y111.552 E57.51712
G1 X109.764 Y111.687 E57.53971
G1 X110.982 Y111.69 E57.58301
G1 X111.258 Y111.403 E57.59716
G1 X111.27 Y109.809 E57.65382
G1 X111.269 Y108.595 E57.69698
G1 X110.985 Y108.309 E57.71131
G1 X109.764 Y108.313 E57.75471
G1 X109.163 Y108.44 E57.77654
G0 F9000 X109.143 Y108.457
G0 X109.143 Y108.631
G0 X110.131 Y109.409
;MESH:NONMESH
G0 F600 X110.131 Y109.409 Z4.88
G0 F9000 X110.794 Y108.784
;TIME_ELAPSED:134.791058
;LAYER:23
;TYPE:WALL-INNER
;MESH:bodyswitch.stl
G1 F780 X109.931 Y108.784 E57.81063
G1 X109.898 Y108.793 E57.81198
G1 X109.899 Y111.216 E57.90768
G1 X110.78 Y111.215 E57.94248
G1 X110.794 Y109.888 E57.99489
G1 X110.794 Y108.784 E58.03849
G0 F9000 X110.346 Y109.232
G1 F989.8 X110.345 Y110.002 E58.06246
G1 F1000 X110.343 Y110.772 E58.08618
G1 F2400 E56.08618
G0 F9000 X110.093 Y108.979
G1 F1200 E58.08618
G0 F9000 X109.458 Y108.522
;TYPE:WALL-OUTER
G1 F600 X109.424 Y108.589 E58.08885
G1 X109.424 Y111.411 E58.18916
G1 X109.459 Y111.479 E58.19188
G1 X109.686 Y111.643 E58.20184
G1 X109.87 Y111.691 E58.2086
G1 X110.982 Y111.691 E58.24813
G1 X111.258 Y111.403 E58.26231
G1 X111.269 Y109.888 E58.31616
G1 X111.268 Y108.595 E58.36212
G1 X110.985 Y108.309 E58.37642
G1 X109.87 Y108.309 E58.41606
G1 X109.685 Y108.358 E58.42286
G1 X109.458 Y108.522 E58.43282
G0 F9000 X109.424 Y108.589
G0 X109.424 Y108.714
G0 X110.168 Y109.261
;MESH:NONMESH
G0 F600 X110.168 Y109.261 Z5.08
G0 F9000 X110.078 Y110.991
G0 X110.078 Y111.147
;TIME_ELAPSED:137.046133
;LAYER:24
;TYPE:WALL-INNER
;MESH:bodyswitch.stl
G1 F610.3 X110.715 Y111.146 E58.46497
G1 F609.4 X110.722 Y108.855 E58.58079
G1 F607.5 X110.08 Y108.855 E58.61335
G1 F609.4 X110.078 Y111.147 E58.72922
G0 F9000 X109.7 Y111.634
;TYPE:WALL-OUTER
G1 F600 X109.896 Y111.691 E58.73648
G1 X110.982 Y111.691 E58.77508
G1 X111.258 Y111.403 E58.78926
G1 X111.268 Y109.968 E58.84027
G1 X111.267 Y108.596 E58.88904
G1 X110.984 Y108.31 E58.90335
G1 X109.895 Y108.309 E58.94206
G1 X109.701 Y108.365 E58.94923
G1 X109.535 Y108.596 E58.95935
G1 X109.533 Y111.404 E59.05916
G1 X109.7 Y111.634 E59.06926
G0 F9000 X109.892 Y111.689
G0 X110.163 Y110.736
;MESH:NONMESH
G0 F600 X110.163 Y110.736 Z5.28
G0 F9000 X110.78 Y111.215
;TIME_ELAPSED:138.852296
;LAYER:25
;TYPE:WALL-INNER
;MESH:bodyswitch.stl
G1 F780 X110.793 Y110.046 E59.11544
G1 X110.793 Y108.784 E59.16528
G1 X109.885 Y108.784 E59.20115
G1 X109.884 Y111.198 E59.29649
G1 X109.965 Y111.216 E59.29977
G1 X110.78 Y111.215 E59.33196
G0 F9000 X110.335 Y110.764
G1 F963 X110.336 Y110.001 E59.35637
G1 F955.9 X110.338 Y109.238 E59.38096
G1 F2400 E57.38096
G0 F9000 X110.078 Y111.021
G1 F1200 E59.38096
G0 F9000 X109.507 Y111.604
;TYPE:WALL-OUTER
G1 F600 X109.916 Y111.691 E59.39582
G1 X110.982 Y111.691 E59.43372
G1 X111.258 Y111.403 E59.44789
G1 X111.268 Y110.046 E59.49613
G1 X111.267 Y108.596 E59.54768
G1 X110.984 Y108.31 E59.56198
G1 X109.915 Y108.309 E59.59998
G1 X109.507 Y108.396 E59.61481
G1 X109.41 Y108.559 E59.62155
G1 X109.409 Y111.442 E59.72403
G1 X109.507 Y111.604 E59.73076
G0 F9000 X109.702 Y111.645
G0 X110.163 Y110.737
;MESH:NONMESH
G0 F600 X110.163 Y110.737 Z5.48
G0 F9000 X110.597 Y108.979
G0 X110.792 Y108.784
;TIME_ELAPSED:141.131220
;LAYER:26
;TYPE:WALL-INNER
;MESH:bodyswitch.stl
G1 F780 X109.986 Y108.784 E59.76259
G1 X109.76 Y108.833 E59.77173
G1 X109.759 Y111.167 E59.86391
G1 X109.986 Y111.216 E59.87309
G1 X110.78 Y111.215 E59.90445
G1 X110.792 Y110.125 E59.9475
G1 X110.792 Y108.784 E60.00046
G0 F9000 X110.275 Y109.3
G1 F733.1 X110.274 Y110.001 E60.02992
G1 F737.2 X110.273 Y110.702 E60.05922
G1 F2400 E58.05922
G0 F9000 X109.961 Y108.992
G1 F1200 E60.05922
G0 F9000 X109.287 Y108.448
;TYPE:WALL-OUTER
G1 F600 X109.286 Y111.538 E60.16906
G1 X109.29 Y111.55 E60.1695
G1 X109.936 Y111.691 E60.19301
G1 X110.982 Y111.691 E60.23019
G1 X111.258 Y111.403 E60.24437
G1 X111.267 Y110.125 E60.2898
G1 X111.266 Y108.594 E60.34422
G1 X110.985 Y108.31 E60.35842
G1 X109.935 Y108.309 E60.39575
G1 X109.287 Y108.448 E60.41931
G0 F9000 X109.287 Y108.648
G0 X110.273 Y109.409
;MESH:NONMESH
G0 F600 X110.273 Y109.409 Z5.68
G0 F9000 X110.792 Y108.784
;TIME_ELAPSED:143.431604
;LAYER:27
;TYPE:WALL-INNER
;MESH:bodyswitch.stl
G1 F780 X110.006 Y108.784 E60.45035
G1 X109.902 Y108.806 E60.45455
G1 X109.903 Y111.216 E60.54974
G1 X110.78 Y111.215 E60.58437
G1 X110.792 Y110.204 E60.62431
G1 X110.792 Y108.784 E60.68039
G0 F9000 X110.347 Y109.229
G1 F1005.2 X110.346 Y110.001 E60.70405
G1 F1013 X110.345 Y110.773 E60.72753
G0 F9000 X110.097 Y111.021
G0 X109.584 Y111.612
;TYPE:WALL-OUTER
G1 F600 X109.956 Y111.691 E60.74105
G1 X110.982 Y111.691 E60.77752
G1 X111.258 Y111.403 E60.7917
G1 X111.267 Y110.204 E60.83432
G1 X111.266 Y108.594 E60.89155
G1 X110.985 Y108.31 E60.90575
G1 X109.956 Y108.309 E60.94233
G1 X109.581 Y108.388 E60.95595
G1 X109.447 Y108.491 E60.96196
G1 X109.428 Y108.557 E60.9644
G1 X109.427 Y111.464 E61.06774
G1 X109.584 Y111.612 E61.07541
G0 F9000 X109.779 Y111.653
G0 X110.163 Y110.737
;MESH:NONMESH
G0 F600 X110.163 Y110.737 Z5.88
G0 F9000 X110.139 Y111.167
;TIME_ELAPSED:145.341198
;LAYER:28
;TYPE:WALL-INNER
;MESH:bodyswitch.stl
G1 F652.2 X110.735 Y111.166 E61.10356
G1 F651.1 X110.741 Y108.833 E61.21395
G1 F648.9 X110.14 Y108.834 E61.24248
G1 F651.1 X110.139 Y111.167 E61.35287
G1 F2400 E59.35287
G0 F9000 X110.285 Y111.021
G0 X110.285 Y108.979
G1 F1200 E61.35287
G0 F9000 X109.64 Y108.55
;TYPE:WALL-OUTER
G1 F600 X109.615 Y108.606 E61.35505
G1 X109.616 Y111.427 E61.45533
G1 X109.895 Y111.691 E61.46899
G1 X110.982 Y111.691 E61.50762
G1 X111.258 Y111.403 E61.5218
G1 X111.266 Y110.285 E61.56155
G1 X111.265 Y108.594 E61.62166
G1 X110.984 Y108.309 E61.63588
G1 X109.895 Y108.309 E61.67459
G1 X109.64 Y108.55 E61.68707
G0 F9000 X109.615 Y108.606
G0 X109.615 Y108.745
;MESH:NONMESH
G0 F600 X109.615 Y108.745 Z6.08
G0 F9000 X110.285 Y108.979
G0 X110.285 Y111.021
G0 X110.111 Y111.158
;TIME_ELAPSED:147.435057
;LAYER:29
;TYPE:WALL-INNER
;MESH:bodyswitch.stl
G1 F632.1 X110.726 Y111.157 E61.71704
G1 F631.1 X110.732 Y108.842 E61.83005
G1 F630 X110.113 Y108.843 E61.86032
G1 F631.1 X110.111 Y111.158 E61.97333
G0 F9000 X109.735 Y111.612
;TYPE:WALL-OUTER
G1 F600 X109.99 Y111.691 E61.98282
G1 X110.982 Y111.691 E62.01808
G1 X111.258 Y111.404 E62.03224
G1 X111.266 Y110.364 E62.06921
G1 X111.265 Y108.594 E62.13213
G1 X110.984 Y108.309 E62.14635
G1 X109.99 Y108.309 E62.18169
G1 X109.733 Y108.389 E62.19125
G1 X109.58 Y108.583 E62.20004
G1 X109.578 Y111.418 E62.30081
G1 X109.735 Y111.612 E62.30968
G0 F9000 X109.926 Y111.671
;MESH:NONMESH
G0 F600 X109.926 Y111.671 Z6.28
G0 F9000 X110.779 Y111.211
;TIME_ELAPSED:149.162892
;LAYER:30
;TYPE:WALL-INNER
;MESH:bodyswitch.stl
G1 F780 X110.788 Y108.788 E62.40538
G1 X110.03 Y108.784 E62.43532
G1 X109.899 Y108.812 E62.44061
G1 X109.899 Y111.187 E62.53442
G1 X110.03 Y111.216 E62.53972
G1 X110.779 Y111.211 E62.5693
G0 F9000 X110.341 Y110.773
G1 F1007.8 X110.343 Y109.228 E62.61653
G0 F9000 X110.107 Y108.965
G0 X109.539 Y108.403
;TYPE:WALL-OUTER
G1 F600 X109.424 Y108.496 E62.62179
G1 X109.424 Y111.482 E62.72793
G1 X109.54 Y111.597 E62.73374
G1 X109.98 Y111.691 E62.74973
G1 X110.982 Y111.691 E62.78535
G1 X111.258 Y111.405 E62.79948
G1 X111.263 Y108.596 E62.89933
G1 X110.985 Y108.31 E62.91351
G1 X109.98 Y108.309 E62.94923
G1 X109.539 Y108.403 E62.96526
G0 F9000 X109.424 Y108.496
G0 X109.424 Y108.549
G0 X110.163 Y109.187
;MESH:NONMESH
G0 F600 X110.163 Y109.187 Z6.48
G0 F9000 X110.79 Y108.788
;TIME_ELAPSED:151.088387
;LAYER:31
;TYPE:WALL-INNER
;MESH:bodyswitch.stl
G1 F780 X110.031 Y108.784 E62.99524
G1 X109.829 Y108.828 E63.0034
G1 X109.829 Y111.172 E63.09598
G1 X110.03 Y111.216 E63.10411
G1 X110.78 Y111.215 E63.13373
G1 X110.79 Y110.522 E63.1611
G1 X110.79 Y108.788 E63.22959
G0 F9000 X110.309 Y109.265
G1 F846 X110.308 Y110.736 E63.28316
G1 F2400 E61.28316
G0 F9000 X110.03 Y108.987
G1 F1200 E63.28316
G0 F9000 X109.371 Y108.44
;TYPE:WALL-OUTER
G1 F600 X109.354 Y108.456 E63.28399
G1 X109.354 Y111.554 E63.39411
G1 X109.98 Y111.691 E63.41689
G1 X110.982 Y111.691 E63.45251
G1 X111.258 Y111.404 E63.46666
G1 X111.265 Y110.522 E63.49802
G1 X111.264 Y108.595 E63.56652
G1 X110.984 Y108.31 E63.58072
G1 X109.98 Y108.309 E63.61641
G1 X109.371 Y108.44 E63.63855
G0 F9000 X109.354 Y108.456
G0 X109.354 Y108.633
G0 X110.164 Y109.238
;MESH:NONMESH
G0 F600 X110.164 Y109.238 Z6.68
G0 F9000 X110.059 Y108.86
;TIME_ELAPSED:153.322634
;LAYER:32
;TYPE:WALL-INNER
;MESH:bodyswitch.stl
G1 F600 X110.059 Y111.14 E63.75562
G1 X110.708 Y111.14 E63.78894
G1 X110.711 Y108.86 E63.90601
G1 F599.1 X110.059 Y108.86 E63.93954
G0 F9000 X109.702 Y108.367
;TYPE:WALL-OUTER
G1 F600 X109.509 Y108.558 E63.94919
G1 X109.509 Y111.472 E64.05277
G1 X109.703 Y111.633 E64.06173
G1 X109.98 Y111.691 E64.07179
G1 X110.982 Y111.691 E64.10741
G1 X111.258 Y111.405 E64.12154
G1 X111.262 Y108.597 E64.22135
G1 X110.983 Y108.31 E64.23558
G1 X109.98 Y108.309 E64.27124
G1 X109.702 Y108.367 E64.28133
G0 F9000 X109.56 Y108.507
G0 X110.162 Y109.262
;MESH:NONMESH
G0 F600 X110.162 Y109.262 Z6.88
G0 F9000 X110.175 Y108.821
;TIME_ELAPSED:155.121402
;LAYER:33
;TYPE:WALL-INNER
;MESH:bodyswitch.stl
G1 F680.6 X110.175 Y111.179 E64.38806
G1 F681.8 X110.747 Y111.179 E64.41391
G1 F680.6 X110.749 Y108.821 E64.52064
G1 F679.4 X110.175 Y108.821 E64.54666
G0 F9000 X109.686 Y108.566
;TYPE:WALL-OUTER
G1 F600 X109.663 Y108.621 E64.54878
G1 X109.663 Y111.411 E64.64796
G1 X109.945 Y111.691 E64.66208
G1 X110.982 Y111.691 E64.69894
G1 X111.258 Y111.405 E64.71307
G1 X111.261 Y108.596 E64.81292
G1 X110.985 Y108.309 E64.82708
G1 X109.945 Y108.309 E64.86405
G1 X109.686 Y108.566 E64.87702
G0 F9000 X109.663 Y108.621
G0 X109.663 Y108.762
;MESH:NONMESH
G0 F600 X109.663 Y108.762 Z7.08
G0 F9000 X110.333 Y108.979
G0 X110.333 Y111.021
G0 X110.079 Y111.147
;TIME_ELAPSED:156.866678
;LAYER:34
;TYPE:WALL-INNER
;MESH:bodyswitch.stl
G1 F613.2 X110.715 Y111.147 E64.90897
G1 F612.2 X110.717 Y108.853 E65.0244
G1 F611.3 X110.08 Y108.853 E65.0565
G1 F612.2 X110.079 Y111.147 E65.17193
G0 F9000 X109.706 Y111.633
;TYPE:WALL-OUTER
G1 F600 X109.98 Y111.691 E65.18189
G1 X110.982 Y111.691 E65.21751
G1 X111.258 Y111.405 E65.23163
G1 X111.261 Y108.596 E65.33149
G1 X110.985 Y108.309 E65.34564
G1 X109.98 Y108.309 E65.38136
G1 X109.706 Y108.367 E65.39132
G1 X109.537 Y108.569 E65.40068
G1 X109.536 Y111.433 E65.50249
G1 X109.706 Y111.633 E65.51182
G0 F9000 X109.901 Y111.674
G0 X110.159 Y110.738
;MESH:NONMESH
G0 F600 X110.159 Y110.738 Z7.28
G0 F9000 X110.779 Y111.212
;TIME_ELAPSED:158.667917
;LAYER:35
;TYPE:WALL-INNER
;MESH:bodyswitch.stl
G1 F780 X110.782 Y108.788 E65.60756
G1 X110.03 Y108.784 E65.63726
G1 X109.85 Y108.823 E65.64453
G1 X109.85 Y111.177 E65.73751
G1 X110.03 Y111.216 E65.74478
G1 X110.779 Y111.212 E65.77437
G0 F9000 X110.316 Y110.749
G1 F898.6 X110.318 Y109.252 E65.82569
G0 F9000 X110.052 Y108.982
G0 X109.451 Y108.423
;TYPE:WALL-OUTER
G1 F600 X109.375 Y108.502 E65.82958
G1 X109.375 Y111.498 E65.93608
G1 X109.451 Y111.577 E65.93998
G1 X109.98 Y111.691 E65.95921
G1 X110.982 Y111.691 E65.99483
G1 X111.258 Y111.405 E66.00896
G1 X111.26 Y108.596 E66.10881
G1 X110.985 Y108.309 E66.12294
G1 X109.98 Y108.309 E66.15867
G1 X109.451 Y108.423 E66.1779
G0 F9000 X109.375 Y108.502
G0 X109.375 Y108.593
G0 X110.161 Y109.233
;MESH:NONMESH
G0 F600 X110.161 Y109.233 Z7.48
G0 F9000 X110.588 Y111.021
G0 X110.779 Y111.212
;TIME_ELAPSED:160.674606
;LAYER:36
;TYPE:WALL-INNER
;MESH:bodyswitch.stl
G1 F780 X110.782 Y108.788 E66.27364
G1 X110.03 Y108.784 E66.30334
G1 X109.883 Y108.816 E66.30928
G1 X109.884 Y111.184 E66.40281
G1 X110.03 Y111.216 E66.40872
G1 X110.779 Y111.212 E66.4383
G0 F9000 X110.333 Y110.766
G1 F972.6 X110.334 Y109.235 E66.48679
G0 F9000 X110.085 Y108.975
G0 X109.515 Y108.408
;TYPE:WALL-OUTER
G1 F600 X109.408 Y108.516 E66.4922
G1 X109.409 Y111.511 E66.59866
G1 X109.516 Y111.592 E66.60343
G1 X109.98 Y111.691 E66.6203
G1 X110.982 Y111.691 E66.65591
G1 X111.258 Y111.405 E66.67004
G1 X111.26 Y108.596 E66.76989
G1 X110.985 Y108.309 E66.78402
G1 X109.98 Y108.309 E66.81975
G1 X109.515 Y108.408 E66.83665
G0 F9000 X109.408 Y108.516
G0 X109.408 Y108.564
G0 X110.161 Y109.227
;MESH:NONMESH
G0 F600 X110.161 Y109.227 Z7.68
G0 F9000 X110.104 Y108.844
;TIME_ELAPSED:162.588738
;LAYER:37
;TYPE:WALL-INNER
;MESH:bodyswitch.stl
G1 F630 X110.104 Y111.156 E66.9497
G1 X110.724 Y111.156 E66.98001
G1 X110.724 Y108.845 E67.09301
G1 F629 X110.104 Y108.844 E67.12338
G0 F9000 X109.734 Y108.386
;TYPE:WALL-OUTER
G1 F600 X109.569 Y108.583 E67.13251
G1 X109.57 Y111.417 E67.23325
G1 X109.735 Y111.615 E67.24241
G1 X109.989 Y111.691 E67.25184
G1 X110.982 Y111.691 E67.28714
G1 X111.258 Y111.404 E67.30129
G1 X111.259 Y108.596 E67.4011
G1 X110.983 Y108.309 E67.41526
G1 X109.989 Y108.309 E67.45059
G1 X109.734 Y108.386 E67.46006
G0 F9000 X109.606 Y108.539
;MESH:NONMESH
G0 F600 X109.606 Y108.539 Z7.88
G0 F9000 X110.239 Y108.979
G0 X110.239 Y111.021
G0 X110.148 Y111.171
;TIME_ELAPSED:164.389719
;LAYER:38
;TYPE:WALL-INNER
;MESH:bodyswitch.stl
G1 F661 X110.738 Y111.171 E67.48756
G1 X110.739 Y108.83 E67.59666
G1 X110.149 Y108.829 E67.62416
G1 X110.148 Y111.171 E67.73331
G0 F9000 X109.651 Y111.448
;TYPE:WALL-OUTER
G1 F600 X109.896 Y111.691 E67.74558
G1 X110.982 Y111.691 E67.78418
G1 X111.258 Y111.404 E67.79833
G1 X111.259 Y108.596 E67.89815
G1 X110.983 Y108.309 E67.9123
G1 X109.896 Y108.309 E67.95094
G1 X109.63 Y108.576 E67.96434
G1 X109.629 Y111.393 E68.06448
G1 X109.64 Y111.42 E68.06551
G1 X109.651 Y111.448 E68.06658
G0 F9000 X109.793 Y111.588
;MESH:NONMESH
G0 F600 X109.793 Y111.588 Z8.08
G0 F9000 X110.298 Y111.021
G0 X110.588 Y111.021
G0 X110.779 Y111.212
;TIME_ELAPSED:166.096470
;LAYER:39
;TYPE:WALL-INNER
;MESH:bodyswitch.stl
G1 F780 X110.78 Y108.788 E68.16232
G1 X109.944 Y108.784 E68.19534
G1 X109.943 Y111.197 E68.29064
G1 X110.029 Y111.216 E68.29412
G1 X110.779 Y111.212 E68.32375
G0 F9000 X110.363 Y110.796
G1 F1147.1 X110.363 Y109.205 E68.36648
G0 F9000 X110.138 Y108.979
G0 X109.627 Y108.385
;TYPE:WALL-OUTER
G1 F600 X109.468 Y108.512 E68.37371
G1 X109.468 Y111.461 E68.47854
G1 X109.627 Y111.616 E68.48643
G1 X109.98 Y111.691 E68.49926
G1 X110.982 Y111.691 E68.53488
G1 X111.258 Y111.404 E68.54903
G1 X111.258 Y108.596 E68.64885
G1 X110.983 Y108.309 E68.66297
G1 X109.98 Y108.309 E68.69863
G1 X109.627 Y108.385 E68.71146
G0 F9000 X109.471 Y108.51
G0 X110.159 Y109.262
;MESH:NONMESH
G0 F600 X110.159 Y109.262 Z8.28
G0 F9000 X110.167 Y109.262
G0 X110.588 Y111.021
G0 X110.779 Y111.212
;TIME_ELAPSED:168.050161
;LAYER:40
;TYPE:WALL-INNER
;MESH:bodyswitch.stl
G1 F780 X110.78 Y108.788 E68.8072
G1 X110.032 Y108.784 E68.83675
G1 X109.791 Y108.837 E68.84649
G1 X109.792 Y111.163 E68.93836
G1 X110.032 Y111.216 E68.94807
G1 X110.779 Y111.212 E68.97757
G0 F9000 X110.287 Y110.72
G1 F792.7 X110.287 Y109.28 E69.03354
G0 F9000 X109.993 Y108.995
G0 X109.333 Y108.45
;TYPE:WALL-OUTER
G1 F600 X109.316 Y108.465 E69.03434
G1 X109.317 Y111.544 E69.14379
G1 X109.981 Y111.691 E69.16797
G1 X110.982 Y111.691 E69.20355
G1 X111.258 Y111.404 E69.2177
G1 X111.258 Y108.596 E69.31752
G1 X110.983 Y108.309 E69.33165
G1 X109.981 Y108.309 E69.36727
G1 X109.333 Y108.45 E69.39084
G0 F9000 X109.316 Y108.465
G0 X109.316 Y108.643
G0 X110.305 Y109.409
;MESH:NONMESH
G0 F600 X110.305 Y109.409 Z8.48
G0 F9000 X110.071 Y108.855
;TIME_ELAPSED:170.041729
;LAYER:41
;TYPE:WALL-INNER
;MESH:bodyswitch.stl
G1 F608.4 X110.071 Y111.146 E69.50684
G1 X110.713 Y111.146 E69.53935
G1 X110.713 Y108.855 E69.65535
G1 X110.071 Y108.855 E69.68786
G0 F9000 X109.605 Y108.388
;TYPE:WALL-OUTER
G1 F600 X109.526 Y108.528 E69.69357
G1 X109.526 Y111.471 E69.79819
G1 X109.607 Y111.613 E69.804
G1 X109.98 Y111.691 E69.81755
G1 X110.982 Y111.691 E69.85316
G1 X111.258 Y111.404 E69.86732
G1 X111.258 Y108.597 E69.9671
G1 X110.983 Y108.309 E69.98125
G1 X109.98 Y108.309 E70.01691
G1 X109.605 Y108.388 E70.03053
G0 F9000 X109.526 Y108.528
G0 X109.526 Y108.568
G0 X110.158 Y109.262
;MESH:NONMESH
G0 F600 X110.158 Y109.262 Z8.68
G0 F9000 X110.227 Y108.802
;TIME_ELAPSED:171.836472
;LAYER:42
;TYPE:WALL-INNER
;MESH:bodyswitch.stl
G1 F726.3 X110.227 Y111.198 E70.13216
G1 X110.765 Y111.198 E70.15499
G1 X110.765 Y108.802 E70.25662
G1 X110.227 Y108.802 E70.27944
G0 F9000 X109.882 Y108.34
;TYPE:WALL-OUTER
G1 F600 X109.734 Y108.548 E70.28852
G1 X109.735 Y111.452 E70.39175
G1 X109.882 Y111.66 E70.4008
G1 X109.944 Y111.691 E70.40326
G1 X110.982 Y111.691 E70.44016
G1 X111.258 Y111.404 E70.45432
G1 X111.258 Y108.597 E70.55409
G1 X110.983 Y108.309 E70.56825
G1 X109.944 Y108.309 E70.60518
G1 X109.882 Y108.34 E70.60765
G0 F9000 X109.766 Y108.503
;MESH:NONMESH
G0 F600 X109.766 Y108.503 Z8.88
G0 F9000 X110.037 Y108.457
;TIME_ELAPSED:173.427214
;LAYER:43
;TYPE:WALL-OUTER
;MESH:bodyswitch.stl
G1 F1000 X109.944 Y108.612 E70.61407
G1 X109.945 Y111.389 E70.71279
G1 X110.035 Y111.544 E70.71916
G1 X110.918 Y111.543 E70.75054
G1 X111.111 Y111.311 E70.76127
G1 X111.111 Y108.689 E70.85448
G1 X110.919 Y108.457 E70.86518
G1 X110.037 Y108.457 E70.89653
G0 F9000 X109.944 Y108.612
G0 X109.944 Y108.632
G0 X110.528 Y109.04
;TYPE:WALL-INNER
G1 F907.8 X110.528 Y110.961 E71.00518
G0 F9000 X110.863 Y111.447
G0 X110.092 Y111.3
;TYPE:SKIN
G1 F600 X110.949 Y111.3 E71.0059
G1 X110.962 Y111.2 E71.00598
G1 X110.092 Y111.2 E71.0067
G1 X110.092 Y111.1 E71.00679
G1 X110.962 Y111.1 E71.00751
G1 X110.962 Y111 E71.00759
G1 X110.092 Y111 E71.00832
G1 X110.092 Y110.9 E71.0084
G1 X110.962 Y110.9 E71.00912
G1 X110.962 Y110.8 E71.00921
G1 X110.092 Y110.8 E71.00993
G1 X110.092 Y110.7 E71.01001
G1 X110.962 Y110.7 E71.01074
G1 X110.962 Y110.6 E71.01082
G1 X110.092 Y110.6 E71.01154
G1 X110.092 Y110.5 E71.01162
G1 X110.962 Y110.5 E71.01235
G1 X110.962 Y110.4 E71.01243
G1 X110.092 Y110.4 E71.01315
G1 X110.092 Y110.3 E71.01324
G1 X110.962 Y110.3 E71.01396
G1 X110.962 Y110.2 E71.01404
G1 X110.092 Y110.2 E71.01477
G1 X110.092 Y110.1 E71.01485
G1 X110.962 Y110.1 E71.01557
G1 X110.963 Y110 E71.01566
G1 X110.092 Y110 E71.01638
G1 X110.092 Y109.9 E71.01646
G1 X110.963 Y109.9 E71.01719
G1 X110.963 Y109.8 E71.01727
G1 X110.092 Y109.8 E71.018
G1 X110.092 Y109.7 E71.01808
G1 X110.963 Y109.7 E71.0188
G1 X110.963 Y109.6 E71.01889
G1 X110.092 Y109.6 E71.01961
G1 X110.092 Y109.5 E71.01969
G1 X110.963 Y109.5 E71.02042
G1 X110.963 Y109.4 E71.0205
G1 X110.092 Y109.4 E71.02123
G1 X110.092 Y109.3 E71.02131
G1 X110.963 Y109.3 E71.02203
G1 X110.963 Y109.2 E71.02212
G1 X110.092 Y109.2 E71.02284
G1 X110.092 Y109.1 E71.02292
G1 X110.963 Y109.1 E71.02365
G1 X110.963 Y109 E71.02373
G1 X110.092 Y109 E71.02446
G1 X110.092 Y108.9 E71.02454
G1 X110.963 Y108.9 E71.02526
G1 X110.963 Y108.8 E71.02535
G1 X110.092 Y108.8 E71.02607
G1 X110.092 Y108.7 E71.02615
G1 X110.949 Y108.7 E71.02687
;TIME_ELAPSED:176.836756
G1 F2400 E69.02687
M140 S0
M205 X10 Y10
M107
G91 ;Relative positioning
G1 E-2 F2700 ;Retract a bit
G1 E-2 Z0.2 F2400 ;Retract and raise Z
G1 X5 Y5 F3000 ;Wipe out
G1 Z10 ;Raise Z more
G90 ;Absolute positioning

G28 X0 Y0 ;Present print
M106 S0 ;Turn-off fan
M104 S0 ;Turn-off hotend
M140 S0 ;Turn-off bed

;*** Message and End Tones
M117 Print Completed
M300 S440 P200 ; Make Print Completed Tones
M300 S660 P250
M300 S880 P300
;*** End Message and End Tones

M84 X Y E ;Disable all steppers but Z
M82 ;absolute extrusion mode
M104 S0
;End of Gcode
;SETTING_3 {"global_quality": "[general]\\nversion = 4\\nname = FFV5.1_EF(.20)\\
;SETTING_3 ndefinition = creality_ender5\\n\\n[metadata]\\ntype = quality_change
;SETTING_3 s\\nquality_type = standard\\nsetting_version = 20\\n\\n[values]\\nac
;SETTING_3 celeration_enabled = True\\nadhesion_type = skirt\\njerk_enabled = Tr
;SETTING_3 ue\\nlayer_height = 0.2\\nlayer_height_0 = 0.28\\nmaterial_bed_temper
;SETTING_3 ature = 40\\nmaterial_bed_temperature_layer_0 = 50\\n\\n", "extruder_
;SETTING_3 quality": ["[general]\\nversion = 4\\nname = FFV5.1_EF(.20)\\ndefinit
;SETTING_3 ion = creality_ender5\\n\\n[metadata]\\ntype = quality_changes\\nqual
;SETTING_3 ity_type = standard\\nintent_category = default\\nposition = 0\\nsett
;SETTING_3 ing_version = 20\\n\\n[values]\\nacceleration_print = 500.0\\nacceler
;SETTING_3 ation_roofing = 500.0\\nacceleration_topbottom = 500.0\\nacceleration
;SETTING_3 _travel = 500.0\\nacceleration_wall = 500.0\\nbottom_layers = 3\\nbri
;SETTING_3 m_line_count = 10\\ncoasting_enable = False\\nfill_outline_gaps = Tru
;SETTING_3 e\\ninfill_line_distance = =0 if infill_sparse_density == 0 else (inf
;SETTING_3 ill_line_width * 100) / infill_sparse_density * (2 if infill_pattern 
;SETTING_3 == 'grid' else (3 if infill_pattern == 'triangles' or infill_pattern 
;SETTING_3 == 'trihexagon' or infill_pattern == 'cubic' or infill_pattern == 'cu
;SETTING_3 bicsubdiv' else (2 if infill_pattern == 'tetrahedral' or infill_patte
;SETTING_3 rn == 'quarter_cubic' else (1 if infill_pattern == 'cross' or infill_
;SETTING_3 pattern == 'cross_3d' else 1))))\\ninfill_line_width = 0.57\\ninfill_
;SETTING_3 overlap = 0\\ninfill_pattern = ='zigzag' if infill_sparse_density > 8
;SETTING_3 9 else 'lines' if infill_sparse_density > 31 else 'cubic'\\ninfill_sp
;SETTING_3 arse_density = 20\\ninfill_sparse_thickness = 0.3\\ninitial_layer_lin
;SETTING_3 e_width_factor = 100.0\\ninset_direction = inside_out\\nironing_enabl
;SETTING_3 ed = True\\njerk_layer_0 = 8\\njerk_print = 20\\njerk_travel_layer_0 
;SETTING_3 = 5\\nline_width = 0.45\\nmaterial_flow = 95\\nmaterial_flow_layer_0 
;SETTING_3 = 95\\nmaterial_print_temperature = 210\\nretraction_amount = 2\\nret
;SETTING_3 raction_extrusion_window = 6\\nretraction_prime_speed = 20\\nretracti
;SETTING_3 on_retract_speed = 40\\nroofing_layer_count = 1\\nskin_angles = [90,0
;SETTING_3  ]\\nskin_line_width = 0.28\\nskin_monotonic = True\\nskin_overlap = 
;SETTING_3 30.0\\nskirt_brim_speed = 25.0\\nskirt_line_count = 1\\nspeed_layer_0
;SETTING_3  = 25\\nspeed_print = 60.0\\nspeed_roofing = 50\\nspeed_topbottom = 4
;SETTING_3 5\\nspeed_travel_layer_0 = 125.0\\nspeed_wall_0 = 50\\nspeed_wall_x =
;SETTING_3  65\\nspeed_z_hop = 10\\ntop_bottom_pattern = lines\\ntop_bottom_thic
;SETTING_3 kness = =layer_height_0+layer_height*3\\ntop_layers = 3\\nwall_0_mate
;SETTING_3 rial_flow = 95\\nwall_0_wipe_dist = 0.2\\nwall_line_count = 3\\nwall_
;SETTING_3 line_width_x = 0.5\\nwall_thickness = =line_width*2\\nxy_offset = 0.2
;SETTING_3 \\nxy_offset_layer_0 = -0.2\\nz_seam_corner = z_seam_corner_weighted\
;SETTING_3 \nz_seam_type = sharpest_corner\\n\\n"]}
