;FLAVOR:Marlin
;TIME:209
;Filament used: 0.116095m
;Layer height: 0.2
;MINX:90.293
;MINY:95.724
;MINZ:0.28
;MAXX:129.707
;MAXY:124.275
;MAXZ:3.48
;Generated with Cura_SteamEngine main
M82 ;absolute extrusion mode
M201 X500.00 Y500.00 Z100.00 E5000.00 ;Setup machine max acceleration
M203 X500.00 Y500.00 Z10.00 E50.00 ;Setup machine max feedrate
M204 P500.00 R1000.00 T500.00 ;Setup Print/Retract/Travel acceleration
M205 X8.00 Y8.00 Z0.40 E5.00 ;Setup Jerk
M220 S100 ;Reset Feedrate
M221 S100 ;Reset Flowrate

;*** Start Dual Nozzle/Bed Preheating ***
M140 S50 ; start preheating the bed
M104 S210 ?T0 ; start preheating hotend
M190 S50 ; heat to Cura Bed setting and WAIT
M109 S210 ?T0 ; heat to Cura Hotend and WAIT
;*** End Preheating ***


;*** Single Print Start Tone
M300 S1000 P500 ; chirp to indicate starting to print
;*** End Single Start Tone

G28 ;Home

G92 E0 ;Reset Extruder
G1 Z2.0 F3000 ;Move Z Axis up
G1 X10.1 Y20 Z0.28 F5000.0 ;Move to start position
G1 X10.1 Y200.0 Z0.28 F1500.0 E15 ;Draw the first line
G1 X10.4 Y200.0 Z0.28 F5000.0 ;Move to side a little
G1 X10.4 Y20 Z0.28 F1500.0 E30 ;Draw the second line
G92 E0 ;Reset Extruder
G1 Z2.0 F3000 ;Move Z Axis up
G92 E0
G92 E0
G1 F2400 E-2
;LAYER_COUNT:17
;LAYER:0
M107
M204 S500
M205 X5 Y5
G0 F7500 X93.491 Y99.264 Z0.28
G0 X90.294 Y107.588
M205 X8 Y8
;TYPE:SKIRT
G1 F1200 E0
G1 F1500 X90.303 Y106.913 E0.03191
G1 X90.356 Y105.971 E0.07652
G1 X90.488 Y105.037 E0.12112
G1 X90.698 Y104.118 E0.16568
G1 X90.986 Y103.22 E0.21027
G1 X91.349 Y102.349 E0.25488
G1 X91.785 Y101.512 E0.2995
G1 X92.289 Y100.715 E0.34408
G1 X92.86 Y99.964 E0.38868
G1 X93.491 Y99.264 E0.43324
G1 X94.18 Y98.62 E0.47782
G1 X94.921 Y98.036 E0.52243
G1 X95.709 Y97.518 E0.56701
G1 X96.538 Y97.068 E0.61161
G1 X97.402 Y96.69 E0.65619
G1 X98.295 Y96.386 E0.70079
G1 X99.211 Y96.159 E0.74541
G1 X100.142 Y96.01 E0.78998
G1 X101.115 Y95.94 E0.8361
G1 X101.744 Y95.927 E0.86585
G1 X110.282 Y95.924 E1.2695
G1 X112.886 Y95.887 E1.39262
G1 X116.398 Y95.736 E1.55881
G1 X117.437 Y95.724 E1.60794
G1 X118.664 Y95.734 E1.66595
G1 X119.606 Y95.782 E1.71054
G1 X120.54 Y95.909 E1.7551
G1 X121.461 Y96.115 E1.79972
G1 X122.36 Y96.398 E1.84428
G1 X123.233 Y96.757 E1.88891
G1 X124.072 Y97.188 E1.9335
G1 X124.871 Y97.688 E1.97806
G1 X125.625 Y98.255 E2.02266
G1 X126.329 Y98.883 E2.06726
G1 X126.976 Y99.569 E2.11184
G1 X127.564 Y100.307 E2.15645
G1 X128.086 Y101.092 E2.20102
G1 X128.541 Y101.918 E2.24561
G1 X128.923 Y102.78 E2.29018
G1 X129.232 Y103.672 E2.33481
G1 X129.463 Y104.586 E2.37938
G1 X129.617 Y105.517 E2.424
G1 X129.694 Y106.546 E2.47278
G1 X129.707 Y107.179 E2.50271
G1 X129.706 Y112.547 E2.7565
G1 X129.697 Y113.278 E2.79106
G1 X129.646 Y114.22 E2.83566
G1 X129.514 Y115.154 E2.88026
G1 X129.305 Y116.073 E2.92481
G1 X129.018 Y116.972 E2.96943
G1 X128.656 Y117.843 E3.01402
G1 X128.221 Y118.68 E3.05862
G1 X127.717 Y119.477 E3.1032
G1 X127.148 Y120.229 E3.14778
G1 X126.517 Y120.93 E3.19237
G1 X125.828 Y121.575 E3.23699
G1 X125.088 Y122.159 E3.28156
G1 X124.3 Y122.678 E3.32617
G1 X123.472 Y123.129 E3.37074
G1 X122.608 Y123.508 E3.41535
G1 X121.716 Y123.813 E3.45992
G1 X120.8 Y124.041 E3.50454
G1 X119.869 Y124.19 E3.54912
G1 X118.885 Y124.262 E3.59577
G1 X118.252 Y124.275 E3.6257
G1 X117.147 Y124.274 E3.67794
G1 X116.124 Y124.255 E3.72631
G1 X115.283 Y124.219 E3.76611
G1 X114.18 Y124.157 E3.81834
G1 X111.598 Y124.084 E3.94046
G1 X110.302 Y124.075 E4.00173
G1 X101.95 Y124.071 E4.39659
G1 X101.252 Y124.06 E4.42959
G1 X100.31 Y124.005 E4.4742
G1 X99.377 Y123.87 E4.51877
G1 X98.458 Y123.657 E4.56337
G1 X97.56 Y123.367 E4.60799
G1 X96.691 Y123.002 E4.65255
G1 X95.855 Y122.565 E4.69714
G1 X95.059 Y122.058 E4.74176
G1 X94.309 Y121.486 E4.78635
G1 X93.611 Y120.853 E4.8309
G1 X92.968 Y120.162 E4.87553
G1 X92.387 Y119.42 E4.92008
G1 X91.87 Y118.631 E4.96468
G1 X91.422 Y117.801 E5.00927
G1 X91.046 Y116.936 E5.05386
G1 X90.744 Y116.042 E5.09847
G1 X90.52 Y115.126 E5.14306
G1 X90.373 Y114.194 E5.18766
G1 X90.306 Y113.238 E5.23297
G1 X90.293 Y112.605 E5.2629
G1 X90.294 Y107.588 E5.50009
M205 X5 Y5
G0 F7500 X90.744 Y107.594
M205 X8 Y8
G1 F1500 X90.753 Y106.919 E5.53201
G1 X90.805 Y105.996 E5.57571
G1 X90.937 Y105.082 E5.61937
G1 X91.148 Y104.182 E5.66308
G1 X91.435 Y103.304 E5.70675
G1 X91.797 Y102.454 E5.75043
G1 X92.232 Y101.639 E5.7941
G1 X92.735 Y100.864 E5.83778
G1 X93.303 Y100.136 E5.88144
G1 X93.933 Y99.459 E5.92516
G1 X94.618 Y98.84 E5.96881
G1 X95.354 Y98.282 E6.01247
G1 X96.136 Y97.789 E6.05618
G1 X96.958 Y97.367 E6.09986
G1 X97.813 Y97.016 E6.14356
G1 X98.695 Y96.742 E6.18722
G1 X99.597 Y96.544 E6.23088
G1 X100.513 Y96.425 E6.27455
G1 X101.128 Y96.39 E6.30367
G1 X101.744 Y96.377 E6.3328
G1 X110.288 Y96.374 E6.73674
G1 X112.912 Y96.337 E6.86081
G1 X116.404 Y96.186 E7.02605
G1 X117.433 Y96.174 E7.0747
G1 X118.66 Y96.184 E7.13271
G1 X119.583 Y96.232 E7.17641
G1 X120.498 Y96.359 E7.22008
G1 X121.399 Y96.565 E7.26378
G1 X122.278 Y96.848 E7.30744
G1 X123.13 Y97.205 E7.35111
G1 X123.947 Y97.636 E7.39478
G1 X124.725 Y98.135 E7.43848
G1 X125.456 Y98.699 E7.48213
G1 X126.136 Y99.325 E7.52582
G1 X126.759 Y100.007 E7.5695
G1 X127.321 Y100.741 E7.6132
G1 X127.817 Y101.52 E7.65686
G1 X128.244 Y102.339 E7.70053
G1 X128.599 Y103.193 E7.74425
G1 X128.878 Y104.073 E7.7879
G1 X129.08 Y104.975 E7.8316
G1 X129.204 Y105.89 E7.87525
G1 X129.244 Y106.559 E7.90694
G1 X129.257 Y107.179 E7.93625
G1 X129.256 Y112.541 E8.18976
G1 X129.247 Y113.272 E8.22432
G1 X129.196 Y114.195 E8.26802
G1 X129.065 Y115.109 E8.31167
G1 X128.855 Y116.009 E8.35537
G1 X128.569 Y116.888 E8.39907
G1 X128.208 Y117.738 E8.44273
G1 X127.774 Y118.554 E8.48642
G1 X127.271 Y119.329 E8.5301
G1 X126.704 Y120.058 E8.57377
G1 X126.075 Y120.735 E8.61745
G1 X125.39 Y121.355 E8.66113
G1 X124.655 Y121.914 E8.70479
G1 X123.873 Y122.407 E8.7485
G1 X123.052 Y122.831 E8.79218
G1 X122.198 Y123.182 E8.83583
G1 X121.316 Y123.458 E8.87953
G1 X120.413 Y123.656 E8.92323
G1 X119.497 Y123.776 E8.96691
G1 X118.872 Y123.812 E8.9965
G1 X118.252 Y123.825 E9.02582
G1 X117.154 Y123.824 E9.07773
G1 X116.143 Y123.805 E9.12554
G1 X115.154 Y123.762 E9.17234
G1 X114.182 Y123.707 E9.21837
G1 X111.614 Y123.634 E9.33982
G1 X110.305 Y123.625 E9.40171
G1 X101.957 Y123.621 E9.79638
G1 X101.259 Y123.61 E9.82938
G1 X100.336 Y123.555 E9.8731
G1 X99.422 Y123.421 E9.91677
G1 X98.523 Y123.208 E9.96045
G1 X97.646 Y122.919 E10.00411
G1 X96.797 Y122.555 E10.04778
G1 X95.983 Y122.118 E10.09146
G1 X95.209 Y121.613 E10.13515
G1 X94.482 Y121.043 E10.17882
G1 X93.807 Y120.412 E10.22251
G1 X93.189 Y119.725 E10.2662
G1 X92.633 Y118.987 E10.30988
G1 X92.143 Y118.204 E10.35355
G1 X91.722 Y117.382 E10.39721
G1 X91.374 Y116.526 E10.4409
G1 X91.101 Y115.643 E10.48459
G1 X90.906 Y114.74 E10.52827
G1 X90.789 Y113.824 E10.57193
G1 X90.756 Y113.226 E10.60024
G1 X90.743 Y112.605 E10.62961
G1 X90.744 Y107.594 E10.86651
M205 X5 Y5
G0 F7500 X91.194 Y107.6
M205 X8 Y8
G1 F1500 X91.203 Y106.925 E10.89843
G1 X91.255 Y106.022 E10.94119
G1 X91.386 Y105.127 E10.98395
G1 X91.597 Y104.248 E11.02669
G1 X91.884 Y103.39 E11.06946
G1 X92.245 Y102.562 E11.11217
G1 X92.679 Y101.768 E11.15495
G1 X93.18 Y101.016 E11.19767
G1 X93.747 Y100.311 E11.24044
G1 X94.373 Y99.659 E11.28317
G1 X95.055 Y99.065 E11.32593
G1 X95.786 Y98.533 E11.36867
G1 X96.561 Y98.068 E11.4114
G1 X97.375 Y97.673 E11.45418
G1 X98.22 Y97.352 E11.49691
G1 X99.09 Y97.107 E11.53964
G1 X99.979 Y96.939 E11.58242
G1 X101.14 Y96.84 E11.63751
G1 X101.744 Y96.827 E11.66607
G1 X110.294 Y96.824 E12.07029
G1 X112.902 Y96.787 E12.1936
G1 X116.41 Y96.636 E12.3596
G1 X117.429 Y96.624 E12.40778
G1 X118.656 Y96.634 E12.46579
G1 X119.559 Y96.682 E12.50854
G1 X120.455 Y96.809 E12.55133
G1 X121.335 Y97.014 E12.59404
G1 X122.194 Y97.297 E12.6368
G1 X123.025 Y97.654 E12.67956
G1 X123.82 Y98.083 E12.72227
G1 X124.575 Y98.581 E12.76503
G1 X125.283 Y99.144 E12.8078
G1 X125.938 Y99.767 E12.85053
G1 X126.536 Y100.445 E12.89327
G1 X127.072 Y101.174 E12.93605
G1 X127.541 Y101.947 E12.9788
G1 X127.94 Y102.758 E13.02153
G1 X128.265 Y103.602 E13.06429
G1 X128.515 Y104.471 E13.10704
G1 X128.687 Y105.358 E13.14975
G1 X128.794 Y106.572 E13.20737
G1 X128.807 Y107.179 E13.23607
G1 X128.806 Y112.536 E13.48934
G1 X128.797 Y113.267 E13.5239
G1 X128.746 Y114.17 E13.56666
G1 X128.615 Y115.064 E13.60938
G1 X128.406 Y115.944 E13.65214
G1 X128.12 Y116.802 E13.69489
G1 X127.759 Y117.631 E13.73764
G1 X127.327 Y118.425 E13.78038
G1 X126.826 Y119.178 E13.82314
G1 X126.26 Y119.883 E13.86588
G1 X125.635 Y120.536 E13.90861
G1 X124.954 Y121.131 E13.95137
G1 X124.223 Y121.663 E13.99411
G1 X123.448 Y122.129 E14.03686
G1 X122.635 Y122.525 E14.07962
G1 X121.79 Y122.847 E14.12237
G1 X120.92 Y123.093 E14.16511
G1 X120.031 Y123.261 E14.20788
G1 X118.86 Y123.362 E14.26345
G1 X118.252 Y123.375 E14.2922
G1 X117.16 Y123.374 E14.34383
G1 X116.163 Y123.356 E14.39097
G1 X115.18 Y123.313 E14.43749
G1 X114.185 Y123.257 E14.48461
G1 X111.63 Y123.184 E14.60545
G1 X110.308 Y123.175 E14.66795
G1 X101.964 Y123.171 E15.06243
G1 X101.266 Y123.16 E15.09544
G1 X100.363 Y123.106 E15.1382
G1 X99.469 Y122.972 E15.18094
G1 X98.59 Y122.76 E15.22369
G1 X97.733 Y122.471 E15.26645
G1 X96.905 Y122.107 E15.30921
G1 X96.113 Y121.672 E15.35193
G1 X95.362 Y121.168 E15.39469
G1 X94.658 Y120.6 E15.43745
G1 X94.008 Y119.972 E15.48018
G1 X93.415 Y119.289 E15.52295
G1 X92.885 Y118.556 E15.56571
G1 X92.422 Y117.78 E15.60843
G1 X92.029 Y116.965 E15.65121
G1 X91.71 Y116.119 E15.69395
G1 X91.467 Y115.248 E15.7367
G1 X91.302 Y114.36 E15.7794
G1 X91.206 Y113.214 E15.83377
G1 X91.193 Y112.605 E15.86257
G1 X91.194 Y107.6 E16.09919
M205 X5 Y5
G1 F2400 E14.09919
;MESH:bodyadjustr.stl
G0 F7500 X100.753 Y107.6
G0 X101.863 Y107.6
G0 X102.654 Y107.883
G0 X117.382 Y108.049
M205 X8 Y8
;TYPE:WALL-INNER
G1 F1200 E16.09919
G1 F1500 X116.857 Y108.049 E16.12677
G1 X116.646 Y108.144 E16.13893
G1 X116.154 Y108.249 E16.16536
G1 X104.591 Y108.25 E16.77276
G1 X104.361 Y108.488 E16.79015
G1 X103.861 Y108.652 E16.81779
G1 X102.852 Y108.652 E16.87079
G1 X102.618 Y108.597 E16.88342
G1 X102.618 Y111.384 E17.02982
G1 X102.852 Y111.347 E17.04227
G1 X103.794 Y111.347 E17.09175
G1 X104.059 Y111.406 E17.10601
G1 X104.393 Y111.559 E17.12531
G1 X104.525 Y111.75 E17.13751
G1 X116.153 Y111.75 E17.74833
G1 X116.644 Y111.855 E17.7747
G1 X116.856 Y111.95 E17.78691
G1 X117.382 Y111.95 E17.81454
G1 X117.382 Y108.049 E18.01946
M205 X5 Y5
G0 F7500 X104.198 Y108.257
G0 X104.128 Y108.041
M205 X8 Y8
G1 F1500 X103.802 Y108.148 E18.03748
G1 X102.852 Y108.152 E18.08739
G1 X102.537 Y108.078 E18.10438
G1 X102.376 Y107.997 E18.11385
G1 X102.119 Y107.765 E18.13204
G1 X102.12 Y112.245 E18.36737
G1 X102.515 Y111.92 E18.39424
G1 X102.852 Y111.847 E18.41236
G1 X103.841 Y111.851 E18.46431
G1 X104.165 Y112.004 E18.48313
G1 X104.336 Y112.25 E18.49887
G1 X116.153 Y112.25 E19.11962
G1 X116.44 Y112.311 E19.13503
G1 X116.749 Y112.45 E19.15283
G1 X117.882 Y112.45 E19.21235
G1 X117.882 Y107.549 E19.4698
G1 X116.75 Y107.549 E19.52926
G1 X116.441 Y107.688 E19.54706
G1 X116.154 Y107.749 E19.56247
G1 X104.41 Y107.75 E20.17939
G1 X104.128 Y108.041 E20.20068
M205 X5 Y5
G1 F2400 E18.20068
G0 F7500 X104.198 Y108.257
G0 X102.84 Y108.874
G0 X102.84 Y111.125
G0 X104.263 Y111.803
G1 F1200 E20.20068
G0 F7500 X103.949 Y112.427
M205 X8 Y8
;TYPE:WALL-OUTER
G1 F1500 X104.07 Y112.6 E20.21066
G1 X104.085 Y112.725 E20.21661
G1 X116.204 Y112.725 E20.78956
G1 X116.648 Y112.925 E20.81258
G1 X118.357 Y112.925 E20.89338
G1 X118.357 Y107.074 E21.17
G1 X116.649 Y107.074 E21.25075
G1 X116.205 Y107.274 E21.27377
G1 X104.105 Y107.274 E21.84582
G1 X104.006 Y107.515 E21.85814
G1 X103.913 Y107.611 E21.86446
G1 X103.712 Y107.676 E21.87445
G1 X102.852 Y107.677 E21.91511
G1 X102.589 Y107.573 E21.92848
G1 X102.501 Y107.493 E21.9341
G1 X102.45 Y107.338 E21.94181
G1 X102.389 Y107.277 E21.94589
G1 X101.644 Y107.278 E21.98111
G1 X101.644 Y112.721 E22.23844
G1 X102.389 Y112.721 E22.27367
G1 X102.536 Y112.476 E22.28717
G1 X102.662 Y112.372 E22.2949
G1 X102.852 Y112.322 E22.30419
G1 X103.712 Y112.323 E22.34485
G1 X103.949 Y112.427 E22.35708
M205 X5 Y5
G0 F7500 X104.063 Y112.59
G0 X104.607 Y112.045
G0 X117.16 Y111.728
G0 X117.109 Y111.677
M205 X8 Y8
;TYPE:SKIN
G1 F1500 X117.109 Y108.322 E22.45577
G1 X116.913 Y108.322 E22.46154
G1 X116.741 Y108.399 E22.46708
G1 X116.171 Y108.519 E22.48422
G1 X104.692 Y108.523 E22.8219
G1 X104.485 Y108.729 E22.83049
G1 X104.153 Y108.851 E22.84089
G1 X103.825 Y108.924 E22.85078
G1 X102.891 Y108.925 E22.87825
G1 X102.891 Y111.074 E22.94147
G1 X103.695 Y111.074 E22.96512
G1 X104.091 Y111.116 E22.97684
G1 X104.493 Y111.303 E22.98988
G1 X104.632 Y111.477 E22.99643
G1 X116.169 Y111.48 E23.33581
G1 X116.77 Y111.612 E23.35391
G1 X116.914 Y111.677 E23.35856
G1 X117.109 Y111.677 E23.3643
M205 X5 Y5
G0 F7500 X117.232 Y111.677
G0 X117.232 Y108.64
G0 X116.969 Y108.64
M205 X8 Y8
G1 F1500 X116.277 Y108.64 E23.38465
M205 X5 Y5
G0 F7500 X116.969 Y108.92
M205 X8 Y8
G1 F1500 X104.37 Y108.92 E23.75528
M205 X5 Y5
G0 F7500 X104.277 Y108.677
G0 X102.84 Y108.874
G0 X102.768 Y109.2
G0 X103.031 Y109.2
M205 X8 Y8
G1 F1500 X116.969 Y109.2 E24.16529
M205 X5 Y5
G0 F7500 X116.969 Y109.48
M205 X8 Y8
G1 F1500 X103.031 Y109.48 E24.5753
M205 X5 Y5
G0 F7500 X103.031 Y109.76
M205 X8 Y8
G1 F1500 X116.969 Y109.76 E24.98532
M205 X5 Y5
G0 F7500 X116.969 Y110.04
M205 X8 Y8
G1 F1500 X103.031 Y110.04 E25.39533
M205 X5 Y5
G0 F7500 X103.031 Y110.32
M205 X8 Y8
G1 F1500 X116.969 Y110.32 E25.80534
M205 X5 Y5
G0 F7500 X116.969 Y110.6
M205 X8 Y8
G1 F1500 X103.031 Y110.6 E26.21536
M205 X5 Y5
G0 F7500 X103.031 Y110.88
M205 X8 Y8
G1 F1500 X116.969 Y110.88 E26.62537
M205 X5 Y5
G0 F7500 X116.969 Y111.16
M205 X8 Y8
G1 F1500 X104.516 Y111.16 E26.9917
M205 X5 Y5
G0 F7500 X104.398 Y111.393
G0 X116.594 Y111.695
G0 X116.649 Y111.44
M205 X8 Y8
G1 F1500 X116.969 Y111.44 E27.00111
M104 S210
M205 X5 Y5
G0 F7500 X117.257 Y111.44
;MESH:NONMESH
G0 F600 X117.257 Y111.44 Z0.48
G0 F7500 X117.16 Y108.271
G0 X104.072 Y108.299
G0 X104.033 Y108.178
;TIME_ELAPSED:34.746708
;LAYER:1
M140 S40
M106 S85
M205 X14 Y14
;TYPE:WALL-INNER
;MESH:bodyadjustr.stl
G1 F2622.5 X103.626 Y108.284 E27.01772
G1 X103.015 Y108.284 E27.04185
G1 X102.577 Y108.203 E27.05945
G1 X102.218 Y107.945 E27.07691
G1 X102.218 Y112.054 E27.2392
G1 X102.577 Y111.796 E27.25666
G1 X103.015 Y111.715 E27.27425
G1 X103.622 Y111.715 E27.29823
G1 X103.888 Y111.784 E27.30908
G1 X104.059 Y111.861 E27.31649
G1 X104.212 Y112.118 E27.3283
G1 X115.999 Y112.118 E27.79385
G1 X116.49 Y112.222 E27.81367
G1 X116.705 Y112.319 E27.82298
G1 X117.782 Y112.319 E27.86552
G1 X117.782 Y107.68 E28.04875
G1 X116.706 Y107.68 E28.09124
G1 X116.491 Y107.777 E28.10056
G1 X116 Y107.881 E28.12038
G1 X104.232 Y107.881 E28.58518
G1 X104.033 Y108.178 E28.5993
M205 X12.5 Y12.5
G0 F8250 X102.451 Y108.387
G0 X102.451 Y111.612
G0 X103.82 Y111.99
G0 X103.82 Y112.3
M205 X14 Y14
G1 F2622.5 X104.009 Y112.618 E28.61391
G1 X115.999 Y112.618 E29.08747
G1 X116.285 Y112.679 E29.09902
G1 X116.598 Y112.819 E29.11256
G1 X118.282 Y112.819 E29.17907
G1 X118.282 Y107.18 E29.40179
G1 X116.599 Y107.18 E29.46827
G1 X116.287 Y107.32 E29.48177
G1 X116 Y107.381 E29.49336
G1 X104.034 Y107.381 E29.96598
G1 X103.82 Y107.7 E29.98115
G1 X103.566 Y107.784 E29.99171
G1 X103.015 Y107.784 E30.01348
G1 X102.759 Y107.737 E30.02376
G1 X102.481 Y107.537 E30.03728
G1 X102.358 Y107.384 E30.04504
G1 X101.718 Y107.384 E30.07031
G1 X101.718 Y112.615 E30.27692
G1 X102.358 Y112.615 E30.3022
G1 X102.481 Y112.462 E30.30995
G1 X102.759 Y112.262 E30.32348
G1 X103.015 Y112.215 E30.33376
G1 X103.566 Y112.215 E30.35552
G1 X103.82 Y112.3 E30.3661
M205 X12.5 Y12.5
G0 F8250 X103.579 Y112.693
M205 X14 Y14
;TYPE:WALL-OUTER
G1 F2185.4 X103.71 Y112.915 E30.37526
G1 X103.725 Y113.093 E30.38161
G1 X116.049 Y113.093 E30.81969
G1 X116.497 Y113.294 E30.83715
G1 X118.757 Y113.294 E30.91748
G1 X118.757 Y106.705 E31.1517
G1 X116.498 Y106.705 E31.232
G1 X116.05 Y106.906 E31.24945
G1 X103.732 Y106.91 E31.68732
G1 X103.709 Y107.11 E31.69447
G1 X103.576 Y107.307 E31.70292
G1 X102.953 Y107.309 E31.72507
G1 X102.802 Y107.158 E31.73266
G1 X102.557 Y106.909 E31.74508
G1 X101.272 Y106.909 E31.79075
G1 X101.243 Y106.924 E31.79192
G1 X101.243 Y113.09 E32.0111
G1 X102.557 Y113.09 E32.05781
G1 X102.802 Y112.841 E32.07022
G1 X102.953 Y112.69 E32.07781
G1 X103.579 Y112.693 E32.10007
M205 X12.5 Y12.5
G0 F8250 X103.68 Y112.865
G0 X104.38 Y112.423
G0 X104.106 Y111.718
G0 X104.17 Y111.578
M205 X14 Y14
;TYPE:SKIN
G1 F2039.7 X104.326 Y111.845 E32.10691
G1 X116.015 Y111.848 E32.36544
G1 X116.611 Y111.977 E32.37893
G1 X116.764 Y112.046 E32.38264
G1 X117.509 Y112.046 E32.39912
G1 X117.509 Y107.953 E32.48965
G1 X116.765 Y107.953 E32.50611
G1 X116.584 Y108.032 E32.51047
G1 X115.987 Y108.154 E32.52395
G1 X104.344 Y108.154 E32.78147
G1 X104.169 Y108.388 E32.78793
G1 X103.98 Y108.474 E32.79253
G1 X103.664 Y108.555 E32.79974
G1 X103.001 Y108.555 E32.81441
G1 X102.492 Y108.456 E32.82587
G1 X102.492 Y111.543 E32.89415
G1 X103.001 Y111.444 E32.90562
G1 X103.672 Y111.444 E32.92046
G1 X104.17 Y111.578 E32.93187
M205 X12.5 Y12.5
G0 F8250 X104.106 Y111.718
G0 X117.32 Y112.169
G0 X117.32 Y111.906
M205 X14 Y14
G1 F2039.7 X117.32 Y108.093 E33.01621
M205 X12.5 Y12.5
G0 F8250 X117.04 Y108.093
M205 X14 Y14
G1 F2039.7 X117.04 Y111.906 E33.10054
M205 X12.5 Y12.5
G0 F8250 X116.76 Y111.892
M205 X14 Y14
G1 F2039.7 X116.76 Y108.107 E33.18426
M205 X12.5 Y12.5
G0 F8250 X116.48 Y108.196
M205 X14 Y14
G1 F2039.7 X116.48 Y111.803 E33.26404
M205 X12.5 Y12.5
G0 F8250 X116.2 Y111.743
M205 X14 Y14
G1 F2039.7 X116.2 Y108.255 E33.34119
M205 X12.5 Y12.5
G0 F8250 X115.92 Y108.294
M205 X14 Y14
G1 F2039.7 X115.92 Y111.705 E33.41663
M205 X12.5 Y12.5
G0 F8250 X115.64 Y111.705
M205 X14 Y14
G1 F2039.7 X115.64 Y108.294 E33.49207
M205 X12.5 Y12.5
G0 F8250 X115.36 Y108.294
M205 X14 Y14
G1 F2039.7 X115.36 Y111.705 E33.56752
M205 X12.5 Y12.5
G0 F8250 X115.08 Y111.705
M205 X14 Y14
G1 F2039.7 X115.08 Y108.294 E33.64296
M205 X12.5 Y12.5
G0 F8250 X114.8 Y108.294
M205 X14 Y14
G1 F2039.7 X114.8 Y111.705 E33.71841
M205 X12.5 Y12.5
G0 F8250 X114.52 Y111.705
M205 X14 Y14
G1 F2039.7 X114.52 Y108.294 E33.79385
M205 X12.5 Y12.5
G0 F8250 X114.24 Y108.294
M205 X14 Y14
G1 F2039.7 X114.24 Y111.705 E33.8693
M205 X12.5 Y12.5
G0 F8250 X113.96 Y111.705
M205 X14 Y14
G1 F2039.7 X113.96 Y108.294 E33.94474
M205 X12.5 Y12.5
G0 F8250 X113.68 Y108.294
M205 X14 Y14
G1 F2039.7 X113.68 Y111.705 E34.02019
M205 X12.5 Y12.5
G0 F8250 X113.4 Y111.705
M205 X14 Y14
G1 F2039.7 X113.4 Y108.294 E34.09563
M205 X12.5 Y12.5
G0 F8250 X113.12 Y108.294
M205 X14 Y14
G1 F2039.7 X113.12 Y111.705 E34.17107
M205 X12.5 Y12.5
G0 F8250 X112.84 Y111.705
M205 X14 Y14
G1 F2039.7 X112.84 Y108.294 E34.24652
M205 X12.5 Y12.5
G0 F8250 X112.56 Y108.294
M205 X14 Y14
G1 F2039.7 X112.56 Y111.705 E34.32196
M205 X12.5 Y12.5
G0 F8250 X112.28 Y111.705
M205 X14 Y14
G1 F2039.7 X112.28 Y108.294 E34.39741
M205 X12.5 Y12.5
G0 F8250 X112 Y108.294
M205 X14 Y14
G1 F2039.7 X112 Y111.705 E34.47285
M205 X12.5 Y12.5
G0 F8250 X111.72 Y111.705
M205 X14 Y14
G1 F2039.7 X111.72 Y108.294 E34.5483
M205 X12.5 Y12.5
G0 F8250 X111.44 Y108.294
M205 X14 Y14
G1 F2039.7 X111.44 Y111.705 E34.62374
M205 X12.5 Y12.5
G0 F8250 X111.16 Y111.705
M205 X14 Y14
G1 F2039.7 X111.16 Y108.294 E34.69919
M205 X12.5 Y12.5
G0 F8250 X110.88 Y108.294
M205 X14 Y14
G1 F2039.7 X110.88 Y111.705 E34.77463
M205 X12.5 Y12.5
G0 F8250 X110.6 Y111.705
M205 X14 Y14
G1 F2039.7 X110.6 Y108.294 E34.85007
M205 X12.5 Y12.5
G0 F8250 X110.32 Y108.294
M205 X14 Y14
G1 F2039.7 X110.32 Y111.705 E34.92552
M205 X12.5 Y12.5
G0 F8250 X110.04 Y111.705
M205 X14 Y14
G1 F2039.7 X110.04 Y108.294 E35.00096
M205 X12.5 Y12.5
G0 F8250 X109.76 Y108.294
M205 X14 Y14
G1 F2039.7 X109.76 Y111.705 E35.07641
M205 X12.5 Y12.5
G0 F8250 X109.48 Y111.705
M205 X14 Y14
G1 F2039.7 X109.48 Y108.294 E35.15185
M205 X12.5 Y12.5
G0 F8250 X109.2 Y108.294
M205 X14 Y14
G1 F2039.7 X109.2 Y111.705 E35.2273
M205 X12.5 Y12.5
G0 F8250 X108.92 Y111.705
M205 X14 Y14
G1 F2039.7 X108.92 Y108.294 E35.30274
M205 X12.5 Y12.5
G0 F8250 X108.64 Y108.294
M205 X14 Y14
G1 F2039.7 X108.64 Y111.705 E35.37819
M205 X12.5 Y12.5
G0 F8250 X108.36 Y111.705
M205 X14 Y14
G1 F2039.7 X108.36 Y108.294 E35.45363
M205 X12.5 Y12.5
G0 F8250 X108.08 Y108.294
M205 X14 Y14
G1 F2039.7 X108.08 Y111.705 E35.52907
M205 X12.5 Y12.5
G0 F8250 X107.8 Y111.705
M205 X14 Y14
G1 F2039.7 X107.8 Y108.294 E35.60452
M205 X12.5 Y12.5
G0 F8250 X107.52 Y108.294
M205 X14 Y14
G1 F2039.7 X107.52 Y111.705 E35.67996
M205 X12.5 Y12.5
G0 F8250 X107.24 Y111.705
M205 X14 Y14
G1 F2039.7 X107.24 Y108.294 E35.75541
M205 X12.5 Y12.5
G0 F8250 X106.96 Y108.294
M205 X14 Y14
G1 F2039.7 X106.96 Y111.705 E35.83085
M205 X12.5 Y12.5
G0 F8250 X106.68 Y111.705
M205 X14 Y14
G1 F2039.7 X106.68 Y108.294 E35.9063
M205 X12.5 Y12.5
G0 F8250 X106.4 Y108.294
M205 X14 Y14
G1 F2039.7 X106.4 Y111.705 E35.98174
M205 X12.5 Y12.5
G0 F8250 X106.12 Y111.705
M205 X14 Y14
G1 F2039.7 X106.12 Y108.294 E36.05719
M205 X12.5 Y12.5
G0 F8250 X105.84 Y108.294
M205 X14 Y14
G1 F2039.7 X105.84 Y111.705 E36.13263
M205 X12.5 Y12.5
G0 F8250 X105.56 Y111.705
M205 X14 Y14
G1 F2039.7 X105.56 Y108.294 E36.20807
M205 X12.5 Y12.5
G0 F8250 X105.28 Y108.294
M205 X14 Y14
G1 F2039.7 X105.28 Y111.705 E36.28352
M205 X12.5 Y12.5
G0 F8250 X105 Y111.705
M205 X14 Y14
G1 F2039.7 X105 Y108.294 E36.35896
M205 X12.5 Y12.5
G0 F8250 X104.72 Y108.294
M205 X14 Y14
G1 F2039.7 X104.72 Y111.705 E36.43441
M205 X12.5 Y12.5
G0 F8250 X104.44 Y111.705
M205 X14 Y14
G1 F2039.7 X104.44 Y108.294 E36.50985
M205 X12.5 Y12.5
G0 F8250 X104.16 Y108.543
M205 X14 Y14
G1 F2039.7 X104.16 Y111.431 E36.57373
M205 X12.5 Y12.5
G0 F8250 X103.88 Y111.355
M205 X14 Y14
G1 F2039.7 X103.88 Y108.644 E36.63369
M205 X12.5 Y12.5
G0 F8250 X103.6 Y108.692
M205 X14 Y14
G1 F2039.7 X103.6 Y111.306 E36.69151
M205 X12.5 Y12.5
G0 F8250 X103.32 Y111.306
M205 X14 Y14
G1 F2039.7 X103.32 Y108.692 E36.74932
M205 X12.5 Y12.5
G0 F8250 X103.04 Y108.692
M205 X14 Y14
G1 F2039.7 X103.04 Y111.306 E36.80714
M205 X12.5 Y12.5
G0 F8250 X102.76 Y111.347
M205 X14 Y14
G1 F2039.7 X102.76 Y108.653 E36.86673
M205 X12.5 Y12.5
G0 F8250 X102.883 Y108.409
;MESH:NONMESH
G0 F600 X102.883 Y108.409 Z0.68
G0 F8250 X102.218 Y107.972
;TIME_ELAPSED:50.177939
;LAYER:2
M106 S170
M205 X20 Y20
;TYPE:WALL-INNER
;MESH:bodyadjustr.stl
G1 F2779.2 X102.218 Y112.027 E37.02688
G1 X102.577 Y111.769 E37.04435
G1 X103.015 Y111.688 E37.06194
G1 X103.618 Y111.688 E37.08575
G1 X103.884 Y111.756 E37.0966
G1 X104.061 Y111.835 E37.10425
G1 X104.213 Y112.091 E37.11601
G1 X115.939 Y112.091 E37.57915
G1 X116.43 Y112.196 E37.59898
G1 X116.649 Y112.294 E37.60846
G1 X117.782 Y112.294 E37.6532
G1 X117.782 Y107.705 E37.83445
G1 X116.65 Y107.705 E37.87916
G1 X116.431 Y107.803 E37.88864
G1 X115.94 Y107.908 E37.90847
G1 X104.233 Y107.908 E38.37086
G1 X104.061 Y108.165 E38.38307
G1 X103.884 Y108.244 E38.39073
G1 X103.617 Y108.311 E38.4016
G1 X103.015 Y108.311 E38.42537
G1 X102.577 Y108.23 E38.44297
G1 X102.218 Y107.972 E38.46043
G0 F9000 X102.451 Y111.585
G0 X103.821 Y111.963
G0 X103.821 Y112.273
G1 F2779.2 X104.009 Y112.591 E38.47502
G1 X115.939 Y112.591 E38.94621
G1 X116.226 Y112.652 E38.9578
G1 X116.542 Y112.794 E38.97148
G1 X118.282 Y112.794 E39.04021
G1 X118.282 Y107.205 E39.26095
G1 X116.543 Y107.205 E39.32964
G1 X116.227 Y107.347 E39.34332
G1 X115.94 Y107.408 E39.35491
G1 X104.035 Y107.408 E39.82511
G1 X103.821 Y107.726 E39.84025
G1 X103.563 Y107.811 E39.85098
G1 X103.015 Y107.811 E39.87262
G1 X102.759 Y107.764 E39.8829
G1 X102.481 Y107.564 E39.89643
G1 X102.358 Y107.411 E39.90418
G1 X101.718 Y107.411 E39.92946
G1 X101.718 Y112.588 E40.13394
G1 X102.358 Y112.588 E40.15921
G1 X102.481 Y112.435 E40.16697
G1 X102.759 Y112.235 E40.18049
G1 X103.015 Y112.188 E40.19077
G1 X103.563 Y112.188 E40.21242
G1 X103.821 Y112.273 E40.22315
G0 F9000 X103.578 Y112.665
;TYPE:WALL-OUTER
G1 F2137.8 X103.71 Y112.888 E40.23236
G1 X103.725 Y113.066 E40.23871
G1 X115.989 Y113.066 E40.67465
G1 X116.441 Y113.269 E40.69227
G1 X118.757 Y113.269 E40.77459
G1 X118.757 Y106.73 E41.00703
G1 X116.442 Y106.73 E41.08932
G1 X115.991 Y106.933 E41.1069
G1 X103.732 Y106.937 E41.54267
G1 X103.709 Y107.137 E41.54983
G1 X103.576 Y107.334 E41.55828
G1 X102.953 Y107.336 E41.58042
G1 X102.802 Y107.185 E41.58801
G1 X102.557 Y106.936 E41.60043
G1 X101.272 Y106.936 E41.64611
G1 X101.243 Y106.951 E41.64727
G1 X101.243 Y113.063 E41.86453
G1 X102.557 Y113.063 E41.91124
G1 X102.802 Y112.814 E41.92366
G1 X102.953 Y112.663 E41.93125
G1 X103.578 Y112.665 E41.95346
G0 F9000 X103.679 Y112.837
G0 X104.38 Y112.396
G0 X104.114 Y111.693
G0 X104.175 Y111.556
;TYPE:SKIN
G1 F1924 X104.328 Y111.818 E41.96018
G1 X115.956 Y111.82 E42.21736
G1 X116.551 Y111.95 E42.23083
G1 X116.708 Y112.021 E42.23465
G1 X117.509 Y112.021 E42.25236
G1 X117.509 Y107.978 E42.34178
G1 X116.709 Y107.978 E42.35948
G1 X116.524 Y108.059 E42.36395
G1 X115.927 Y108.181 E42.37742
G1 X104.345 Y108.181 E42.63359
G1 X104.172 Y108.414 E42.64001
G1 X103.972 Y108.503 E42.64485
G1 X103.659 Y108.582 E42.65199
G1 X103.001 Y108.582 E42.66655
G1 X102.492 Y108.483 E42.67802
G1 X102.492 Y111.516 E42.7451
G1 X103.001 Y111.417 E42.75657
G1 X103.661 Y111.417 E42.77117
G1 X104.175 Y111.556 E42.78294
G0 F9000 X104.114 Y111.693
G0 X102.451 Y111.585
G0 X102.451 Y108.414
G0 X104.173 Y108.216
G0 X104.388 Y108.36
G1 F1924 X117.369 Y108.36 E43.07006
G0 F9000 X117.369 Y108.64
G1 F1924 X104.001 Y108.64 E43.36573
G0 F9000 X103.936 Y108.386
G0 X102.451 Y108.414
G0 X102.368 Y108.92
G0 X102.632 Y108.92
G1 F1924 X117.369 Y108.92 E43.69168
G0 F9000 X117.369 Y109.2
G1 F1924 X102.632 Y109.2 E44.01764
G0 F9000 X102.632 Y109.48
G1 F1924 X117.369 Y109.48 E44.34359
G0 F9000 X117.369 Y109.76
G1 F1924 X102.632 Y109.76 E44.66954
G0 F9000 X102.632 Y110.04
G1 F1924 X117.369 Y110.04 E44.9955
G0 F9000 X117.369 Y110.32
G1 F1924 X102.632 Y110.32 E45.32145
G0 F9000 X102.632 Y110.6
G1 F1924 X117.369 Y110.6 E45.6474
G0 F9000 X117.369 Y110.88
G1 F1924 X102.632 Y110.88 E45.97335
G0 F9000 X102.632 Y111.16
G1 F1924 X117.369 Y111.16 E46.29931
G0 F9000 X117.369 Y111.44
G1 F1924 X104.228 Y111.44 E46.58996
G0 F9000 X104.115 Y111.694
G0 X116.103 Y111.977
G0 X116.158 Y111.72
G1 F1924 X117.369 Y111.72 E46.61674
G0 F9000 X117.657 Y111.72
;MESH:NONMESH
G0 F600 X117.657 Y111.72 Z0.88
G0 F9000 X117.56 Y112.072
G0 X104.295 Y111.875
G0 X103.883 Y111.719
;TIME_ELAPSED:62.880050
;LAYER:3
M106 S255
;TYPE:WALL-INNER
;MESH:bodyadjustr.stl
G1 F1042.3 X104.069 Y111.803 E46.62481
G1 X104.222 Y112.064 E46.63675
G1 X115.88 Y112.064 E47.0972
G1 X116.371 Y112.168 E47.11703
G1 X116.595 Y112.269 E47.12673
G1 X117.782 Y112.269 E47.17361
G1 X117.782 Y107.73 E47.35289
G1 X116.596 Y107.73 E47.39973
G1 X116.371 Y107.83 E47.40946
G1 X115.881 Y107.935 E47.42925
G1 X104.242 Y107.936 E47.88895
G1 X104.069 Y108.197 E47.90131
G1 X103.883 Y108.281 E47.90938
G1 X103.609 Y108.348 E47.92052
G1 X103.019 Y108.348 E47.94382
G1 X102.576 Y108.265 E47.96162
G1 X102.218 Y108.003 E47.97914
G1 X102.218 Y111.996 E48.13685
G1 X102.578 Y111.733 E48.15446
G1 X103.022 Y111.651 E48.17229
G1 X103.61 Y111.652 E48.19552
G1 X103.883 Y111.719 E48.20662
G0 F9000 X103.826 Y112.24
G1 F1042.3 X104.016 Y112.564 E48.22145
G1 X115.88 Y112.564 E48.69004
G1 X116.167 Y112.625 E48.70163
G1 X116.488 Y112.769 E48.71552
G1 X118.282 Y112.769 E48.78638
G1 X118.282 Y107.23 E49.00515
G1 X116.489 Y107.23 E49.07597
G1 X116.167 Y107.374 E49.0899
G1 X115.881 Y107.435 E49.10145
G1 X104.041 Y107.436 E49.56909
G1 X103.826 Y107.76 E49.58445
G1 X103.557 Y107.848 E49.59562
G1 X103.019 Y107.848 E49.61687
G1 X102.76 Y107.8 E49.62728
G1 X102.479 Y107.595 E49.64102
G1 X102.357 Y107.439 E49.64884
G1 X101.718 Y107.438 E49.67408
G1 X101.718 Y112.561 E49.87642
G1 X102.357 Y112.56 E49.90165
G1 X102.479 Y112.404 E49.90948
G1 X102.762 Y112.199 E49.92328
G1 X103.021 Y112.151 E49.93368
G1 X103.558 Y112.152 E49.95489
G1 X103.826 Y112.24 E49.96603
G0 F9000 X103.58 Y112.629
;TYPE:WALL-OUTER
G1 F801.7 X103.71 Y112.852 E49.97521
G1 X103.725 Y113.039 E49.98188
G1 X115.93 Y113.039 E50.41572
G1 X116.387 Y113.244 E50.43353
G1 X118.757 Y113.244 E50.51777
G1 X118.757 Y106.755 E50.74844
G1 X116.388 Y106.755 E50.83265
G1 X115.931 Y106.96 E50.85045
G1 X103.732 Y106.964 E51.28409
G1 X103.709 Y107.173 E51.29156
G1 X103.578 Y107.371 E51.3
G1 X102.957 Y107.373 E51.32208
G1 X102.803 Y107.215 E51.32992
G1 X102.556 Y106.964 E51.34244
G1 X101.272 Y106.963 E51.38808
G1 X101.243 Y106.978 E51.38924
G1 X101.243 Y113.036 E51.60458
G1 X102.556 Y113.035 E51.65125
G1 X102.803 Y112.784 E51.66377
G1 X102.957 Y112.626 E51.67161
G1 X103.58 Y112.629 E51.69376
G0 F9000 X103.68 Y112.801
G0 X104.38 Y112.369
G0 X105.629 Y111.813
;TYPE:FILL
G1 F962.1 X117.531 Y108.625 E52.24855
G0 F9000 X112.693 Y111.813
G1 F962.1 X109.064 Y108.185 E52.4796
G0 F9000 X109.841 Y108.184
G1 F962.1 X108.868 Y111.814 E52.64881
;MESH:NONMESH
G0 F600 X108.868 Y111.814 Z1.08
G0 F9000 X103.881 Y111.633
;TIME_ELAPSED:73.501226
;LAYER:4
;TYPE:WALL-INNER
;MESH:bodyadjustr.stl
G1 F1025 X104.089 Y111.73 E52.65788
G1 X104.245 Y112.001 E52.67023
G1 X115.754 Y112.002 E53.12479
G1 X116.228 Y112.106 E53.14396
G1 X116.468 Y112.214 E53.15435
G1 X117.782 Y112.214 E53.20625
G1 X117.782 Y107.786 E53.38114
G1 X116.468 Y107.786 E53.43304
G1 X116.228 Y107.894 E53.44343
G1 X115.754 Y107.998 E53.4626
G1 X104.264 Y107.998 E53.91642
G1 X104.089 Y108.27 E53.92919
G1 X103.881 Y108.366 E53.93824
G1 X103.592 Y108.432 E53.94995
G1 X103.022 Y108.432 E53.97246
G1 X102.568 Y108.344 E53.99072
G1 X102.218 Y108.08 E54.00804
G1 X102.218 Y111.92 E54.15971
G1 X102.568 Y111.655 E54.17704
G1 X103.022 Y111.567 E54.19531
G1 X103.592 Y111.567 E54.21782
G1 X103.881 Y111.633 E54.22953
G0 F9000 X103.837 Y112.162
G1 F1025 X104.033 Y112.501 E54.245
G1 X115.747 Y112.502 E54.70766
G1 X116.024 Y112.563 E54.71886
G1 X116.36 Y112.714 E54.73341
G1 X118.282 Y112.714 E54.80932
G1 X118.282 Y107.286 E55.02371
G1 X116.36 Y107.286 E55.09962
G1 X116.024 Y107.437 E55.11417
G1 X115.747 Y107.498 E55.12537
G1 X104.057 Y107.498 E55.58709
G1 X103.837 Y107.838 E55.60308
G1 X103.566 Y107.928 E55.61436
G1 X103.022 Y107.932 E55.63585
G1 X102.757 Y107.881 E55.6465
G1 X102.47 Y107.665 E55.66069
G1 X102.351 Y107.502 E55.66866
G1 X101.718 Y107.503 E55.69366
G1 X101.718 Y112.497 E55.89091
G1 X102.351 Y112.497 E55.91591
G1 X102.47 Y112.335 E55.92385
G1 X102.757 Y112.118 E55.93806
G1 X103.022 Y112.067 E55.94872
G1 X103.566 Y112.071 E55.97021
G1 X103.837 Y112.162 E55.9815
G0 F9000 X103.583 Y112.543
;TYPE:WALL-OUTER
G1 F788.5 X103.71 Y112.767 E55.99065
G1 X103.725 Y112.976 E55.9981
G1 X115.788 Y112.977 E56.4269
G1 X116.259 Y113.189 E56.44526
G1 X118.757 Y113.19 E56.53405
G1 X118.757 Y106.81 E56.76084
G1 X116.259 Y106.811 E56.84964
G1 X115.788 Y107.023 E56.868
G1 X103.733 Y107.026 E57.29652
G1 X103.709 Y107.256 E57.30474
G1 X103.58 Y107.456 E57.3132
G1 X102.957 Y107.457 E57.33534
G1 X102.804 Y107.292 E57.34334
G1 X102.557 Y107.027 E57.35622
G1 X101.272 Y107.028 E57.4019
G1 X101.243 Y107.043 E57.40306
G1 X101.243 Y112.972 E57.61381
G1 X102.557 Y112.972 E57.66052
G1 X102.804 Y112.707 E57.6734
G1 X102.957 Y112.542 E57.6814
G1 X103.583 Y112.543 E57.70365
G0 F9000 X103.681 Y112.717
G0 X104.38 Y112.306
G0 X106.409 Y111.751
;TYPE:FILL
G1 F946.2 X117.53 Y108.771 E58.22205
G0 F9000 X112.83 Y111.751
G1 F946.2 X109.327 Y108.248 E58.44511
G0 F9000 X109.678 Y108.247
G1 F946.2 X108.739 Y111.751 E58.60844
;MESH:NONMESH
G0 F600 X108.739 Y111.751 Z1.28
G0 F9000 X103.87 Y111.546
;TIME_ELAPSED:84.170395
;LAYER:5
;TYPE:WALL-INNER
;MESH:bodyadjustr.stl
G1 F892 X104.096 Y111.65 E58.61827
G1 X104.249 Y111.917 E58.63042
G1 X115.668 Y111.923 E59.08143
G1 X116.043 Y112.022 E59.09675
G1 X116.292 Y112.133 E59.10752
G1 X117.782 Y112.134 E59.16637
G1 X117.782 Y107.866 E59.33494
G1 X116.292 Y107.867 E59.39379
G1 X116.043 Y107.978 E59.40456
G1 X115.668 Y108.077 E59.41988
G1 X104.268 Y108.082 E59.87013
G1 X104.096 Y108.349 E59.88268
G1 X103.87 Y108.454 E59.89252
G1 X103.586 Y108.513 E59.90398
G1 X103.022 Y108.516 E59.92625
G1 X102.568 Y108.428 E59.94452
G1 X102.218 Y108.164 E59.96183
G1 X102.218 Y111.836 E60.10687
G1 X102.568 Y111.571 E60.1242
G1 X103.022 Y111.483 E60.14247
G1 X103.586 Y111.487 E60.16475
G1 X103.87 Y111.546 E60.1762
G0 F9000 X103.842 Y112.08
G1 F892 X104.034 Y112.417 E60.19152
G1 X115.713 Y112.421 E60.6528
G1 X116.185 Y112.633 E60.67324
G1 X118.282 Y112.634 E60.75606
G1 X118.282 Y107.366 E60.96413
G1 X116.185 Y107.367 E61.04695
G1 X115.713 Y107.579 E61.06739
G1 X104.058 Y107.582 E61.52772
G1 X103.842 Y107.919 E61.54353
G1 X103.544 Y108.014 E61.55588
G1 X103.022 Y108.016 E61.5765
G1 X102.757 Y107.965 E61.58716
G1 X102.47 Y107.749 E61.60134
G1 X102.351 Y107.586 E61.60932
G1 X101.718 Y107.587 E61.63432
G1 X101.718 Y112.413 E61.82493
G1 X102.351 Y112.413 E61.84993
G1 X102.47 Y112.251 E61.85787
G1 X102.757 Y112.034 E61.87208
G1 X103.022 Y111.983 E61.88274
G1 X103.544 Y111.985 E61.90335
G1 X103.842 Y112.08 E61.91571
G0 F9000 X103.6 Y112.489
;TYPE:WALL-OUTER
G1 F686.2 X103.71 Y112.683 E61.92364
G1 X103.725 Y112.892 E61.93108
G1 X115.606 Y112.894 E62.35341
G1 X116.084 Y113.108 E62.37203
G1 X118.757 Y113.109 E62.46705
G1 X118.757 Y106.891 E62.68808
G1 X116.084 Y106.892 E62.78309
G1 X115.606 Y107.106 E62.80171
G1 X103.733 Y107.11 E63.22376
G1 X103.709 Y107.34 E63.23198
G1 X103.6 Y107.51 E63.23916
G1 X103.504 Y107.541 E63.24274
G1 X102.957 Y107.541 E63.26219
G1 X102.804 Y107.376 E63.27018
G1 X102.557 Y107.111 E63.28306
G1 X101.272 Y107.112 E63.32874
G1 X101.243 Y107.127 E63.3299
G1 X101.243 Y112.888 E63.53468
G1 X102.557 Y112.888 E63.58139
G1 X102.804 Y112.623 E63.59427
G1 X102.957 Y112.458 E63.60227
G1 X103.504 Y112.458 E63.62171
G1 X103.6 Y112.489 E63.6253
G0 F9000 X103.698 Y112.662
G0 X104.38 Y112.222
G0 X107.27 Y111.667
;TYPE:FILL
G1 F823.4 X107.585 Y111.582 E63.63999
G0 F9000 X109.694 Y108.415
G1 F823.4 X109.611 Y108.331 E63.64531
G0 F9000 X112.864 Y111.584
G1 F823.4 X112.946 Y111.667 E63.65056
;MESH:NONMESH
G0 F600 X112.946 Y111.667 Z1.48
G0 F9000 X103.858 Y111.459
;TIME_ELAPSED:94.990903
;LAYER:6
;TYPE:WALL-INNER
;MESH:bodyadjustr.stl
G1 F1005.2 X104.103 Y111.571 E63.6612
G1 X104.251 Y111.833 E63.67309
G1 X115.535 Y111.838 E64.11876
G1 X115.86 Y111.938 E64.13219
G1 X116.111 Y112.051 E64.14306
G1 X117.782 Y112.051 E64.20906
G1 X117.782 Y107.949 E64.37108
G1 X116.111 Y107.949 E64.43708
G1 X115.852 Y108.065 E64.44828
G1 X115.535 Y108.162 E64.46138
G1 X104.27 Y108.166 E64.90631
G1 X104.103 Y108.428 E64.91858
G1 X103.858 Y108.541 E64.92923
G1 X103.549 Y108.599 E64.94165
G1 X103.021 Y108.599 E64.9625
G1 X102.567 Y108.511 E64.98077
G1 X102.219 Y108.248 E64.998
G1 X102.219 Y111.751 E65.13635
G1 X102.567 Y111.488 E65.15358
G1 X103.021 Y111.4 E65.17185
G1 X103.549 Y111.401 E65.1927
G1 X103.858 Y111.459 E65.20512
G0 F9000 X103.846 Y112
G1 F1005.2 X104.034 Y112.333 E65.22022
G1 X115.527 Y112.336 E65.67416
G1 X116.004 Y112.551 E65.69482
G1 X118.282 Y112.551 E65.78479
G1 X118.282 Y107.449 E65.9863
G1 X116.004 Y107.449 E66.07628
G1 X115.527 Y107.664 E66.09694
G1 X104.058 Y107.666 E66.54993
G1 X103.846 Y108 E66.56555
G1 X103.522 Y108.099 E66.57893
G1 X103.021 Y108.099 E66.59872
G1 X102.756 Y108.048 E66.60938
G1 X102.469 Y107.831 E66.62359
G1 X102.349 Y107.67 E66.63152
G1 X101.719 Y107.67 E66.6564
G1 X101.719 Y112.329 E66.84042
G1 X102.349 Y112.329 E66.8653
G1 X102.469 Y112.168 E66.87323
G1 X102.756 Y111.951 E66.88744
G1 X103.021 Y111.9 E66.8981
G1 X103.522 Y111.9 E66.91789
G1 X103.846 Y112 E66.93128
G0 F9000 X103.601 Y112.407
;TYPE:WALL-OUTER
G1 F773.3 X103.71 Y112.6 E66.93916
G1 X103.725 Y112.808 E66.94657
G1 X115.419 Y112.809 E67.36226
G1 X115.903 Y113.026 E67.38111
G1 X118.757 Y113.027 E67.48256
G1 X118.757 Y106.973 E67.69776
G1 X115.903 Y106.974 E67.79921
G1 X115.42 Y107.191 E67.81803
G1 X103.733 Y107.194 E68.23347
G1 X103.709 Y107.423 E68.24165
G1 X103.601 Y107.592 E68.24878
G1 X103.497 Y107.624 E68.25265
G1 X102.956 Y107.624 E68.27188
G1 X102.803 Y107.461 E68.27983
G1 X102.557 Y107.195 E68.29271
G1 X101.272 Y107.195 E68.33839
G1 X101.243 Y107.21 E68.33955
G1 X101.243 Y112.805 E68.53843
G1 X102.557 Y112.804 E68.58514
G1 X102.803 Y112.538 E68.59802
G1 X102.956 Y112.375 E68.60596
G1 X103.497 Y112.375 E68.6252
G1 X103.601 Y112.407 E68.62906
G0 F9000 X103.699 Y112.581
G0 X104.38 Y112.138
G0 X108.129 Y111.583
;TYPE:FILL
G1 F927.9 X117.53 Y109.064 E69.5055
G0 F9000 X117.531 Y110.88
G1 F927.9 X117.285 Y111.8 E69.59126
G0 F9000 X113.062 Y111.583
G1 F927.9 X109.895 Y108.416 E69.99459
G0 F9000 X109.34 Y108.414
G1 F927.9 X108.491 Y111.583 E70.29003
;MESH:NONMESH
G0 F600 X108.491 Y111.583 Z1.68
G0 F9000 X102.219 Y108.365
;TIME_ELAPSED:105.782128
;LAYER:7
;TYPE:WALL-INNER
;MESH:bodyadjustr.stl
G1 F893.4 X102.219 Y111.635 E70.41918
G1 X102.548 Y111.358 E70.43617
G1 X103.035 Y111.257 E70.45581
G1 X103.488 Y111.258 E70.4737
G1 X103.864 Y111.319 E70.48875
G1 X104.149 Y111.458 E70.50127
G1 X104.305 Y111.75 E70.51435
G1 X115.291 Y111.751 E70.94825
G1 X115.561 Y111.804 E70.95912
G1 X115.928 Y111.969 E70.97501
G1 X117.782 Y111.969 E71.04824
G1 X117.782 Y108.031 E71.20378
G1 X115.928 Y108.031 E71.277
G1 X115.561 Y108.196 E71.2929
G1 X115.291 Y108.249 E71.30376
G1 X104.305 Y108.249 E71.73767
G1 X104.149 Y108.542 E71.75078
G1 X103.864 Y108.681 E71.76331
G1 X103.476 Y108.743 E71.77883
G1 X103.032 Y108.742 E71.79636
G1 X102.546 Y108.64 E71.81598
G1 X102.219 Y108.365 E71.83285
G0 F9000 X103.633 Y108.467
G0 X103.633 Y108.243
G1 F893.4 X103.032 Y108.242 E71.85659
G1 X102.748 Y108.183 E71.86804
G1 X102.449 Y107.932 E71.88346
G1 X102.333 Y107.754 E71.89185
G1 X101.719 Y107.754 E71.91611
G1 X101.719 Y112.245 E72.09348
G1 X102.334 Y112.245 E72.11777
G1 X102.449 Y112.067 E72.12614
G1 X102.75 Y111.815 E72.14165
G1 X103.034 Y111.757 E72.1531
G1 X103.636 Y111.758 E72.17687
G1 X103.872 Y111.874 E72.18726
G1 X104.074 Y112.25 E72.20412
G1 X115.348 Y112.256 E72.6494
G1 X115.821 Y112.469 E72.66989
G1 X118.282 Y112.469 E72.76709
G1 X118.282 Y107.531 E72.96212
G1 X115.821 Y107.531 E73.05932
G1 X115.348 Y107.744 E73.07981
G1 X104.073 Y107.749 E73.52514
G1 X103.872 Y108.126 E73.54201
G1 X103.633 Y108.243 E73.55252
G0 F9000 X103.61 Y107.73
;TYPE:WALL-OUTER
G1 F687.2 X103.532 Y107.768 E73.5556
G1 X102.963 Y107.767 E73.57583
G1 X102.844 Y107.668 E73.58133
G1 X102.81 Y107.589 E73.58439
G1 X102.586 Y107.31 E73.59711
G1 X102.522 Y107.279 E73.59964
G1 X101.272 Y107.279 E73.64407
G1 X101.243 Y107.294 E73.64523
G1 X101.243 Y112.721 E73.83814
G1 X102.525 Y112.72 E73.88371
G1 X102.588 Y112.689 E73.88621
G1 X102.809 Y112.411 E73.89883
G1 X102.844 Y112.331 E73.90194
G1 X102.963 Y112.232 E73.90744
G1 X103.535 Y112.233 E73.92777
G1 X103.61 Y112.27 E73.93075
G1 X103.71 Y112.458 E73.93831
G1 X103.725 Y112.725 E73.94782
G1 X115.236 Y112.727 E74.357
G1 X115.72 Y112.944 E74.37585
G1 X118.757 Y112.945 E74.48381
G1 X118.757 Y107.055 E74.69318
G1 X115.72 Y107.056 E74.80114
G1 X115.237 Y107.273 E74.81996
G1 X103.71 Y107.275 E75.22971
G1 X103.71 Y107.542 E75.2392
G1 X103.61 Y107.73 E75.24677
G0 F9000 X103.532 Y107.768
G0 X103.418 Y107.768
G0 X103.418 Y108.467
G0 X109.134 Y108.639
;TYPE:FILL
G1 F824.7 X109.172 Y108.497 E75.25338
G0 F9000 X110.177 Y108.498
G1 F824.7 X110.318 Y108.639 E75.26236
G0 F9000 X109.511 Y111.358
G1 F824.7 X108.983 Y111.5 E75.28698
G0 F9000 X108.406 Y111.358
G1 F824.7 X108.368 Y111.5 E75.2936
G0 F9000 X113.038 Y111.36
G1 F824.7 X113.178 Y111.5 E75.30251
G0 F9000 X117.161 Y111.719
G1 F824.7 X117.19 Y111.608 E75.30768
;MESH:NONMESH
G0 F600 X117.19 Y111.608 Z1.88
G0 F9000 X103.881 Y108.829
;TIME_ELAPSED:116.990098
;LAYER:8
;TYPE:WALL-INNER
;MESH:bodyadjustr.stl
G1 F981.8 X103.485 Y108.896 E75.32354
G1 X103.032 Y108.895 E75.34144
G1 X102.54 Y108.791 E75.3613
G1 X102.219 Y108.515 E75.37802
G1 X102.219 Y111.485 E75.49532
G1 X102.541 Y111.208 E75.5121
G1 X103.032 Y111.104 E75.53192
G1 X103.485 Y111.104 E75.54981
G1 X103.881 Y111.17 E75.56567
G1 X104.172 Y111.32 E75.5786
G1 X104.323 Y111.609 E75.59148
G1 X114.87 Y111.61 E76.00805
G1 X115.191 Y111.639 E76.02078
G1 X115.683 Y111.859 E76.04206
G1 X117.782 Y111.859 E76.12497
G1 X117.782 Y108.14 E76.27185
G1 X115.683 Y108.141 E76.35476
G1 X115.191 Y108.361 E76.37604
G1 X114.87 Y108.39 E76.38877
G1 X104.323 Y108.39 E76.80534
G1 X104.172 Y108.68 E76.81825
G1 X103.881 Y108.829 E76.83117
G0 F9000 X103.886 Y108.27
G1 F981.8 X103.716 Y108.357 E76.83871
G1 X103.485 Y108.396 E76.84796
G1 X103.032 Y108.395 E76.86585
G1 X102.745 Y108.334 E76.87744
G1 X102.443 Y108.076 E76.89313
G1 X102.325 Y107.895 E76.90167
G1 X101.719 Y107.896 E76.9256
G1 X101.719 Y112.103 E77.09176
G1 X102.325 Y112.104 E77.1157
G1 X102.443 Y111.923 E77.12423
G1 X102.745 Y111.665 E77.13992
G1 X103.032 Y111.604 E77.15151
G1 X103.485 Y111.604 E77.1694
G1 X103.716 Y111.643 E77.17865
G1 X103.886 Y111.73 E77.18619
G1 X104.084 Y112.109 E77.20308
G1 X115.02 Y112.11 E77.63502
G1 X115.576 Y112.359 E77.65908
G1 X118.282 Y112.359 E77.76595
G1 X118.282 Y107.64 E77.95234
G1 X115.576 Y107.641 E78.05922
G1 X115.02 Y107.89 E78.08328
G1 X104.084 Y107.89 E78.51521
G1 X103.886 Y108.27 E78.53213
G0 F9000 X103.614 Y107.88
;TYPE:WALL-OUTER
G1 F755.2 X103.485 Y107.921 E78.53695
G1 X102.961 Y107.92 E78.55557
G1 X102.842 Y107.818 E78.56114
G1 X102.81 Y107.741 E78.56411
G1 X102.578 Y107.451 E78.57731
G1 X102.514 Y107.42 E78.57984
G1 X101.272 Y107.42 E78.62399
G1 X101.243 Y107.435 E78.62515
G1 X101.243 Y112.579 E78.808
G1 X102.514 Y112.579 E78.85318
G1 X102.578 Y112.548 E78.85571
G1 X102.81 Y112.258 E78.86891
G1 X102.842 Y112.181 E78.87187
G1 X102.961 Y112.079 E78.87744
G1 X103.537 Y112.079 E78.89792
G1 X103.614 Y112.119 E78.901
G1 X103.71 Y112.304 E78.90841
G1 X103.71 Y112.584 E78.91836
G1 X114.927 Y112.589 E79.31709
G1 X115.475 Y112.834 E79.33843
G1 X118.757 Y112.834 E79.45509
G1 X118.757 Y107.165 E79.65661
G1 X115.475 Y107.166 E79.77327
G1 X114.918 Y107.415 E79.79496
G1 X103.71 Y107.415 E80.19337
G1 X103.71 Y107.695 E80.20332
G1 X103.614 Y107.88 E80.21073
G0 F9000 X103.485 Y107.921
G0 X103.42 Y107.921
G0 X103.42 Y108.62
G0 X108.987 Y108.638
;TYPE:FILL
G1 F906.2 X108.259 Y111.358 E80.46429
G0 F9000 X110.058 Y111.359
G1 F906.2 X117.531 Y109.356 E81.16101
G0 F9000 X117.531 Y109.788
G1 F906.2 X117.043 Y111.609 E81.33078
G0 F9000 X113.238 Y111.359
G1 F906.2 X110.52 Y108.64 E81.67698
;MESH:NONMESH
G0 F600 X110.52 Y108.64 Z2.08
G0 F9000 X103.895 Y108.977
;TIME_ELAPSED:127.776696
;LAYER:9
;TYPE:WALL-INNER
;MESH:bodyadjustr.stl
G1 F881.6 X103.484 Y109.049 E81.69346
G1 X103.036 Y109.049 E81.71116
G1 X102.542 Y108.946 E81.73109
G1 X102.218 Y108.667 E81.74798
G1 X102.218 Y111.332 E81.85323
G1 X102.541 Y111.055 E81.87004
G1 X103.032 Y110.951 E81.88986
G1 X103.485 Y110.951 E81.90776
G1 X103.895 Y111.022 E81.92419
G1 X104.189 Y111.179 E81.93735
G1 X104.33 Y111.455 E81.9496
G1 X114.529 Y111.456 E82.35242
G1 X114.866 Y111.492 E82.3658
G1 X115.343 Y111.705 E82.38644
G1 X117.782 Y111.705 E82.48277
G1 X117.782 Y108.295 E82.61745
G1 X115.343 Y108.295 E82.71378
G1 X114.871 Y108.507 E82.73422
G1 X114.529 Y108.544 E82.74781
G1 X104.33 Y108.544 E83.15063
G1 X104.189 Y108.821 E83.16291
G1 X103.895 Y108.977 E83.17605
G0 F9000 X102.427 Y108.707
G0 X101.913 Y108.244
G0 X101.718 Y108.049
G1 F881.6 X101.718 Y111.95 E83.33013
G1 X102.326 Y111.949 E83.35414
G1 X102.444 Y111.769 E83.36264
G1 X102.745 Y111.512 E83.37828
G1 X103.032 Y111.451 E83.38986
G1 X103.485 Y111.451 E83.40776
G1 X103.724 Y111.492 E83.41733
G1 X103.896 Y111.584 E83.42504
G1 X104.085 Y111.955 E83.44148
G1 X114.681 Y111.956 E83.85999
G1 X115.237 Y112.205 E83.88405
G1 X118.282 Y112.205 E84.00431
G1 X118.282 Y107.795 E84.17849
G1 X115.237 Y107.795 E84.29876
G1 X114.678 Y108.044 E84.32293
G1 X104.085 Y108.044 E84.74132
G1 X103.896 Y108.416 E84.7578
G1 X103.724 Y108.507 E84.76548
G1 X103.483 Y108.549 E84.77514
G1 X103.035 Y108.549 E84.79284
G1 X102.746 Y108.489 E84.8045
G1 X102.444 Y108.23 E84.82021
G1 X102.326 Y108.05 E84.82871
G1 X101.718 Y108.049 E84.85272
G1 F2400 E82.85272
G0 F9000 X101.913 Y108.244
G0 X102.427 Y108.707
G0 X103.618 Y108.773
G1 F1200 E84.85272
G0 F9000 X103.617 Y108.031
;TYPE:WALL-OUTER
G1 F678.2 X103.482 Y108.074 E84.85776
G1 X102.963 Y108.074 E84.87621
G1 X102.843 Y107.972 E84.88181
G1 X102.81 Y107.894 E84.88482
G1 X102.579 Y107.605 E84.89797
G1 X102.515 Y107.574 E84.9005
G1 X101.272 Y107.574 E84.94468
G1 X101.243 Y107.589 E84.94584
G1 X101.243 Y112.425 E85.11775
G1 X102.515 Y112.424 E85.16296
G1 X102.578 Y112.393 E85.16546
G1 X102.809 Y112.106 E85.17855
G1 X102.961 Y111.926 E85.18693
G1 X103.485 Y111.926 E85.20556
G1 X103.617 Y111.968 E85.21048
G1 X103.71 Y112.151 E85.21778
G1 X103.725 Y112.43 E85.22771
G1 X114.578 Y112.436 E85.6135
G1 X115.135 Y112.68 E85.63511
G1 X118.757 Y112.68 E85.76386
G1 X118.757 Y107.319 E85.95443
G1 X115.135 Y107.32 E86.08318
G1 X114.578 Y107.564 E86.1048
G1 X103.71 Y107.569 E86.49112
G1 X103.71 Y107.848 E86.50104
G1 X103.617 Y108.031 E86.50833
G0 F9000 X103.482 Y108.074
G0 X103.423 Y108.074
G0 X103.424 Y108.773
G0 X108.759 Y108.946
;TYPE:FILL
G1 F813.8 X108.8 Y108.792 E86.51551
G0 F9000 X110.872 Y108.794
G1 F813.8 X111.024 Y108.946 E86.52519
G0 F9000 X111.749 Y111.052
G1 F813.8 X111.176 Y111.205 E86.55189
G0 F9000 X113.131 Y111.052
G1 F813.8 X113.284 Y111.205 E86.56163
G0 F9000 X116.938 Y111.454
G1 F813.8 X116.98 Y111.3 E86.56882
G0 F9000 X108.195 Y111.051
G1 F813.8 X108.154 Y111.204 E86.57595
;MESH:NONMESH
G0 F600 X108.154 Y111.204 Z2.28
G0 F9000 X117.782 Y108.448
;TIME_ELAPSED:139.310226
;LAYER:10
;TYPE:WALL-INNER
;MESH:bodyadjustr.stl
G1 F1109.3 X114.998 Y108.448 E86.68591
G1 X114.529 Y108.659 E86.70622
G1 X114.185 Y108.697 E86.71989
G1 X104.416 Y108.697 E87.10573
G1 X104.271 Y109.016 E87.11957
G1 X103.964 Y109.211 E87.13394
G1 X103.488 Y109.309 E87.15313
G1 X102.962 Y109.308 E87.17391
G1 X102.449 Y109.15 E87.19511
G1 X102.218 Y108.9 E87.20855
G1 X102.218 Y111.099 E87.2954
G1 X102.449 Y110.849 E87.30885
G1 X102.962 Y110.692 E87.33004
G1 X103.488 Y110.691 E87.35081
G1 X103.964 Y110.789 E87.37001
G1 X104.271 Y110.984 E87.38437
G1 X104.417 Y111.302 E87.39819
G1 X114.185 Y111.303 E87.78399
G1 X114.529 Y111.341 E87.79766
G1 X114.998 Y111.552 E87.81797
G1 X117.782 Y111.552 E87.92793
G1 X117.782 Y108.448 E88.05053
G0 F9000 X104.34 Y108.805
G0 X102.399 Y108.965
G0 X101.913 Y108.398
G0 X101.718 Y108.203
G1 F1109.3 X101.718 Y111.796 E88.19244
G1 X102.314 Y111.795 E88.21598
G1 X102.416 Y111.587 E88.22513
G1 X102.698 Y111.282 E88.24154
G1 X102.998 Y111.191 E88.25392
G1 X103.487 Y111.191 E88.27323
G1 X103.765 Y111.248 E88.28444
G1 X103.944 Y111.362 E88.29282
G1 X104.145 Y111.802 E88.31193
G1 X114.338 Y111.803 E88.71452
G1 X114.891 Y112.052 E88.73847
G1 X118.282 Y112.052 E88.8724
G1 X118.282 Y107.948 E89.03449
G1 X114.891 Y107.948 E89.16843
G1 X114.338 Y108.197 E89.19238
G1 X104.144 Y108.197 E89.59501
G1 X103.944 Y108.638 E89.61413
G1 X103.765 Y108.752 E89.62251
G1 X103.487 Y108.809 E89.63372
G1 X102.998 Y108.808 E89.65304
G1 X102.698 Y108.717 E89.66542
G1 X102.416 Y108.412 E89.68182
G1 X102.314 Y108.203 E89.69101
G1 X101.718 Y108.203 E89.71455
G1 F2400 E87.71455
G0 F9000 X101.913 Y108.398
G0 X102.399 Y108.965
G0 X103.633 Y109.034
G1 F1200 E89.71455
G0 F9000 X103.633 Y108.279
;TYPE:WALL-OUTER
G1 F853.3 X103.486 Y108.334 E89.72013
G1 X102.962 Y108.334 E89.73876
G1 X102.844 Y108.207 E89.74492
G1 X102.813 Y108.109 E89.74857
G1 X102.581 Y107.728 E89.76443
G1 X101.272 Y107.728 E89.81096
G1 X101.243 Y107.743 E89.81212
G1 X101.243 Y112.271 E89.97308
G1 X102.58 Y112.27 E90.0206
G1 X102.813 Y111.89 E90.03645
G1 X102.844 Y111.792 E90.0401
G1 X102.962 Y111.665 E90.04626
G1 X103.486 Y111.666 E90.06489
G1 X103.633 Y111.721 E90.07047
G1 X103.71 Y111.891 E90.0771
G1 X103.71 Y112.277 E90.09082
G1 X114.235 Y112.283 E90.46495
G1 X114.79 Y112.527 E90.4865
G1 X118.757 Y112.527 E90.62752
G1 X118.757 Y107.472 E90.80721
G1 X114.79 Y107.473 E90.94822
G1 X114.235 Y107.717 E90.96977
G1 X103.71 Y107.723 E91.3439
G1 X103.71 Y108.109 E91.35762
G1 X103.633 Y108.279 E91.36426
G0 F9000 X103.486 Y108.334
G0 X103.442 Y108.334
G0 X103.442 Y109.034
G0 X104.324 Y108.937
G0 X108.612 Y108.945
;TYPE:FILL
G1 F1023.9 X108.048 Y111.051 E91.56059
G0 F9000 X111.226 Y108.946
G1 F1023.9 X113.331 Y111.051 E91.82867
G0 F9000 X112.296 Y111.052
G1 F1023.9 X117.531 Y109.649 E92.31672
G0 F9000 X117.53 Y108.696
G1 F1023.9 X116.833 Y111.301 E92.55956
G0 F9000 X104.531 Y111.085
G0 X102.654 Y110.667
G0 X102.369 Y110.555
G0 X102.491 Y110.556
;TYPE:SKIN
G1 F768 X102.949 Y110.42 E92.57013
G1 X103.484 Y110.417 E92.58196
G1 X104.072 Y110.539 E92.59524
G1 X104.42 Y110.757 E92.60433
G1 X104.568 Y111.029 E92.61117
G1 X104.912 Y111.029 E92.61878
G1 X104.912 Y108.97 E92.66432
G1 X104.567 Y108.97 E92.67195
G1 X104.419 Y109.243 E92.67882
G1 X104.072 Y109.461 E92.68789
G1 X103.502 Y109.58 E92.70077
G1 X102.949 Y109.58 E92.713
G1 X102.492 Y109.443 E92.72355
G1 X102.491 Y110.556 E92.74817
G0 F9000 X102.369 Y110.555
G0 X102.445 Y109.379
G0 X104.374 Y109.098
G0 X104.599 Y109.2
G1 F768 X104.772 Y109.2 E92.75199
G0 F9000 X104.772 Y109.48
G1 F768 X104.307 Y109.48 E92.76228
G0 F9000 X104.772 Y109.76
G1 F768 X102.632 Y109.76 E92.80961
G0 F9000 X102.632 Y110.04
G1 F768 X104.772 Y110.04 E92.85694
G0 F9000 X104.772 Y110.32
G1 F768 X103.704 Y110.32 E92.88057
G0 F9000 X104.431 Y110.6
G1 F768 X104.772 Y110.6 E92.88811
G0 F9000 X104.772 Y110.88
G1 F768 X104.653 Y110.88 E92.89074
G0 F9000 X104.413 Y110.988
G0 X102.86 Y110.573
G0 X102.784 Y110.32
G1 F768 X102.632 Y110.32 E92.8941
G0 F9000 X102.343 Y110.319
;MESH:NONMESH
G0 F600 X102.343 Y110.319 Z2.48
G0 F9000 X102.326 Y109.447
;TIME_ELAPSED:151.209461
;LAYER:11
;TYPE:WALL-INNER
;MESH:bodyadjustr.stl
G1 F593.5 X102.326 Y110.552 E92.95677
G1 F597.7 X102.556 Y110.446 E92.97104
G1 F606.2 X102.786 Y110.34 E92.9851
G1 F614.9 X103.136 Y110.34 E93.00426
G1 F623.9 X103.486 Y110.34 E93.02314
G1 F672.1 X103.75 Y110.445 E93.03737
G1 F783.3 X104.016 Y110.551 E93.04968
G1 F852.3 X104.328 Y110.773 E93.0648
G1 X104.459 Y111.086 E93.0782
G1 X113.71 Y111.087 E93.44358
G1 X114.05 Y111.123 E93.45709
G1 X114.662 Y111.398 E93.48359
G1 X117.782 Y111.398 E93.60682
G1 X117.782 Y108.602 E93.71725
G1 X114.662 Y108.602 E93.84048
G1 X114.053 Y108.876 E93.86685
G1 X113.71 Y108.914 E93.88048
G1 X104.459 Y108.914 E94.24586
G1 X104.328 Y109.226 E94.25923
G1 X104.016 Y109.448 E94.27435
G1 F783.3 X103.751 Y109.554 E94.28662
G1 F672.1 X103.485 Y109.66 E94.30096
G1 F623.9 X103.132 Y109.659 E94.32
G1 F614.9 X102.779 Y109.657 E94.33933
G1 F606.2 X102.553 Y109.552 E94.35317
G1 F597.7 X102.326 Y109.447 E94.36725
G0 F9000 X102.923 Y109.068
G1 F852.3 X102.628 Y108.93 E94.38012
G1 X102.401 Y108.639 E94.39469
G1 X102.287 Y108.42 E94.40444
G1 X101.718 Y108.42 E94.42692
G1 X101.718 Y111.58 E94.55173
G1 X102.286 Y111.579 E94.57416
G1 X102.401 Y111.36 E94.58393
G1 X102.628 Y111.069 E94.59851
G1 X102.926 Y110.931 E94.61148
G1 X103.485 Y110.929 E94.63356
G1 X103.795 Y111 E94.64612
G1 X103.977 Y111.13 E94.65495
G1 X104.168 Y111.586 E94.67448
G1 X113.862 Y111.587 E95.05736
G1 X114.555 Y111.898 E95.08736
G1 X118.282 Y111.898 E95.23456
G1 X118.282 Y108.102 E95.38449
G1 X114.555 Y108.102 E95.53169
G1 X113.861 Y108.414 E95.56174
G1 X104.168 Y108.414 E95.94458
G1 X103.977 Y108.87 E95.96411
G1 X103.795 Y108.999 E95.97292
G1 X103.485 Y109.071 E95.98549
G1 X102.923 Y109.068 E96.00769
G0 F9000 X103.643 Y108.531
;TYPE:WALL-OUTER
G1 F655.6 X103.485 Y108.596 E96.01376
G1 X102.999 Y108.59 E96.03104
G1 X102.926 Y108.556 E96.0339
G1 X102.554 Y107.945 E96.05933
G1 X101.272 Y107.945 E96.1049
G1 X101.243 Y107.96 E96.10606
G1 X101.243 Y112.055 E96.25162
G1 X102.552 Y112.054 E96.29815
G1 X102.929 Y111.442 E96.32371
G1 X102.999 Y111.409 E96.32646
G1 X103.485 Y111.404 E96.34373
G1 X103.643 Y111.468 E96.34979
G1 X103.71 Y111.629 E96.35599
G1 X103.71 Y112.062 E96.37138
G1 X113.76 Y112.067 E96.72863
G1 X114.454 Y112.373 E96.75559
G1 X118.757 Y112.373 E96.90855
G1 X118.757 Y107.626 E97.07729
G1 X114.454 Y107.627 E97.23025
G1 X113.759 Y107.934 E97.25725
G1 X103.711 Y107.939 E97.61443
G1 X103.711 Y108.37 E97.62975
G1 X103.643 Y108.531 E97.63596
G0 F9000 X103.485 Y108.596
G0 X103.455 Y108.596
G0 X103.455 Y109.295
G0 X108.408 Y109.162
;TYPE:FILL
G1 F786.7 X107.959 Y110.836 E97.714
G0 F9000 X111.642 Y109.163
G1 F786.7 X111.903 Y109.424 E97.73062
G0 F9000 X113.056 Y110.577
G1 F786.7 X113.315 Y110.836 E97.74711
G0 F9000 X113.647 Y110.836
G1 F786.7 X113.882 Y110.773 E97.75806
G0 F9000 X116.728 Y111.147
G1 F786.7 X116.794 Y110.901 E97.76953
G0 F9000 X117.277 Y109.097
G1 F786.7 X117.343 Y108.85 E97.78104
;MESH:NONMESH
G0 F600 X117.343 Y108.85 Z2.68
G0 F9000 X102.175 Y110.609
;TIME_ELAPSED:162.529600
;LAYER:12
;TYPE:WALL-INNER
;MESH:bodyadjustr.stl
G1 F1444.7 X102.484 Y110.181 E97.79835
G1 F1384.7 X102.734 Y110.057 E97.80789
G1 F1275.7 X102.948 Y109.999 E97.81613
G1 X102.734 Y109.943 E97.82434
G1 F1384.7 X102.484 Y109.819 E97.83388
G1 F1444.7 X102.176 Y109.391 E97.85117
G1 X102.175 Y110.609 E97.8911
G0 F9000 X102.127 Y110.609
G0 X102.191 Y110.363
G0 X103.488 Y110
G1 F1233.7 X103.827 Y110.101 E97.90468
G1 F1211.2 X104.167 Y110.202 E97.91855
G1 F1199.1 X104.456 Y110.486 E97.93455
G1 X104.567 Y110.827 E97.94871
G1 X113.131 Y110.827 E98.28696
G1 X113.471 Y110.863 E98.30047
G1 X114.114 Y111.152 E98.32831
G1 X117.782 Y111.153 E98.47318
G1 X117.782 Y108.847 E98.56426
G1 X114.114 Y108.848 E98.70913
G1 X113.474 Y109.136 E98.73685
G1 X113.131 Y109.174 E98.75048
G1 X104.567 Y109.174 E99.08873
G1 X104.456 Y109.515 E99.10289
G1 X104.167 Y109.798 E99.11887
G1 F1211.2 X103.828 Y109.899 E99.1327
G1 F1233.7 X103.488 Y110 E99.14632
G0 F9000 X104.052 Y109.221
G1 F1199.1 X103.883 Y109.386 E99.15565
G1 X103.487 Y109.509 E99.17202
G1 X102.991 Y109.507 E99.19161
G1 X102.708 Y109.42 E99.20331
G1 X102.364 Y108.944 E99.2265
G1 X102.286 Y108.68 E99.23738
G1 X101.719 Y108.68 E99.25977
G1 X101.718 Y111.32 E99.36404
G1 X102.284 Y111.319 E99.3864
G1 X102.346 Y111.214 E99.39121
G1 X102.364 Y111.056 E99.39749
G1 X102.708 Y110.579 E99.42072
G1 X102.991 Y110.492 E99.43241
G1 X103.487 Y110.491 E99.45201
G1 X103.883 Y110.614 E99.46838
G1 X104.052 Y110.78 E99.47774
G1 X104.185 Y111.191 E99.4948
G1 X104.185 Y111.327 E99.50017
G1 X113.282 Y111.327 E99.85947
G1 X114.007 Y111.652 E99.89085
G1 X118.282 Y111.653 E100.0597
G1 X118.282 Y108.347 E100.19027
G1 X114.007 Y108.348 E100.35912
G1 X113.282 Y108.674 E100.39052
G1 X104.185 Y108.674 E100.74982
G1 X104.185 Y108.809 E100.75515
G1 X104.052 Y109.221 E100.77225
G0 F9000 X103.668 Y108.942
;TYPE:WALL-OUTER
G1 F922.4 X103.486 Y109.034 E100.7795
G1 X102.961 Y109.034 E100.79816
G1 X102.831 Y108.853 E100.80608
G1 X102.808 Y108.624 E100.81426
G1 X102.554 Y108.205 E100.83168
G1 X101.272 Y108.205 E100.87725
G1 X101.243 Y108.22 E100.87841
G1 X101.243 Y111.795 E101.00549
G1 X102.553 Y111.794 E101.05206
G1 X102.811 Y111.364 E101.06988
G1 X102.83 Y111.147 E101.07762
G1 X102.961 Y110.965 E101.0856
G1 X103.486 Y110.966 E101.10426
G1 X103.668 Y111.058 E101.11151
G1 X103.71 Y111.191 E101.11647
G1 X103.71 Y111.802 E101.13818
G1 X113.181 Y111.807 E101.47485
G1 X113.906 Y112.127 E101.50302
G1 X118.757 Y112.128 E101.67546
G1 X118.757 Y107.872 E101.82674
G1 X113.906 Y107.873 E101.99918
G1 X113.18 Y108.194 E102.0274
G1 X103.71 Y108.199 E102.36402
G1 X103.71 Y108.809 E102.38571
G1 X103.668 Y108.942 E102.39067
G0 F9000 X103.489 Y109.032
G0 X103.488 Y110
;TYPE:WALL-INNER
G1 F1233.7 X102.948 Y109.999 E102.4114
G0 F9000 X104.626 Y109.641
G0 X112.104 Y109.424
;TYPE:FILL
G1 F1106.9 X113.271 Y110.591 E102.56002
G0 F9000 X114.087 Y110.865
G1 F1106.9 X117.531 Y109.942 E102.8811
G0 F9000 X117.13 Y109.096
G1 F1106.9 X116.647 Y110.902 E103.04945
G0 F9000 X111.364 Y109.324
G0 X111.364 Y109.447
;TYPE:SKIN
G1 F830.2 X104.752 Y109.447 E103.19569
G1 X104.671 Y109.679 E103.20113
G1 X104.346 Y110.001 E103.21125
G1 X104.656 Y110.303 E103.22082
G1 X104.752 Y110.554 E103.22676
G1 X111.365 Y110.554 E103.37303
G1 X111.452 Y110.232 E103.38041
G1 X111.499 Y109.926 E103.38726
G1 X111.364 Y109.447 E103.39826
G0 F9000 X111.296 Y109.76
G1 F830.2 X104.786 Y109.76 E103.54225
G0 F9000 X104.584 Y110.04
G1 F830.2 X111.335 Y110.04 E103.69157
G0 F9000 X111.272 Y110.32
G1 F830.2 X104.816 Y110.32 E103.83436
;MESH:NONMESH
G0 F600 X104.816 Y110.32 Z2.88
G0 F9000 X104.573 Y110.397
G0 X102.199 Y109.662
G0 X101.943 Y108.994
G0 X101.752 Y108.994
;TIME_ELAPSED:173.596097
;LAYER:13
;TYPE:WALL-INNER
;MESH:bodyadjustr.stl
G1 F1112.3 X101.751 Y109.719 E103.86684
G1 F1094.9 X101.761 Y110.001 E103.87967
G1 X101.751 Y110.282 E103.89247
G1 F1112.3 X101.752 Y111.005 E103.92485
G1 X102.202 Y111.005 E103.94501
G1 X102.319 Y110.703 E103.95951
G1 F1104.5 X102.319 Y110.121 E103.98576
G1 F1085.5 X102.369 Y110.001 E103.99173
G1 X102.326 Y109.897 E103.99689
G1 F1104.5 X102.319 Y109.296 E104.024
G1 F1112.3 X102.202 Y108.994 E104.03851
G1 X101.752 Y108.994 E104.05866
G0 F9000 X101.243 Y108.5
;TYPE:WALL-OUTER
G1 F970.2 X101.243 Y111.514 E104.1658
G1 X102.552 Y111.51 E104.21233
G1 X102.827 Y110.798 E104.23946
G1 X102.827 Y110.24 E104.2593
G1 F859.5 X103.028 Y110 E104.27186
G1 X102.827 Y109.761 E104.28439
G1 F970.2 X102.827 Y109.201 E104.3043
G1 X102.547 Y108.489 E104.3315
G1 X101.272 Y108.485 E104.37682
G1 X101.243 Y108.5 E104.37798
G0 F9000 X101.243 Y108.7
G1 F2400 E102.37798
G0 F9000 X101.913 Y109.155
G0 X102.127 Y110
G1 F1200 E104.37798
G0 F9000 X103.028 Y110
G1 F772.7 X103.486 Y110.001 E104.39842
G0 F9000 X104.41 Y110.001
G0 X104.685 Y109.452
;TYPE:WALL-INNER
G1 F1261.3 X104.685 Y109.85 E104.41414
G1 X104.649 Y110.001 E104.42027
G1 X104.685 Y110.152 E104.4264
G1 X104.685 Y110.549 E104.44208
G1 X112.514 Y110.549 E104.7513
G1 X112.854 Y110.585 E104.7648
G1 X113.535 Y110.891 E104.79429
G1 X117.782 Y110.892 E104.96203
G1 X117.782 Y109.108 E105.03249
G1 X113.535 Y109.109 E105.20023
G1 X112.855 Y109.414 E105.22967
G1 X112.514 Y109.452 E105.24322
G1 X104.685 Y109.452 E105.55244
G0 F9000 X109.228 Y109.263
G0 X118.087 Y108.803
G0 X118.282 Y108.608
G1 F1261.3 X113.428 Y108.609 E105.74415
G1 X112.665 Y108.952 E105.7772
G1 X104.185 Y108.952 E106.11212
G1 X104.185 Y109.793 E106.14534
G1 X104.152 Y109.937 E106.15118
G1 X104.063 Y110.001 E106.15551
G1 X104.152 Y110.065 E106.15984
G1 X104.185 Y110.209 E106.16567
G1 X104.185 Y111.049 E106.19885
G1 X112.665 Y111.049 E106.53378
G1 X113.428 Y111.391 E106.5668
G1 X118.282 Y111.392 E106.75852
G1 X118.282 Y108.608 E106.86848
G1 F2400 E104.86848
G0 F9000 X118.087 Y108.803
G0 X113.238 Y109.084
G0 X104.38 Y109.147
G1 F1200 E106.86848
G0 F9000 X103.71 Y108.477
;TYPE:WALL-OUTER
G1 F970.2 X103.708 Y109.781 E106.91483
G1 F861.1 X103.486 Y110.001 E106.92735
G1 X103.708 Y110.221 E106.93986
G1 F970.2 X103.71 Y111.524 E106.98618
G1 X112.564 Y111.529 E107.30091
G1 X113.327 Y111.866 E107.33056
G1 X118.757 Y111.867 E107.52358
G1 X118.757 Y108.133 E107.65631
G1 X113.327 Y108.134 E107.84933
G1 X112.563 Y108.472 E107.87903
G1 X103.71 Y108.477 E108.19372
G0 F9000 X103.71 Y108.677
G0 X104.38 Y109.147
G0 X110.869 Y109.671
G0 X110.877 Y110.261
G0 X110.824 Y110.276
;TYPE:SKIN
G1 F873.2 X110.818 Y109.725 E108.20591
G1 X104.951 Y109.725 E108.33568
G1 X104.939 Y109.944 E108.34053
G1 X104.951 Y110.276 E108.34788
G1 X110.824 Y110.276 E108.47778
G0 F9000 X110.6 Y110.136
G1 F873.2 X110.6 Y109.865 E108.48377
G0 F9000 X110.32 Y109.865
G1 F873.2 X110.32 Y110.136 E108.48976
G0 F9000 X110.04 Y110.136
G1 F873.2 X110.04 Y109.865 E108.49576
G0 F9000 X109.76 Y109.865
G1 F873.2 X109.76 Y110.136 E108.50175
G0 F9000 X109.48 Y110.136
G1 F873.2 X109.48 Y109.865 E108.50774
G0 F9000 X109.2 Y109.865
G1 F873.2 X109.2 Y110.136 E108.51374
G0 F9000 X108.92 Y110.136
G1 F873.2 X108.92 Y109.865 E108.51973
G0 F9000 X108.64 Y109.865
G1 F873.2 X108.64 Y110.136 E108.52573
G0 F9000 X108.36 Y110.136
G1 F873.2 X108.36 Y109.865 E108.53172
G0 F9000 X108.08 Y109.865
G1 F873.2 X108.08 Y110.136 E108.53771
G0 F9000 X107.8 Y110.136
G1 F873.2 X107.8 Y109.865 E108.54371
G0 F9000 X107.52 Y109.865
G1 F873.2 X107.52 Y110.136 E108.5497
G0 F9000 X107.24 Y110.136
G1 F873.2 X107.24 Y109.865 E108.5557
G0 F9000 X106.96 Y109.865
G1 F873.2 X106.96 Y110.136 E108.56169
G0 F9000 X106.68 Y110.136
G1 F873.2 X106.68 Y109.865 E108.56768
G0 F9000 X106.4 Y109.865
G1 F873.2 X106.4 Y110.136 E108.57368
G0 F9000 X106.12 Y110.136
G1 F873.2 X106.12 Y109.865 E108.57967
G0 F9000 X105.84 Y109.865
G1 F873.2 X105.84 Y110.136 E108.58567
G0 F9000 X105.56 Y110.136
G1 F873.2 X105.56 Y109.865 E108.59166
G0 F9000 X105.28 Y109.865
G1 F873.2 X105.28 Y110.136 E108.59765
G0 F9000 X105.28 Y110.399
G0 X111.294 Y110.399
G0 X111.294 Y110.276
G1 F873.2 X112.526 Y110.276 E108.6249
G1 X112.819 Y110.307 E108.63142
G1 X113.126 Y110.408 E108.63857
G1 X113.593 Y110.618 E108.64989
G1 X117.509 Y110.619 E108.73651
G1 X117.509 Y109.381 E108.76389
G1 X113.594 Y109.382 E108.85048
G1 X113.108 Y109.6 E108.86226
G1 X112.849 Y109.686 E108.8683
G1 X112.511 Y109.725 E108.87583
G1 X111.319 Y109.726 E108.90219
G1 X111.294 Y110.276 E108.91437
G0 F9000 X111.294 Y110.399
G0 X113.351 Y110.651
G0 X117.319 Y110.741
G0 X117.32 Y110.478
G1 F873.2 X117.32 Y109.521 E108.93553
G0 F9000 X117.04 Y109.521
G1 F873.2 X117.04 Y110.478 E108.9567
G0 F9000 X116.76 Y110.478
G1 F873.2 X116.76 Y109.521 E108.97787
G0 F9000 X116.48 Y109.521
G1 F873.2 X116.48 Y110.478 E108.99903
G0 F9000 X116.2 Y110.478
G1 F873.2 X116.2 Y109.521 E109.0202
G0 F9000 X115.92 Y109.521
G1 F873.2 X115.92 Y110.478 E109.04137
G0 F9000 X115.64 Y110.478
G1 F873.2 X115.64 Y109.521 E109.06254
G0 F9000 X115.36 Y109.521
G1 F873.2 X115.36 Y110.478 E109.0837
G0 F9000 X115.08 Y110.478
G1 F873.2 X115.08 Y109.521 E109.10487
G0 F9000 X114.8 Y109.521
G1 F873.2 X114.8 Y110.478 E109.12604
G0 F9000 X114.52 Y110.478
G1 F873.2 X114.52 Y109.521 E109.1472
G0 F9000 X114.24 Y109.521
G1 F873.2 X114.24 Y110.478 E109.16837
G0 F9000 X113.96 Y110.478
G1 F873.2 X113.96 Y109.521 E109.18954
G0 F9000 X113.68 Y109.521
G1 F873.2 X113.68 Y110.478 E109.2107
G0 F9000 X113.4 Y110.377
G1 F873.2 X113.4 Y109.622 E109.2274
G0 F9000 X113.12 Y109.742
G1 F873.2 X113.12 Y110.258 E109.23882
G0 F9000 X112.84 Y110.168
G1 F873.2 X112.84 Y109.831 E109.24627
G0 F9000 X112.56 Y109.86
G1 F873.2 X112.56 Y110.138 E109.25242
G0 F9000 X112.28 Y110.136
G1 F873.2 X112.28 Y109.865 E109.25841
G0 F9000 X112 Y109.865
G1 F873.2 X112 Y110.136 E109.26441
G0 F9000 X111.72 Y110.136
G1 F873.2 X111.72 Y109.865 E109.2704
G0 F9000 X111.72 Y109.577
G1 F2400 E107.2704
;MESH:NONMESH
G0 F600 X111.72 Y109.577 Z3.08
G0 F9000 X103.93 Y109.441
G0 X102.607 Y109.441
G0 X101.943 Y109.441
G1 F1200 E109.2704
G0 F9000 X101.721 Y109.441
;TIME_ELAPSED:187.509526
;LAYER:14
;TYPE:WALL-INNER
;MESH:bodyadjustr.stl
G1 F1396.3 X101.726 Y109.72 E109.28164
G1 F1369.4 X101.731 Y109.999 E109.2931
G1 X101.726 Y110.278 E109.30457
G1 F1399 X101.721 Y110.558 E109.31583
G1 F1412.9 X102.192 Y110.558 E109.33458
G1 F1399 X102.225 Y110.278 E109.34591
G1 F1369.4 X102.259 Y109.998 E109.3575
G1 X102.227 Y109.72 E109.36899
G1 F1396.3 X102.195 Y109.441 E109.38031
G1 F1410.1 X101.721 Y109.441 E109.39922
G0 F9000 X101.243 Y108.978
;TYPE:WALL-OUTER
G1 F1095.5 X101.243 Y111.036 E109.47237
G1 X102.545 Y111.031 E109.51865
G1 X102.642 Y110.793 E109.52779
G1 X102.751 Y109.998 E109.55631
G1 X102.649 Y109.236 E109.58364
G1 X102.547 Y108.967 E109.59387
G1 X101.272 Y108.963 E109.63919
G1 X101.243 Y108.978 E109.64035
G0 F9000 X101.243 Y109.178
G1 F2400 E107.64035
G0 F9000 X101.913 Y109.633
G0 X102.53 Y110
G0 X103.93 Y110
G0 X111.453 Y110
;TYPE:WALL-INNER
G1 F1200 E109.64035
G1 F1196.8 X111.722 Y110.074 E109.65346
G1 F1306.6 X111.952 Y110.177 E109.66431
G1 F1331 X112.183 Y110.281 E109.67502
G1 F1356.4 X112.414 Y110.385 E109.68553
G1 F1382.7 X112.645 Y110.489 E109.69583
G1 F1410.1 X112.876 Y110.593 E109.70594
G1 F1424.2 X117.782 Y110.594 E109.89971
G1 X117.782 Y109.406 E109.94663
G1 X112.878 Y109.406 E110.14032
G1 F1410.1 X112.648 Y109.509 E110.15037
G1 F1382.7 X112.417 Y109.613 E110.16068
G1 F1356.4 X112.186 Y109.717 E110.17118
G1 F1331 X111.955 Y109.821 E110.18189
G1 F1306.6 X111.724 Y109.925 E110.1928
G1 F1196.8 X111.453 Y110 E110.20601
G0 F9000 X104.38 Y109.626
G0 X104.185 Y109.43
G1 F1424.2 X104.185 Y110.57 E110.25104
G1 X111.606 Y110.57 E110.54414
G1 X112.77 Y111.094 E110.59456
G1 X118.282 Y111.094 E110.81226
G1 X118.282 Y108.906 E110.89868
G1 X112.771 Y108.906 E111.11635
G1 X111.606 Y109.43 E111.1668
G1 X104.185 Y109.43 E111.4599
G0 F9000 X103.71 Y108.971
;TYPE:WALL-OUTER
G1 F1095.5 X103.71 Y111.045 E111.53363
G1 X111.504 Y111.045 E111.81068
G1 X112.669 Y111.569 E111.85609
G1 X118.757 Y111.569 E112.07249
G1 X118.757 Y108.43 E112.18408
G1 X112.67 Y108.431 E112.40045
G1 X111.504 Y108.955 E112.44589
G1 X103.739 Y108.956 E112.72191
G1 X103.71 Y108.971 E112.72307
G0 F9000 X103.71 Y109.171
G0 X104.38 Y109.626
G0 X104.755 Y110
;TYPE:WALL-INNER
G1 F1112.7 X111.453 Y110 E113.06169
G0 F9000 X112.224 Y110
;TYPE:SKIN
G1 F986 X112.938 Y110.321 E113.07901
G1 X117.509 Y110.321 E113.18011
G1 X117.509 Y109.679 E113.19431
G1 X112.935 Y109.679 E113.29547
G1 X112.224 Y110 E113.31273
G0 F9000 X112.654 Y110.04
G1 F986 X117.369 Y110.04 E113.41701
G0 F9000 X117.657 Y110.04
G0 X117.56 Y110.372
G0 X109.944 Y110.345
G0 X109.944 Y110.948
G0 X109.699 Y110.893
;TYPE:SKIN
G1 F657.3 X109.599 Y110.849 E113.41711
G1 X109.599 Y110.897 E113.41715
G1 X109.499 Y110.897 E113.41723
G1 X109.499 Y110.804 E113.41731
G1 X109.399 Y110.759 E113.4174
G1 X109.399 Y110.897 E113.41751
G1 X109.299 Y110.897 E113.41759
G1 X109.299 Y110.715 E113.41775
G1 X109.199 Y110.682 E113.41783
G1 X109.199 Y110.897 E113.41801
G1 X109.099 Y110.897 E113.4181
G1 X109.099 Y110.682 E113.41827
G1 X108.999 Y110.682 E113.41836
G1 X108.999 Y110.897 E113.41854
G1 X108.899 Y110.897 E113.41862
G1 X108.899 Y110.682 E113.4188
G1 X108.799 Y110.682 E113.41888
G1 X108.799 Y110.897 E113.41906
G1 X108.699 Y110.897 E113.41914
G1 X108.699 Y110.682 E113.41932
G1 X108.599 Y110.682 E113.41941
G1 X108.599 Y110.897 E113.41958
G1 X108.499 Y110.897 E113.41967
G1 X108.499 Y110.682 E113.41985
G1 X108.399 Y110.682 E113.41993
G1 X108.399 Y110.897 E113.42011
G1 X108.299 Y110.897 E113.42019
G1 X108.299 Y110.682 E113.42037
G1 X108.199 Y110.682 E113.42045
G1 X108.199 Y110.897 E113.42063
G1 X108.099 Y110.897 E113.42072
G1 X108.099 Y110.682 E113.42089
G1 X107.999 Y110.682 E113.42098
G1 X107.999 Y110.897 E113.42116
G1 X107.899 Y110.897 E113.42124
G1 X107.899 Y110.682 E113.42142
G1 X107.799 Y110.682 E113.4215
G1 X107.799 Y110.897 E113.42168
G1 X107.699 Y110.897 E113.42176
G1 X107.699 Y110.682 E113.42194
G1 X107.599 Y110.682 E113.42202
G1 X107.599 Y110.897 E113.4222
G1 X107.499 Y110.897 E113.42229
G1 X107.499 Y110.682 E113.42247
G1 X107.399 Y110.682 E113.42255
G1 X107.399 Y110.897 E113.42273
G1 X107.299 Y110.897 E113.42281
G1 X107.299 Y110.682 E113.42299
G1 X107.199 Y110.682 E113.42307
G1 X107.199 Y110.897 E113.42325
G1 X107.099 Y110.897 E113.42333
G1 X107.099 Y110.682 E113.42351
G1 X106.999 Y110.682 E113.4236
G1 X106.999 Y110.897 E113.42377
G1 X106.899 Y110.897 E113.42386
G1 X106.899 Y110.682 E113.42404
G1 X106.799 Y110.682 E113.42412
G1 X106.799 Y110.897 E113.4243
G1 X106.699 Y110.897 E113.42438
G1 X106.699 Y110.682 E113.42456
G1 X106.599 Y110.682 E113.42464
G1 X106.599 Y110.897 E113.42482
G1 X106.499 Y110.897 E113.42491
G1 X106.499 Y110.682 E113.42508
G1 X106.399 Y110.682 E113.42517
G1 X106.399 Y110.897 E113.42535
G1 X106.299 Y110.897 E113.42543
G1 X106.299 Y110.682 E113.42561
G1 X106.199 Y110.682 E113.42569
G1 X106.199 Y110.897 E113.42587
G1 X106.099 Y110.897 E113.42595
G1 X106.099 Y110.682 E113.42613
G1 X105.999 Y110.682 E113.42622
G1 X105.999 Y110.897 E113.42639
G1 X105.899 Y110.897 E113.42648
G1 X105.899 Y110.682 E113.42666
G1 X105.799 Y110.682 E113.42674
G1 X105.799 Y110.897 E113.42692
G1 X105.699 Y110.897 E113.427
G1 X105.699 Y110.682 E113.42718
G1 X105.599 Y110.682 E113.42726
G1 X105.599 Y110.897 E113.42744
G1 X105.499 Y110.897 E113.42753
G1 X105.499 Y110.682 E113.4277
G1 X105.399 Y110.682 E113.42779
G1 X105.399 Y110.897 E113.42797
G1 X105.299 Y110.897 E113.42805
G1 X105.299 Y110.682 E113.42823
G1 X105.199 Y110.682 E113.42831
G1 X105.199 Y110.897 E113.42849
G1 X105.099 Y110.897 E113.42857
G1 X105.099 Y110.682 E113.42875
G1 X104.999 Y110.682 E113.42883
G1 X104.999 Y110.897 E113.42901
G1 X104.899 Y110.897 E113.4291
G1 X104.899 Y110.682 E113.42928
G1 X104.799 Y110.682 E113.42936
G1 X104.799 Y110.897 E113.42954
G1 X104.699 Y110.897 E113.42962
G1 X104.699 Y110.682 E113.4298
G1 X104.599 Y110.682 E113.42988
G1 X104.599 Y110.897 E113.43006
G1 X104.499 Y110.897 E113.43014
G1 X104.499 Y110.682 E113.43032
G1 X104.399 Y110.682 E113.43041
G1 X104.399 Y110.897 E113.43058
G1 X104.299 Y110.897 E113.43067
G1 X104.299 Y110.682 E113.43085
G1 X104.199 Y110.682 E113.43093
G1 X104.199 Y110.897 E113.43111
G1 X104.099 Y110.897 E113.43119
G1 X104.099 Y110.682 E113.43137
G1 X103.999 Y110.682 E113.43145
G1 X103.999 Y110.897 E113.43163
G1 X103.899 Y110.897 E113.43172
G1 X103.899 Y110.682 E113.43189
G0 F9000 X104.38 Y110.375
G0 X103.93 Y110.361
G0 X102.508 Y110.171
G0 X102.023 Y110.361
G0 X102.499 Y110.71
G1 F657.3 X102.499 Y110.652 E113.43194
G1 X102.399 Y110.652 E113.43203
G1 X102.399 Y110.888 E113.43222
G1 X102.299 Y110.888 E113.43231
G1 X102.299 Y110.652 E113.4325
G1 X102.199 Y110.652 E113.43258
G1 X102.199 Y110.888 E113.43278
G1 X102.099 Y110.888 E113.43286
G1 X102.099 Y110.652 E113.43306
G1 X101.999 Y110.652 E113.43314
G1 X101.999 Y110.888 E113.43334
G1 X101.899 Y110.888 E113.43342
G1 X101.899 Y110.652 E113.43362
G1 X101.799 Y110.652 E113.4337
G1 X101.799 Y110.888 E113.4339
G1 X101.699 Y110.888 E113.43398
G1 X101.699 Y110.652 E113.43418
G1 X101.599 Y110.652 E113.43426
G1 X101.599 Y110.888 E113.43446
G1 X101.499 Y110.888 E113.43454
G1 X101.499 Y110.652 E113.43474
G1 X101.399 Y110.652 E113.43482
G1 X101.399 Y110.888 E113.43502
G0 F9000 X101.913 Y110.366
G0 X101.913 Y109.633
G0 X101.399 Y109.346
G1 F657.3 X101.399 Y109.109 E113.43521
G1 X101.499 Y109.109 E113.4353
G1 X101.499 Y109.346 E113.43549
G1 X101.599 Y109.346 E113.43558
G1 X101.599 Y109.109 E113.43577
G1 X101.699 Y109.109 E113.43586
G1 X101.699 Y109.346 E113.43605
G1 X101.799 Y109.346 E113.43614
G1 X101.799 Y109.109 E113.43633
G1 X101.899 Y109.109 E113.43642
G1 X101.899 Y109.346 E113.43661
G1 X101.999 Y109.346 E113.4367
G1 X101.999 Y109.109 E113.43689
G1 X102.099 Y109.109 E113.43698
G1 X102.099 Y109.346 E113.43717
G1 X102.199 Y109.346 E113.43726
G1 X102.199 Y109.109 E113.43745
G1 X102.299 Y109.109 E113.43754
G1 X102.299 Y109.346 E113.43774
G1 X102.399 Y109.346 E113.43782
G1 X102.399 Y109.109 E113.43802
G1 X102.448 Y109.109 E113.43806
G1 X102.499 Y109.346 E113.43826
G0 F9000 X102.022 Y109.638
G0 X102.513 Y109.875
G0 X103.93 Y109.875
G0 X104.38 Y109.626
G0 X103.899 Y109.101
G1 F657.3 X103.899 Y109.317 E113.43844
G1 X103.999 Y109.317 E113.43852
G1 X103.999 Y109.101 E113.4387
G1 X104.099 Y109.101 E113.43878
G1 X104.099 Y109.317 E113.43896
G1 X104.199 Y109.317 E113.43905
G1 X104.199 Y109.101 E113.43923
G1 X104.299 Y109.101 E113.43931
G1 X104.299 Y109.317 E113.43949
G1 X104.399 Y109.317 E113.43957
G1 X104.399 Y109.101 E113.43975
G1 X104.499 Y109.101 E113.43983
G1 X104.499 Y109.317 E113.44001
G1 X104.599 Y109.317 E113.4401
G1 X104.599 Y109.101 E113.44028
G1 X104.699 Y109.101 E113.44036
G1 X104.699 Y109.317 E113.44054
G1 X104.799 Y109.317 E113.44062
G1 X104.799 Y109.101 E113.4408
G1 X104.899 Y109.101 E113.44089
G1 X104.899 Y109.317 E113.44106
G1 X104.999 Y109.317 E113.44115
G1 X104.999 Y109.101 E113.44133
G1 X105.099 Y109.101 E113.44141
G1 X105.099 Y109.317 E113.44159
G1 X105.199 Y109.317 E113.44167
G1 X105.199 Y109.101 E113.44185
G1 X105.299 Y109.101 E113.44194
G1 X105.299 Y109.317 E113.44212
G1 X105.399 Y109.317 E113.4422
G1 X105.399 Y109.101 E113.44238
G1 X105.499 Y109.101 E113.44246
G1 X105.499 Y109.317 E113.44264
G1 X105.599 Y109.317 E113.44272
G1 X105.599 Y109.101 E113.4429
G1 X105.699 Y109.101 E113.44299
G1 X105.699 Y109.317 E113.44317
G1 X105.799 Y109.317 E113.44325
G1 X105.799 Y109.101 E113.44343
G1 X105.899 Y109.101 E113.44351
G1 X105.899 Y109.317 E113.44369
G1 X105.999 Y109.317 E113.44378
G1 X105.999 Y109.101 E113.44396
G1 X106.099 Y109.101 E113.44404
G1 X106.099 Y109.317 E113.44422
G1 X106.199 Y109.317 E113.4443
G1 X106.199 Y109.101 E113.44448
G1 X106.299 Y109.101 E113.44456
G1 X106.299 Y109.317 E113.44474
G1 X106.399 Y109.317 E113.44483
G1 X106.399 Y109.101 E113.44501
G1 X106.499 Y109.101 E113.44509
G1 X106.499 Y109.317 E113.44527
G1 X106.599 Y109.317 E113.44535
G1 X106.599 Y109.101 E113.44553
G1 X106.699 Y109.101 E113.44561
G1 X106.699 Y109.317 E113.44579
G1 X106.799 Y109.317 E113.44588
G1 X106.799 Y109.101 E113.44606
G1 X106.899 Y109.101 E113.44614
G1 X106.899 Y109.317 E113.44632
G1 X106.999 Y109.317 E113.4464
G1 X106.999 Y109.101 E113.44658
G1 X107.099 Y109.101 E113.44667
G1 X107.099 Y109.317 E113.44685
G1 X107.199 Y109.317 E113.44693
G1 X107.199 Y109.101 E113.44711
G1 X107.299 Y109.101 E113.44719
G1 X107.299 Y109.317 E113.44737
G1 X107.399 Y109.317 E113.44745
G1 X107.399 Y109.101 E113.44763
G1 X107.499 Y109.101 E113.44772
G1 X107.499 Y109.317 E113.4479
G1 X107.599 Y109.317 E113.44798
G1 X107.599 Y109.101 E113.44816
G1 X107.699 Y109.101 E113.44824
G1 X107.699 Y109.317 E113.44842
G1 X107.799 Y109.317 E113.44851
G1 X107.799 Y109.101 E113.44868
G1 X107.899 Y109.101 E113.44877
G1 X107.899 Y109.317 E113.44895
G1 X107.999 Y109.317 E113.44903
G1 X107.999 Y109.101 E113.44921
G1 X108.099 Y109.101 E113.44929
G1 X108.099 Y109.317 E113.44947
G1 X108.199 Y109.317 E113.44956
G1 X108.199 Y109.101 E113.44974
G1 X108.299 Y109.101 E113.44982
G1 X108.299 Y109.317 E113.45
G1 X108.399 Y109.317 E113.45008
G1 X108.399 Y109.101 E113.45026
G1 X108.499 Y109.101 E113.45034
G1 X108.499 Y109.317 E113.45052
G1 X108.599 Y109.317 E113.45061
G1 X108.599 Y109.101 E113.45079
G1 X108.699 Y109.101 E113.45087
G1 X108.699 Y109.317 E113.45105
G1 X108.799 Y109.317 E113.45113
G1 X108.799 Y109.101 E113.45131
G1 X108.899 Y109.101 E113.4514
G1 X108.899 Y109.317 E113.45157
G1 X108.999 Y109.317 E113.45166
G1 X108.999 Y109.101 E113.45184
G1 X109.099 Y109.101 E113.45192
G1 X109.099 Y109.317 E113.4521
G1 X109.199 Y109.317 E113.45218
G1 X109.199 Y109.101 E113.45236
G1 X109.299 Y109.101 E113.45245
G1 X109.299 Y109.284 E113.4526
G1 X109.399 Y109.239 E113.45269
G1 X109.399 Y109.101 E113.4528
G1 X109.499 Y109.101 E113.45289
G1 X109.499 Y109.195 E113.45297
G1 X109.599 Y109.15 E113.45306
G1 X109.599 Y109.101 E113.4531
G1 X109.699 Y109.101 E113.45318
G1 F2400 E111.45318
;MESH:NONMESH
G0 F600 X109.699 Y109.101 Z3.28
G0 F9000 X109.699 Y109.656
G0 X103.93 Y110
G0 X102.53 Y110
G0 X101.943 Y110
G1 F1200 E113.45318
G0 F9000 X101.312 Y110
;TIME_ELAPSED:199.769675
;LAYER:15
;TYPE:WALL-OUTER
;MESH:bodyadjustr.stl
G1 F800.7 X102.474 Y110 E113.50477
G0 F9000 X103.809 Y110
G1 F723.5 X109.306 Y110 E113.77485
G0 F9000 X109.753 Y110
G0 X110.733 Y110
G0 X110.327 Y110
;TYPE:WALL-INNER
G1 F1300 X111.678 Y110.604 E113.8333
G1 X118.282 Y110.604 E114.09414
G1 X118.282 Y109.396 E114.14185
G1 X111.678 Y109.396 E114.40268
G1 X110.327 Y110 E114.46113
G0 F9000 X110.733 Y110
G0 X109.753 Y110
G0 X109.306 Y110
;TYPE:WALL-OUTER
G1 F734.1 X109.532 Y110.107 E114.47324
G1 F755 X109.759 Y110.215 E114.48508
G1 F777.2 X109.986 Y110.323 E114.49657
G1 F802.1 X110.212 Y110.431 E114.50767
G1 F827.2 X110.439 Y110.538 E114.51846
G1 F853.9 X110.666 Y110.646 E114.52892
G1 F882.4 X110.893 Y110.754 E114.53905
G1 F912.8 X111.119 Y110.862 E114.5488
G1 F947.4 X111.346 Y110.969 E114.55822
G1 F982.5 X111.573 Y111.077 E114.56732
G1 F1000 X118.757 Y111.079 E114.82268
G1 X118.757 Y108.92 E114.89943
G1 X111.576 Y108.921 E115.15469
G1 F982.5 X111.35 Y109.028 E115.16374
G1 F947.4 X111.123 Y109.136 E115.17317
G1 F912.8 X110.896 Y109.244 E115.18296
G1 F882.4 X110.67 Y109.352 E115.19305
G1 F853.9 X110.443 Y109.459 E115.2035
G1 F827.2 X110.216 Y109.567 E115.2143
G1 F802.1 X109.989 Y109.675 E115.22544
G1 F777.2 X109.763 Y109.783 E115.23689
G1 F755 X109.536 Y109.89 E115.24871
G1 F734.1 X109.309 Y109.998 E115.26088
G1 F723.5 X109.306 Y110 E115.26106
G0 F9000 X109.486 Y110.085
G0 X109.753 Y110
G0 X111.806 Y110
;TYPE:WALL-INNER
G1 F918.1 X117.678 Y110 E115.58946
G0 F9000 X117.657 Y109.979
G0 X111.725 Y109.618
G0 X111.604 Y109.018
G0 X111.09 Y109.3
;TYPE:SKIN
G1 F600 X118.61 Y109.3 E115.59572
G1 X118.61 Y109.2 E115.5958
G1 X111.315 Y109.2 E115.60186
G1 X111.54 Y109.1 E115.60207
G1 X118.61 Y109.1 E115.60795
G0 F9000 X118.087 Y109.59
G0 X118.087 Y110.409
G0 X118.61 Y110.7
G1 F600 X111.089 Y110.7 E115.6142
G1 X111.313 Y110.8 E115.61441
G1 X118.61 Y110.8 E115.62047
G1 X118.61 Y110.9 E115.62056
G1 X111.537 Y110.9 E115.62644
;MESH:NONMESH
G0 X111.537 Y110.9 Z3.48
G0 F9000 X111.725 Y110.382
G0 X109.753 Y110
G0 X109.4 Y110
;TIME_ELAPSED:208.379546
;LAYER:16
;TYPE:WALL-OUTER
;MESH:bodyadjustr.stl
G1 F420.6 X118.646 Y110 E116.09533
;TIME_ELAPSED:209.705552
G1 F2400 E114.09533
M140 S0
M205 X10 Y10
M107
G91 ;Relative positioning
G1 E-2 F2700 ;Retract a bit
G1 E-2 Z0.2 F2400 ;Retract and raise Z
G1 X5 Y5 F3000 ;Wipe out
G1 Z10 ;Raise Z more
G90 ;Absolute positioning

G28 X0 Y0 ;Present print
M106 S0 ;Turn-off fan
M104 S0 ;Turn-off hotend
M140 S0 ;Turn-off bed

;*** Message and End Tones
M117 Print Completed
M300 S440 P200 ; Make Print Completed Tones
M300 S660 P250
M300 S880 P300
;*** End Message and End Tones

M84 X Y E ;Disable all steppers but Z
M82 ;absolute extrusion mode
M104 S0
;End of Gcode
;SETTING_3 {"global_quality": "[general]\\nversion = 4\\nname = FFV5.1_EF(.20)\\
;SETTING_3 ndefinition = creality_ender5\\n\\n[metadata]\\ntype = quality_change
;SETTING_3 s\\nquality_type = standard\\nsetting_version = 20\\n\\n[values]\\nac
;SETTING_3 celeration_enabled = True\\nadhesion_type = skirt\\njerk_enabled = Tr
;SETTING_3 ue\\nlayer_height = 0.2\\nlayer_height_0 = 0.28\\nmaterial_bed_temper
;SETTING_3 ature = 40\\nmaterial_bed_temperature_layer_0 = 50\\n\\n", "extruder_
;SETTING_3 quality": ["[general]\\nversion = 4\\nname = FFV5.1_EF(.20)\\ndefinit
;SETTING_3 ion = creality_ender5\\n\\n[metadata]\\ntype = quality_changes\\nqual
;SETTING_3 ity_type = standard\\nintent_category = default\\nposition = 0\\nsett
;SETTING_3 ing_version = 20\\n\\n[values]\\nacceleration_print = 500.0\\nacceler
;SETTING_3 ation_roofing = 500.0\\nacceleration_topbottom = 500.0\\nacceleration
;SETTING_3 _travel = 500.0\\nacceleration_wall = 500.0\\nbottom_layers = 3\\nbri
;SETTING_3 m_line_count = 10\\ncoasting_enable = False\\nfill_outline_gaps = Tru
;SETTING_3 e\\ninfill_line_distance = =0 if infill_sparse_density == 0 else (inf
;SETTING_3 ill_line_width * 100) / infill_sparse_density * (2 if infill_pattern 
;SETTING_3 == 'grid' else (3 if infill_pattern == 'triangles' or infill_pattern 
;SETTING_3 == 'trihexagon' or infill_pattern == 'cubic' or infill_pattern == 'cu
;SETTING_3 bicsubdiv' else (2 if infill_pattern == 'tetrahedral' or infill_patte
;SETTING_3 rn == 'quarter_cubic' else (1 if infill_pattern == 'cross' or infill_
;SETTING_3 pattern == 'cross_3d' else 1))))\\ninfill_line_width = 0.57\\ninfill_
;SETTING_3 overlap = 0\\ninfill_pattern = ='zigzag' if infill_sparse_density > 8
;SETTING_3 9 else 'lines' if infill_sparse_density > 31 else 'cubic'\\ninfill_sp
;SETTING_3 arse_density = 20\\ninfill_sparse_thickness = 0.3\\ninitial_layer_lin
;SETTING_3 e_width_factor = 100.0\\ninset_direction = inside_out\\nironing_enabl
;SETTING_3 ed = True\\njerk_layer_0 = 8\\njerk_print = 20\\njerk_travel_layer_0 
;SETTING_3 = 5\\nline_width = 0.45\\nmaterial_flow = 95\\nmaterial_flow_layer_0 
;SETTING_3 = 95\\nmaterial_print_temperature = 210\\nretraction_amount = 2\\nret
;SETTING_3 raction_extrusion_window = 6\\nretraction_prime_speed = 20\\nretracti
;SETTING_3 on_retract_speed = 40\\nroofing_layer_count = 1\\nskin_angles = [90,0
;SETTING_3  ]\\nskin_line_width = 0.28\\nskin_monotonic = True\\nskin_overlap = 
;SETTING_3 30.0\\nskirt_brim_speed = 25.0\\nskirt_line_count = 1\\nspeed_layer_0
;SETTING_3  = 25\\nspeed_print = 60.0\\nspeed_roofing = 50\\nspeed_topbottom = 4
;SETTING_3 5\\nspeed_travel_layer_0 = 125.0\\nspeed_wall_0 = 50\\nspeed_wall_x =
;SETTING_3  65\\nspeed_z_hop = 10\\ntop_bottom_pattern = lines\\ntop_bottom_thic
;SETTING_3 kness = =layer_height_0+layer_height*3\\ntop_layers = 3\\nwall_0_mate
;SETTING_3 rial_flow = 95\\nwall_0_wipe_dist = 0.2\\nwall_line_count = 3\\nwall_
;SETTING_3 line_width_x = 0.5\\nwall_thickness = =line_width*2\\nxy_offset = 0.2
;SETTING_3 \\nxy_offset_layer_0 = -0.2\\nz_seam_corner = z_seam_corner_weighted\
;SETTING_3 \nz_seam_type = sharpest_corner\\n\\n"]}
