;FLAVOR:Marlin
;TIME:116
;Filament used: 0.0573065m
;Layer height: 0.2
;MINX:96.208
;MINY:88.563
;MINZ:0.28
;MAXX:123.833
;MAXY:131.437
;MAXZ:0.88
;Generated with Cura_SteamEngine main
M82 ;absolute extrusion mode
M201 X500.00 Y500.00 Z100.00 E5000.00 ;Setup machine max acceleration
M203 X500.00 Y500.00 Z10.00 E50.00 ;Setup machine max feedrate
M204 P500.00 R1000.00 T500.00 ;Setup Print/Retract/Travel acceleration
M205 X8.00 Y8.00 Z0.40 E5.00 ;Setup Jerk
M220 S100 ;Reset Feedrate
M221 S100 ;Reset Flowrate

;*** Start Dual Nozzle/Bed Preheating ***
M140 S50 ; start preheating the bed
M104 S210 ?T0 ; start preheating hotend
M190 S50 ; heat to Cura Bed setting and WAIT
M109 S210 ?T0 ; heat to Cura Hotend and WAIT
;*** End Preheating ***


;*** Single Print Start Tone
M300 S1000 P500 ; chirp to indicate starting to print
;*** End Single Start Tone

G28 ;Home

G92 E0 ;Reset Extruder
G1 Z2.0 F3000 ;Move Z Axis up
G1 X10.1 Y20 Z0.28 F5000.0 ;Move to start position
G1 X10.1 Y200.0 Z0.28 F1500.0 E15 ;Draw the first line
G1 X10.4 Y200.0 Z0.28 F5000.0 ;Move to side a little
G1 X10.4 Y20 Z0.28 F1500.0 E30 ;Draw the second line
G92 E0 ;Reset Extruder
G1 Z2.0 F3000 ;Move Z Axis up
G92 E0
G92 E0
G1 F2400 E-2
;LAYER_COUNT:4
;LAYER:0
M107
M204 S500
M205 X5 Y5
G0 F7500 X99.953 Y91.892 Z0.28
G0 X96.739 Y100.783
M205 X8 Y8
;TYPE:SKIRT
G1 F1200 E0
G1 F1500 X96.757 Y99.538 E0.05887
G1 X96.811 Y98.596 E0.10347
G1 X96.944 Y97.662 E0.14808
G1 X97.155 Y96.743 E0.19266
G1 X97.444 Y95.845 E0.23725
G1 X97.808 Y94.975 E0.28184
G1 X98.244 Y94.139 E0.32642
G1 X98.749 Y93.343 E0.37098
G1 X99.32 Y92.592 E0.41559
G1 X99.953 Y91.892 E0.4602
G1 X100.643 Y91.249 E0.50479
G1 X101.384 Y90.666 E0.54937
G1 X102.173 Y90.148 E0.59399
G1 X103.002 Y89.699 E0.63856
G1 X103.866 Y89.322 E0.68313
G1 X104.76 Y89.019 E0.72776
G1 X105.675 Y88.793 E0.77232
G1 X106.607 Y88.645 E0.81693
G1 X107.568 Y88.576 E0.86248
G1 X108.201 Y88.563 E0.89241
G1 X112.16 Y88.564 E1.07959
G1 X112.858 Y88.574 E1.11259
G1 X113.8 Y88.628 E1.1572
G1 X114.734 Y88.761 E1.2018
G1 X115.653 Y88.972 E1.24638
G1 X116.551 Y89.261 E1.29098
G1 X117.421 Y89.625 E1.33556
G1 X118.257 Y90.061 E1.38014
G1 X119.054 Y90.566 E1.42475
G1 X119.804 Y91.138 E1.46934
G1 X120.504 Y91.77 E1.51393
G1 X121.147 Y92.46 E1.55852
G1 X121.73 Y93.201 E1.60309
G1 X122.248 Y93.99 E1.64771
G1 X122.697 Y94.819 E1.69229
G1 X123.074 Y95.683 E1.73685
G1 X123.377 Y96.577 E1.78148
G1 X123.603 Y97.492 E1.82604
G1 X123.751 Y98.424 E1.87065
G1 X123.82 Y99.385 E1.9162
G1 X123.833 Y100.018 E1.94614
G1 X123.833 Y108.286 E2.33702
G1 X123.826 Y110.313 E2.43286
G1 X123.833 Y111.275 E2.47834
G1 X123.832 Y119.714 E2.87731
G1 X123.823 Y120.441 E2.91168
G1 X123.772 Y121.382 E2.95624
G1 X123.64 Y122.316 E3.00083
G1 X123.43 Y123.236 E3.04545
G1 X123.143 Y124.134 E3.09002
G1 X122.781 Y125.005 E3.13461
G1 X122.347 Y125.843 E3.17923
G1 X121.843 Y126.64 E3.22381
G1 X121.273 Y127.392 E3.26842
G1 X120.642 Y128.092 E3.31297
G1 X119.954 Y128.737 E3.35756
G1 X119.213 Y129.321 E3.40216
G1 X118.426 Y129.841 E3.44676
G1 X117.597 Y130.292 E3.49138
G1 X116.734 Y130.671 E3.53594
G1 X115.841 Y130.975 E3.58054
G1 X114.926 Y131.203 E3.62512
G1 X113.994 Y131.352 E3.66974
G1 X113.011 Y131.424 E3.71634
G1 X112.378 Y131.437 E3.74627
G1 X108.435 Y131.436 E3.93268
G1 X107.737 Y131.427 E3.96569
G1 X106.795 Y131.375 E4.01029
G1 X105.861 Y131.243 E4.05488
G1 X104.941 Y131.033 E4.0995
G1 X104.043 Y130.745 E4.14408
G1 X103.172 Y130.383 E4.18868
G1 X102.336 Y129.948 E4.23323
G1 X101.538 Y129.444 E4.27785
G1 X100.787 Y128.874 E4.32243
G1 X100.087 Y128.242 E4.36701
G1 X99.442 Y127.553 E4.41163
G1 X98.858 Y126.813 E4.4562
G1 X98.339 Y126.025 E4.50081
G1 X97.889 Y125.196 E4.5454
G1 X97.51 Y124.332 E4.59001
G1 X97.206 Y123.44 E4.63456
G1 X96.979 Y122.524 E4.67918
G1 X96.83 Y121.593 E4.72375
G1 X96.757 Y120.534 E4.77394
G1 X96.689 Y117.249 E4.92928
G1 X96.566 Y114.771 E5.04657
G1 X96.37 Y112.26 E5.16565
G1 X96.249 Y110.947 E5.22799
G1 X96.208 Y110.005 E5.27256
G1 X96.246 Y109.081 E5.31628
G1 X96.319 Y108.207 E5.35775
G1 X96.442 Y106.945 E5.4177
G1 X96.613 Y104.45 E5.53593
G1 X96.739 Y100.783 E5.7094
M205 X5 Y5
G1 F2400 E3.7094
G0 F7500 X97.108 Y109.967
M205 X8 Y8
G1 F1200 E5.7094
G1 F1500 X97.143 Y109.155 E5.74782
G1 X97.215 Y108.294 E5.78867
G1 X97.339 Y107.022 E5.84909
G1 X97.511 Y104.514 E5.96794
G1 X97.639 Y100.777 E6.14472
G1 X97.657 Y99.551 E6.20269
G1 X97.71 Y98.648 E6.24545
G1 X97.842 Y97.754 E6.28818
G1 X98.053 Y96.874 E6.33096
G1 X98.341 Y96.017 E6.3737
G1 X98.704 Y95.189 E6.41644
G1 X99.138 Y94.396 E6.45918
G1 X99.64 Y93.644 E6.50193
G1 X100.207 Y92.94 E6.54466
G1 X100.834 Y92.288 E6.58743
G1 X101.516 Y91.694 E6.63019
G1 X102.248 Y91.163 E6.67294
G1 X103.024 Y90.699 E6.71569
G1 X103.838 Y90.305 E6.75844
G1 X104.684 Y89.985 E6.8012
G1 X105.554 Y89.74 E6.84393
G1 X106.443 Y89.574 E6.88669
G1 X107.594 Y89.476 E6.9413
G1 X108.201 Y89.463 E6.97001
G1 X112.001 Y89.463 E7.14966
G1 X112.845 Y89.474 E7.18957
G1 X113.748 Y89.527 E7.23233
G1 X114.643 Y89.659 E7.2751
G1 X115.522 Y89.87 E7.31784
G1 X116.379 Y90.158 E7.36058
G1 X117.207 Y90.521 E7.40332
G1 X118.001 Y90.955 E7.4461
G1 X118.752 Y91.457 E7.48881
G1 X119.457 Y92.024 E7.53158
G1 X120.108 Y92.651 E7.57431
G1 X120.702 Y93.333 E7.61707
G1 X121.233 Y94.065 E7.65983
G1 X121.697 Y94.841 E7.70257
G1 X122.091 Y95.655 E7.74533
G1 X122.411 Y96.501 E7.78809
G1 X122.656 Y97.371 E7.83082
G1 X122.822 Y98.26 E7.87357
G1 X122.92 Y99.411 E7.92819
G1 X122.933 Y100.018 E7.95689
G1 X122.933 Y108.283 E8.34764
G1 X122.926 Y110.32 E8.44394
G1 X122.933 Y111.282 E8.48942
G1 X122.932 Y119.703 E8.88754
G1 X122.923 Y120.43 E8.92192
G1 X122.872 Y121.332 E8.96463
G1 X122.741 Y122.227 E9.00739
G1 X122.532 Y123.107 E9.05016
G1 X122.246 Y123.964 E9.09287
G1 X121.885 Y124.794 E9.13566
G1 X121.453 Y125.588 E9.17839
G1 X120.951 Y126.34 E9.22114
G1 X120.386 Y127.046 E9.26389
G1 X119.76 Y127.698 E9.30662
G1 X119.079 Y128.293 E9.34938
G1 X118.348 Y128.826 E9.39215
G1 X117.573 Y129.291 E9.43488
G1 X116.76 Y129.687 E9.47763
G1 X115.915 Y130.009 E9.52038
G1 X115.045 Y130.255 E9.56312
G1 X114.157 Y130.424 E9.60586
G1 X112.986 Y130.524 E9.66142
G1 X112.378 Y130.537 E9.69017
G1 X108.446 Y130.536 E9.87607
G1 X107.748 Y130.527 E9.90907
G1 X106.845 Y130.476 E9.95183
G1 X105.951 Y130.344 E9.99455
G1 X105.071 Y130.135 E10.03732
G1 X104.214 Y129.848 E10.08004
G1 X103.385 Y129.487 E10.12279
G1 X102.591 Y129.054 E10.16555
G1 X101.839 Y128.552 E10.20829
G1 X101.133 Y127.986 E10.25107
G1 X100.481 Y127.36 E10.29381
G1 X99.886 Y126.679 E10.33656
G1 X99.354 Y125.948 E10.3793
G1 X98.889 Y125.173 E10.42203
G1 X98.494 Y124.359 E10.46481
G1 X98.172 Y123.514 E10.50756
G1 X97.927 Y122.644 E10.55029
G1 X97.759 Y121.756 E10.59302
G1 X97.657 Y120.515 E10.65189
G1 X97.589 Y117.22 E10.8077
G1 X97.465 Y114.728 E10.92566
G1 X97.266 Y112.175 E11.04672
G1 X97.208 Y111.605 E11.07381
G1 X97.145 Y110.87 E11.10869
G1 X97.108 Y109.967 E11.15141
M205 X5 Y5
G0 F7500 X96.658 Y109.986
M205 X8 Y8
G1 F1500 X96.694 Y109.118 E11.19249
G1 X96.753 Y108.404 E11.22636
G1 X96.89 Y106.981 E11.29394
G1 X97.061 Y104.497 E11.41166
G1 X97.19 Y100.755 E11.58867
G1 X97.207 Y99.544 E11.64593
G1 X97.26 Y98.622 E11.68959
G1 X97.393 Y97.708 E11.73326
G1 X97.604 Y96.808 E11.77696
G1 X97.893 Y95.93 E11.82066
G1 X98.256 Y95.081 E11.86432
G1 X98.691 Y94.266 E11.90799
G1 X99.195 Y93.492 E11.95166
G1 X99.764 Y92.764 E11.99534
G1 X100.394 Y92.088 E12.03903
G1 X101.08 Y91.469 E12.08271
G1 X101.817 Y90.912 E12.12639
G1 X102.599 Y90.42 E12.17007
G1 X103.421 Y89.998 E12.21375
G1 X104.276 Y89.649 E12.25741
G1 X105.159 Y89.375 E12.30112
G1 X106.061 Y89.178 E12.34477
G1 X106.978 Y89.06 E12.38848
G1 X107.581 Y89.026 E12.41703
G1 X108.201 Y89.013 E12.44635
G1 X112.001 Y89.013 E12.62601
G1 X112.852 Y89.024 E12.66624
G1 X113.774 Y89.077 E12.7099
G1 X114.689 Y89.21 E12.75362
G1 X115.588 Y89.421 E12.79727
G1 X116.466 Y89.71 E12.84097
G1 X117.315 Y90.073 E12.88463
G1 X118.13 Y90.508 E12.9283
G1 X118.905 Y91.012 E12.97201
G1 X119.632 Y91.581 E13.01566
G1 X120.308 Y92.211 E13.05934
G1 X120.927 Y92.897 E13.10303
G1 X121.484 Y93.634 E13.1467
G1 X121.976 Y94.416 E13.19038
G1 X122.398 Y95.238 E13.23406
G1 X122.747 Y96.094 E13.27777
G1 X123.021 Y96.976 E13.32143
G1 X123.218 Y97.879 E13.36513
G1 X123.336 Y98.795 E13.40879
G1 X123.37 Y99.398 E13.43734
G1 X123.383 Y100.018 E13.46666
G1 X123.383 Y108.285 E13.8575
G1 X123.376 Y110.316 E13.95352
G1 X123.383 Y111.278 E13.99901
G1 X123.382 Y119.708 E14.39755
G1 X123.373 Y120.435 E14.43193
G1 X123.322 Y121.358 E14.47563
G1 X123.191 Y122.272 E14.51928
G1 X122.981 Y123.172 E14.56297
G1 X122.695 Y124.05 E14.60663
G1 X122.333 Y124.901 E14.65035
G1 X121.9 Y125.716 E14.69398
G1 X121.397 Y126.492 E14.7377
G1 X120.829 Y127.221 E14.7814
G1 X120.201 Y127.898 E14.82505
G1 X119.516 Y128.518 E14.86873
G1 X118.78 Y129.077 E14.91243
G1 X117.999 Y129.57 E14.95609
G1 X117.178 Y129.993 E14.99975
G1 X116.323 Y130.344 E15.04345
G1 X115.441 Y130.62 E15.08714
G1 X114.539 Y130.818 E15.1308
G1 X113.623 Y130.938 E15.17448
G1 X112.998 Y130.974 E15.20408
G1 X112.378 Y130.987 E15.23339
G1 X108.44 Y130.986 E15.41957
G1 X107.742 Y130.977 E15.45257
G1 X106.82 Y130.925 E15.49623
G1 X105.905 Y130.794 E15.53993
G1 X105.006 Y130.584 E15.58358
G1 X104.128 Y130.297 E15.62725
G1 X103.277 Y129.935 E15.67097
G1 X102.462 Y129.501 E15.71462
G1 X101.687 Y128.998 E15.75831
G1 X100.958 Y128.43 E15.802
G1 X100.281 Y127.801 E15.84569
G1 X99.662 Y127.116 E15.88933
G1 X99.103 Y126.38 E15.93303
G1 X98.611 Y125.598 E15.97671
G1 X98.188 Y124.777 E16.02037
G1 X97.837 Y123.922 E16.06407
G1 X97.562 Y123.04 E16.10775
G1 X97.364 Y122.137 E16.15145
G1 X97.245 Y121.221 E16.19512
G1 X97.207 Y120.525 E16.22807
G1 X97.139 Y117.251 E16.38289
G1 X97.015 Y114.75 E16.50128
G1 X96.815 Y112.181 E16.6231
G1 X96.76 Y111.644 E16.64862
G1 X96.697 Y110.909 E16.6835
G1 X96.658 Y109.986 E16.72717
M205 X5 Y5
G1 F2400 E14.72717
;MESH:fly.stl
G0 F7500 X107.208 Y108.876
G0 X108.315 Y109.059
G0 X109.071 Y100.888
M205 X8 Y8
;TYPE:WALL-INNER
G1 F1200 E16.72717
G1 F1500 X109.072 Y108.693 E17.13717
G1 F1420.5 X109.099 Y108.965 E17.15234
G1 F1223.5 X109.147 Y109.216 E17.16879
G1 F1116.1 X109.089 Y109.477 E17.18767
G1 F1277.7 X108.855 Y109.752 E17.20994
G1 F1500 X108.711 Y110 E17.225
G1 X108.854 Y110.247 E17.23999
G1 F1284.2 X109.085 Y110.525 E17.26217
G1 F1119.4 X109.147 Y110.789 E17.28126
G1 F1219.5 X109.102 Y111.032 E17.29723
G1 F1415.1 X109.072 Y111.295 E17.31197
G1 F1500 X109.071 Y119.112 E17.7226
G1 X111.508 Y119.112 E17.85061
G1 X111.508 Y112.148 E18.21643
G1 X111.195 Y112.054 E18.2336
G1 X110.922 Y111.931 E18.24933
G1 X110.695 Y111.753 E18.26448
G1 X110.3 Y111.357 E18.29386
G1 X110.08 Y111.054 E18.31353
G1 F1415.1 X109.934 Y110.833 E18.32828
G1 F1219.5 X109.801 Y110.65 E18.3429
G1 F1119.4 X109.727 Y110.34 E18.36533
G1 F1284.2 X109.778 Y110.014 E18.38558
G1 F1277.7 X109.739 Y109.642 E18.40865
G1 F1116.1 X109.799 Y109.354 E18.42941
G1 F1223.5 X109.936 Y109.166 E18.4444
G1 F1420.5 X110.085 Y108.936 E18.4596
G1 F1500 X110.31 Y108.628 E18.47963
G1 X110.701 Y108.242 E18.5085
G1 X110.922 Y108.069 E18.52324
G1 X111.196 Y107.946 E18.53902
G1 X111.508 Y107.851 E18.55615
G1 X111.508 Y100.888 E18.92192
G1 X109.071 Y100.888 E19.04993
M205 X5 Y5
G0 F7500 X109.283 Y108.697
G0 X109.472 Y109.291
G0 X110.419 Y110.926
G0 X111.075 Y111.687
G0 X111.173 Y111.524
M205 X8 Y8
G1 F1500 X110.573 Y110.922 E19.09458
G1 X110.369 Y110.514 E19.11854
G1 X110.264 Y110.073 E19.14236
G1 X110.365 Y109.493 E19.17328
G1 X110.58 Y109.065 E19.19844
G1 X111.176 Y108.475 E19.2425
G1 X111.784 Y108.29 E19.27588
G1 X112.008 Y108.26 E19.28775
G1 X112.008 Y100.388 E19.70127
G1 X108.571 Y100.388 E19.88182
G1 X108.566 Y109.142 E20.34167
G1 X108.527 Y109.317 E20.35108
G1 X108.134 Y110 E20.39248
G1 X108.524 Y110.68 E20.43366
G1 X108.566 Y110.861 E20.44342
G1 X108.571 Y119.612 E20.90311
G1 X112.008 Y119.612 E21.08366
G1 X112.008 Y111.74 E21.49717
G1 X111.785 Y111.71 E21.50899
G1 X111.173 Y111.524 E21.54259
M205 X5 Y5
G1 F2400 E19.54259
G0 F7500 X111.075 Y111.687
G0 X110.412 Y110.959
G0 X110.053 Y110.041
G1 F1200 E21.54259
G0 F7500 X110.753 Y110.041
M205 X8 Y8
;TYPE:WALL-OUTER
G1 F1500 X110.813 Y109.657 E21.56097
G1 X110.97 Y109.348 E21.57736
G1 X111.427 Y108.895 E21.60778
G1 X111.953 Y108.735 E21.63377
G1 X112.483 Y108.735 E21.65883
G1 X112.483 Y99.913 E22.07591
G1 X108.096 Y99.913 E22.28331
G1 X108.095 Y109.109 E22.71807
G1 X107.585 Y110 E22.76661
G1 X108.095 Y110.892 E22.81519
G1 X108.096 Y120.087 E23.2499
G1 X112.483 Y120.087 E23.45731
G1 X112.483 Y111.265 E23.87438
G1 X111.953 Y111.265 E23.89944
G1 X111.424 Y111.104 E23.92558
G1 X110.964 Y110.641 E23.95644
G1 X110.815 Y110.341 E23.97228
G1 X110.753 Y110.041 E23.98676
M205 X5 Y5
G0 F7500 X110.783 Y109.844
G0 X110.093 Y109.68
G0 X109.412 Y110.454
G0 X109.37 Y110.318
M205 X8 Y8
;TYPE:SKIN
G1 F1224.5 X109.461 Y109.989 E23.99906
G1 X109.377 Y109.691 E24.01022
G1 X109.113 Y109.915 E24.02269
G1 X109.065 Y109.999 E24.02618
G1 X109.101 Y110.062 E24.02879
G1 X109.118 Y110.09 E24.02998
G1 X109.37 Y110.318 E24.04222
M205 X5 Y5
G0 F7500 X109.488 Y110.793
M205 X8 Y8
G1 F1500 X109.403 Y111.052 E24.05024
G1 X109.346 Y111.3 E24.05773
G1 X109.345 Y118.839 E24.2795
G1 X110.29 Y118.839 E24.3073
G1 X111.235 Y118.839 E24.3351
G1 X111.235 Y112.371 E24.52537
G1 X110.764 Y112.153 E24.54063
G1 X110.512 Y111.955 E24.55006
G1 X110.099 Y111.539 E24.56731
G1 X109.839 Y111.181 E24.58032
G1 X109.668 Y110.976 E24.58817
G1 X109.488 Y110.793 E24.59573
M205 X5 Y5
G0 F7500 X109.523 Y111.16
M205 X8 Y8
G1 F1500 X109.636 Y111.16 E24.59905
M205 X5 Y5
G0 F7500 X109.486 Y111.44
M205 X8 Y8
G1 F1500 X109.857 Y111.44 E24.60996
M205 X5 Y5
G0 F7500 X110.08 Y111.72
M205 X8 Y8
G1 F1500 X109.486 Y111.72 E24.62744
M205 X5 Y5
G0 F7500 X109.486 Y112
M205 X8 Y8
G1 F1500 X110.36 Y112 E24.65315
M205 X5 Y5
G0 F7500 X110.699 Y112.28
M205 X8 Y8
G1 F1500 X109.486 Y112.28 E24.68883
M205 X5 Y5
G0 F7500 X109.486 Y112.56
M205 X8 Y8
G1 F1500 X111.095 Y112.56 E24.73616
M205 X5 Y5
G0 F7500 X111.095 Y112.84
M205 X8 Y8
G1 F1500 X109.486 Y112.84 E24.78349
M205 X5 Y5
G0 F7500 X109.486 Y113.12
M205 X8 Y8
G1 F1500 X111.095 Y113.12 E24.83083
M205 X5 Y5
G0 F7500 X111.095 Y113.4
M205 X8 Y8
G1 F1500 X109.486 Y113.4 E24.87816
M205 X5 Y5
G0 F7500 X109.486 Y113.68
M205 X8 Y8
G1 F1500 X111.095 Y113.68 E24.92549
M205 X5 Y5
G0 F7500 X111.095 Y113.96
M205 X8 Y8
G1 F1500 X109.486 Y113.96 E24.97282
M205 X5 Y5
G0 F7500 X109.486 Y114.24
M205 X8 Y8
G1 F1500 X111.095 Y114.24 E25.02015
M205 X5 Y5
G0 F7500 X111.095 Y114.52
M205 X8 Y8
G1 F1500 X109.486 Y114.52 E25.06748
M205 X5 Y5
G0 F7500 X109.486 Y114.8
M205 X8 Y8
G1 F1500 X111.095 Y114.8 E25.11482
M205 X5 Y5
G0 F7500 X111.095 Y115.08
M205 X8 Y8
G1 F1500 X109.486 Y115.08 E25.16215
M205 X5 Y5
G0 F7500 X109.486 Y115.36
M205 X8 Y8
G1 F1500 X111.095 Y115.36 E25.20948
M205 X5 Y5
G0 F7500 X111.095 Y115.64
M205 X8 Y8
G1 F1500 X109.486 Y115.64 E25.25681
M205 X5 Y5
G0 F7500 X109.486 Y115.92
M205 X8 Y8
G1 F1500 X111.095 Y115.92 E25.30414
M205 X5 Y5
G0 F7500 X111.095 Y116.2
M205 X8 Y8
G1 F1500 X109.486 Y116.2 E25.35148
M205 X5 Y5
G0 F7500 X109.486 Y116.48
M205 X8 Y8
G1 F1500 X111.095 Y116.48 E25.39881
M205 X5 Y5
G0 F7500 X111.095 Y116.76
M205 X8 Y8
G1 F1500 X109.486 Y116.76 E25.44614
M205 X5 Y5
G0 F7500 X109.486 Y117.04
M205 X8 Y8
G1 F1500 X111.095 Y117.04 E25.49347
M205 X5 Y5
G0 F7500 X111.095 Y117.32
M205 X8 Y8
G1 F1500 X109.486 Y117.32 E25.5408
M205 X5 Y5
G0 F7500 X109.486 Y117.6
M205 X8 Y8
G1 F1500 X111.095 Y117.6 E25.58813
M205 X5 Y5
G0 F7500 X111.095 Y117.88
M205 X8 Y8
G1 F1500 X109.486 Y117.88 E25.63547
M205 X5 Y5
G0 F7500 X109.486 Y118.16
M205 X8 Y8
G1 F1500 X111.095 Y118.16 E25.6828
M205 X5 Y5
G0 F7500 X111.095 Y118.44
M205 X8 Y8
G1 F1500 X109.486 Y118.44 E25.73013
M205 X5 Y5
G0 F7500 X109.221 Y118.44
G0 X109.283 Y111.291
G0 X109.567 Y110.006
G0 X109.373 Y109.247
G0 X109.488 Y109.208
M205 X8 Y8
G1 F1500 X109.673 Y109.021 E25.73787
G1 X109.846 Y108.804 E25.74603
G1 X110.11 Y108.444 E25.75916
G1 X110.514 Y108.043 E25.77591
G1 X110.764 Y107.848 E25.78524
G1 X111.235 Y107.63 E25.8005
G1 X111.235 Y101.161 E25.9908
G1 X109.345 Y101.161 E26.0464
G1 X109.345 Y108.692 E26.26794
G1 X109.402 Y108.962 E26.27606
G1 X109.488 Y109.208 E26.28372
M205 X5 Y5
G0 F7500 X109.373 Y109.247
G0 X109.323 Y108.936
G0 X109.221 Y101.36
G0 X109.485 Y101.36
M205 X8 Y8
G1 F1500 X111.095 Y101.36 E26.33108
M205 X5 Y5
G0 F7500 X111.095 Y101.64
M205 X8 Y8
G1 F1500 X109.485 Y101.64 E26.37844
M205 X5 Y5
G0 F7500 X109.485 Y101.92
M205 X8 Y8
G1 F1500 X111.095 Y101.92 E26.42581
M205 X5 Y5
G0 F7500 X111.095 Y102.2
M205 X8 Y8
G1 F1500 X109.485 Y102.2 E26.47317
M205 X5 Y5
G0 F7500 X109.485 Y102.48
M205 X8 Y8
G1 F1500 X111.095 Y102.48 E26.52053
M205 X5 Y5
G0 F7500 X111.095 Y102.76
M205 X8 Y8
G1 F1500 X109.485 Y102.76 E26.56789
M205 X5 Y5
G0 F7500 X109.485 Y103.04
M205 X8 Y8
G1 F1500 X111.095 Y103.04 E26.61525
M205 X5 Y5
G0 F7500 X111.095 Y103.32
M205 X8 Y8
G1 F1500 X109.485 Y103.32 E26.66261
M205 X5 Y5
G0 F7500 X109.485 Y103.6
M205 X8 Y8
G1 F1500 X111.095 Y103.6 E26.70997
M205 X5 Y5
G0 F7500 X111.095 Y103.88
M205 X8 Y8
G1 F1500 X109.485 Y103.88 E26.75733
M205 X5 Y5
G0 F7500 X109.485 Y104.16
M205 X8 Y8
G1 F1500 X111.095 Y104.16 E26.8047
M205 X5 Y5
G0 F7500 X111.095 Y104.44
M205 X8 Y8
G1 F1500 X109.485 Y104.44 E26.85206
M205 X5 Y5
G0 F7500 X109.485 Y104.72
M205 X8 Y8
G1 F1500 X111.095 Y104.72 E26.89942
M205 X5 Y5
G0 F7500 X111.095 Y105
M205 X8 Y8
G1 F1500 X109.485 Y105 E26.94678
M205 X5 Y5
G0 F7500 X109.485 Y105.28
M205 X8 Y8
G1 F1500 X111.095 Y105.28 E26.99414
M205 X5 Y5
G0 F7500 X111.095 Y105.56
M205 X8 Y8
G1 F1500 X109.485 Y105.56 E27.0415
M205 X5 Y5
G0 F7500 X109.485 Y105.84
M205 X8 Y8
G1 F1500 X111.095 Y105.84 E27.08886
M205 X5 Y5
G0 F7500 X111.095 Y106.12
M205 X8 Y8
G1 F1500 X109.485 Y106.12 E27.13622
M205 X5 Y5
G0 F7500 X109.485 Y106.4
M205 X8 Y8
G1 F1500 X111.095 Y106.4 E27.18359
M205 X5 Y5
G0 F7500 X111.095 Y106.68
M205 X8 Y8
G1 F1500 X109.485 Y106.68 E27.23095
M205 X5 Y5
G0 F7500 X109.485 Y106.96
M205 X8 Y8
G1 F1500 X111.095 Y106.96 E27.27831
M205 X5 Y5
G0 F7500 X111.095 Y107.24
M205 X8 Y8
G1 F1500 X109.485 Y107.24 E27.32567
M205 X5 Y5
G0 F7500 X109.485 Y107.52
M205 X8 Y8
G1 F1500 X111.095 Y107.52 E27.37303
M205 X5 Y5
G0 F7500 X110.6 Y107.8
M205 X8 Y8
G1 F1500 X109.485 Y107.8 E27.40583
M205 X5 Y5
G0 F7500 X109.485 Y108.08
M205 X8 Y8
G1 F1500 X110.279 Y108.08 E27.42919
M205 X5 Y5
G0 F7500 X109.998 Y108.36
M205 X8 Y8
G1 F1500 X109.485 Y108.36 E27.44428
M205 X5 Y5
G0 F7500 X109.485 Y108.64
M205 X8 Y8
G1 F1500 X109.792 Y108.64 E27.45331
M104 S210
M205 X5 Y5
G0 F7500 X109.99 Y108.853
;MESH:NONMESH
G0 F600 X109.99 Y108.853 Z0.48
G0 F7500 X110.053 Y110.002
G0 X110.179 Y110.002
;TIME_ELAPSED:37.559574
;LAYER:1
M140 S40
M106 S85
M205 X14 Y14
;TYPE:WALL-INNER
;MESH:fly.stl
G1 F2547.5 X110.203 Y109.717 E27.46461
G1 X110.367 Y109.275 E27.48323
G1 X110.632 Y108.874 E27.50221
G1 X110.908 Y108.598 E27.51763
G1 X111.132 Y108.422 E27.52888
G1 X111.409 Y108.298 E27.54087
G1 X111.698 Y108.21 E27.5528
G1 X111.908 Y108.179 E27.56118
G1 X111.908 Y100.489 E27.86491
G1 X108.672 Y100.489 E27.99272
G1 X108.671 Y109.097 E28.3327
G1 X108.578 Y109.437 E28.34663
G1 X108.249 Y110.001 E28.37242
G1 X108.579 Y110.571 E28.39843
G1 X108.671 Y110.902 E28.412
G1 X108.672 Y119.512 E28.75206
G1 X111.908 Y119.512 E28.87987
G1 X111.908 Y111.821 E29.18364
G1 X111.698 Y111.79 E29.19202
G1 X111.409 Y111.702 E29.20396
G1 X111.132 Y111.578 E29.21594
G1 X110.908 Y111.402 E29.22719
G1 X110.632 Y111.126 E29.24261
G1 X110.367 Y110.725 E29.26159
G1 X110.202 Y110.28 E29.28034
G1 X110.179 Y110.002 E29.29136
M205 X12.5 Y12.5
G0 F8250 X110.692 Y110.162
M205 X14 Y14
G1 F2547.5 X110.692 Y109.839 E29.30411
G1 X110.831 Y109.462 E29.31998
G1 X110.986 Y109.228 E29.33107
G1 X111.381 Y108.83 E29.35322
G1 X111.937 Y108.66 E29.37618
G1 X112.408 Y108.66 E29.39478
G1 X112.408 Y99.989 E29.73726
G1 X108.172 Y99.989 E29.90456
G1 X108.171 Y108.969 E30.25924
G1 X108.123 Y109.222 E30.26941
G1 X107.671 Y109.999 E30.30492
G1 X108.12 Y110.775 E30.34033
G1 X108.172 Y110.973 E30.34841
G1 X108.172 Y120.012 E30.70542
G1 X112.408 Y120.012 E30.87273
G1 X112.408 Y111.34 E31.21524
G1 X111.937 Y111.34 E31.23384
G1 X111.381 Y111.17 E31.2568
G1 X110.986 Y110.772 E31.27895
G1 X110.831 Y110.538 E31.29004
G1 X110.692 Y110.162 E31.30587
M205 X12.5 Y12.5
G0 F8250 X111.143 Y109.999
M205 X14 Y14
;TYPE:WALL-OUTER
G1 F2122.9 X111.287 Y109.597 E31.32105
G1 X111.637 Y109.247 E31.33864
G1 X112.009 Y109.135 E31.35245
G1 X112.883 Y109.135 E31.38352
G1 X112.883 Y99.513 E31.72555
G1 X107.696 Y99.513 E31.90993
G1 X107.693 Y109.009 E32.24749
G1 X107.126 Y109.99 E32.28776
G1 X107.131 Y110.013 E32.2886
G1 X107.697 Y110.998 E32.32898
G1 X107.696 Y120.487 E32.66629
G1 X112.883 Y120.487 E32.85067
G1 X112.883 Y110.865 E33.1927
G1 X112.009 Y110.865 E33.22377
G1 X111.637 Y110.753 E33.23758
G1 X111.285 Y110.401 E33.25527
G1 X111.143 Y109.999 E33.27043
M205 X12.5 Y12.5
G0 F8250 X111.21 Y109.811
G0 X110.514 Y109.645
G0 X110.485 Y111.278
G0 X111.688 Y112.008
G0 X111.686 Y119.29
G0 X108.894 Y119.29
G0 X108.945 Y119.239
M205 X14 Y14
;TYPE:SKIN
G1 F1981.4 X111.635 Y119.239 E33.32992
G1 X111.635 Y112.056 E33.4888
G1 X111.322 Y111.96 E33.49604
G1 X110.988 Y111.809 E33.50415
G1 X110.715 Y111.594 E33.51183
G1 X110.428 Y111.305 E33.52084
G1 X110.108 Y110.814 E33.5338
G1 X109.937 Y110.345 E33.54484
G1 X109.907 Y110.015 E33.55217
G1 X109.931 Y109.681 E33.55958
G1 X110.108 Y109.185 E33.57123
G1 X110.446 Y108.673 E33.5848
G1 X110.729 Y108.393 E33.5936
G1 X110.988 Y108.191 E33.60087
G1 X111.323 Y108.04 E33.60899
G1 X111.635 Y107.944 E33.61621
G1 X111.635 Y100.762 E33.77507
G1 X108.946 Y100.762 E33.83454
G1 X108.945 Y109.114 E34.01927
G1 X108.82 Y109.566 E34.02964
G1 X108.566 Y110.002 E34.0408
G1 X108.835 Y110.474 E34.05282
G1 X108.943 Y110.859 E34.06166
G1 X108.945 Y119.239 E34.24701
M205 X12.5 Y12.5
G0 F8250 X108.822 Y119.239
G0 X111.686 Y119.29
G0 X111.688 Y112.008
G0 X110.78 Y110.798
G0 X110.6 Y110.459
G0 X110.491 Y110
G0 X110.6 Y109.541
G0 X111.516 Y108.109
G0 X111.44 Y107.858
M205 X14 Y14
G1 F1981.4 X111.44 Y100.902 E34.40087
M205 X12.5 Y12.5
G0 F8250 X111.16 Y100.902
M205 X14 Y14
G1 F1981.4 X111.16 Y107.961 E34.557
M205 X12.5 Y12.5
G0 F8250 X110.88 Y108.099
M205 X14 Y14
G1 F1981.4 X110.88 Y100.902 E34.71618
M205 X12.5 Y12.5
G0 F8250 X110.6 Y100.902
M205 X14 Y14
G1 F1981.4 X110.6 Y108.325 E34.88036
M205 X12.5 Y12.5
G0 F8250 X110.32 Y108.605
M205 X14 Y14
G1 F1981.4 X110.32 Y100.902 E35.05074
M205 X12.5 Y12.5
G0 F8250 X110.04 Y100.902
M205 X14 Y14
G1 F1981.4 X110.04 Y109.028 E35.23047
M205 X12.5 Y12.5
G0 F8250 X110.259 Y109.174
G0 X110.6 Y110.459
G0 X111.517 Y111.892
G0 X111.44 Y112.143
M205 X14 Y14
G1 F1981.4 X111.44 Y119.099 E35.38432
M205 X12.5 Y12.5
G0 F8250 X111.16 Y119.099
M205 X14 Y14
G1 F1981.4 X111.16 Y112.041 E35.54043
M205 X12.5 Y12.5
G0 F8250 X110.88 Y111.902
M205 X14 Y14
G1 F1981.4 X110.88 Y119.099 E35.69961
M205 X12.5 Y12.5
G0 F8250 X110.6 Y119.099
M205 X14 Y14
G1 F1981.4 X110.6 Y111.678 E35.86375
M205 X12.5 Y12.5
G0 F8250 X110.32 Y111.396
M205 X14 Y14
G1 F1981.4 X110.32 Y119.099 E36.03412
M205 X12.5 Y12.5
G0 F8250 X110.04 Y119.099
M205 X14 Y14
G1 F1981.4 X110.04 Y110.972 E36.21388
M205 X12.5 Y12.5
G0 F8250 X110.26 Y110.827
G0 X111.688 Y112.008
G0 X111.686 Y119.29
G0 X109.76 Y119.362
G0 X109.76 Y119.099
M205 X14 Y14
G1 F1981.4 X109.76 Y100.902 E36.61636
M205 X12.5 Y12.5
G0 F8250 X109.48 Y100.902
M205 X14 Y14
G1 F1981.4 X109.48 Y119.099 E37.01884
M205 X12.5 Y12.5
G0 F8250 X109.2 Y119.099
M205 X14 Y14
G1 F1981.4 X109.2 Y100.902 E37.42132
M205 X12.5 Y12.5
G0 F8250 X109.2 Y100.639
G0 X108.894 Y100.711
G0 X108.674 Y109.557
G0 X108.92 Y109.672
M205 X14 Y14
G1 F1981.4 X108.92 Y110.333 E37.43594
M205 X12.5 Y12.5
G0 F8250 X108.641 Y110.429
;MESH:NONMESH
G0 F600 X108.641 Y110.429 Z0.68
G0 F8250 X108.894 Y119.29
G0 X111.686 Y119.29
G0 X111.688 Y112.008
G0 X110.179 Y110.002
;TIME_ELAPSED:52.113637
;LAYER:2
M106 S170
M205 X20 Y20
;TYPE:WALL-INNER
;MESH:fly.stl
G1 F2695.4 X110.203 Y109.717 E37.44724
G1 X110.367 Y109.275 E37.46586
G1 X110.632 Y108.874 E37.48484
G1 X110.908 Y108.598 E37.50026
G1 X111.132 Y108.422 E37.51151
G1 X111.409 Y108.298 E37.5235
G1 X111.698 Y108.21 E37.53543
G1 X111.908 Y108.179 E37.54381
G1 X111.908 Y100.489 E37.84754
G1 X108.672 Y100.489 E37.97535
G1 X108.671 Y109.097 E38.31533
G1 X108.578 Y109.437 E38.32926
G1 X108.249 Y110.001 E38.35505
G1 X108.579 Y110.571 E38.38106
G1 X108.671 Y110.902 E38.39463
G1 X108.672 Y119.512 E38.73469
G1 X111.908 Y119.512 E38.8625
G1 X111.908 Y111.821 E39.16627
G1 X111.698 Y111.79 E39.17465
G1 X111.409 Y111.702 E39.18659
G1 X111.132 Y111.578 E39.19857
G1 X110.908 Y111.402 E39.20982
G1 X110.632 Y111.126 E39.22524
G1 X110.367 Y110.725 E39.24422
G1 X110.202 Y110.28 E39.26297
G1 X110.179 Y110.002 E39.27399
G0 F9000 X110.692 Y110.162
G1 F2695.4 X110.692 Y109.839 E39.28674
G1 X110.831 Y109.462 E39.30261
G1 X110.986 Y109.228 E39.3137
G1 X111.381 Y108.83 E39.33585
G1 X111.937 Y108.66 E39.35881
G1 X112.408 Y108.66 E39.37741
G1 X112.408 Y99.989 E39.71989
G1 X108.172 Y99.989 E39.88719
G1 X108.171 Y108.969 E40.24187
G1 X108.123 Y109.222 E40.25204
G1 X107.671 Y109.999 E40.28755
G1 X108.12 Y110.775 E40.32296
G1 X108.172 Y110.973 E40.33104
G1 X108.172 Y120.012 E40.68805
G1 X112.408 Y120.012 E40.85536
G1 X112.408 Y111.34 E41.19787
G1 X111.937 Y111.34 E41.21647
G1 X111.381 Y111.17 E41.23944
G1 X110.986 Y110.772 E41.26158
G1 X110.831 Y110.538 E41.27267
G1 X110.692 Y110.162 E41.2885
G0 F9000 X111.143 Y109.999
;TYPE:WALL-OUTER
G1 F2073.4 X111.287 Y109.597 E41.30368
G1 X111.637 Y109.247 E41.32128
G1 X112.009 Y109.135 E41.33508
G1 X112.883 Y109.135 E41.36615
G1 X112.883 Y99.513 E41.70818
G1 X107.696 Y99.513 E41.89256
G1 X107.693 Y109.009 E42.23012
G1 X107.126 Y109.99 E42.27039
G1 X107.131 Y110.013 E42.27123
G1 X107.697 Y110.998 E42.31161
G1 X107.696 Y120.487 E42.64892
G1 X112.883 Y120.487 E42.8333
G1 X112.883 Y110.865 E43.17533
G1 X112.009 Y110.865 E43.2064
G1 X111.637 Y110.753 E43.22021
G1 X111.285 Y110.401 E43.2379
G1 X111.143 Y109.999 E43.25306
G0 F9000 X111.21 Y109.811
G0 X110.514 Y109.645
G0 X110.485 Y111.278
G0 X111.688 Y112.008
G0 X111.686 Y119.29
G0 X108.894 Y119.29
G0 X108.945 Y119.239
;TYPE:SKIN
G1 F1866.1 X111.635 Y119.239 E43.31255
G1 X111.635 Y112.056 E43.47143
G1 X111.322 Y111.96 E43.47867
G1 X110.988 Y111.809 E43.48678
G1 X110.715 Y111.594 E43.49446
G1 X110.428 Y111.305 E43.50347
G1 X110.108 Y110.814 E43.51643
G1 X109.937 Y110.345 E43.52747
G1 X109.907 Y110.015 E43.5348
G1 X109.931 Y109.681 E43.54221
G1 X110.108 Y109.185 E43.55386
G1 X110.446 Y108.673 E43.56743
G1 X110.729 Y108.393 E43.57623
G1 X110.988 Y108.191 E43.5835
G1 X111.323 Y108.04 E43.59163
G1 X111.635 Y107.944 E43.59885
G1 X111.635 Y100.762 E43.7577
G1 X108.946 Y100.762 E43.81717
G1 X108.945 Y109.114 E44.0019
G1 X108.82 Y109.566 E44.01227
G1 X108.566 Y110.002 E44.02343
G1 X108.835 Y110.474 E44.03545
G1 X108.943 Y110.859 E44.04429
G1 X108.945 Y119.239 E44.22964
G0 F9000 X108.822 Y119.239
G0 X108.498 Y110.001
G0 X108.822 Y101.08
G0 X109.086 Y101.08
G1 F1866.1 X111.495 Y101.08 E44.28293
G0 F9000 X111.495 Y101.36
G1 F1866.1 X109.086 Y101.36 E44.33621
G0 F9000 X109.086 Y101.64
G1 F1866.1 X111.495 Y101.64 E44.38949
G0 F9000 X111.495 Y101.92
G1 F1866.1 X109.086 Y101.92 E44.44277
G0 F9000 X109.086 Y102.2
G1 F1866.1 X111.495 Y102.2 E44.49605
G0 F9000 X111.495 Y102.48
G1 F1866.1 X109.086 Y102.48 E44.54934
G0 F9000 X109.086 Y102.76
G1 F1866.1 X111.495 Y102.76 E44.60262
G0 F9000 X111.495 Y103.04
G1 F1866.1 X109.086 Y103.04 E44.6559
G0 F9000 X109.086 Y103.32
G1 F1866.1 X111.495 Y103.32 E44.70918
G0 F9000 X111.495 Y103.6
G1 F1866.1 X109.086 Y103.6 E44.76247
G0 F9000 X109.086 Y103.88
G1 F1866.1 X111.495 Y103.88 E44.81575
G0 F9000 X111.495 Y104.16
G1 F1866.1 X109.086 Y104.16 E44.86903
G0 F9000 X109.086 Y104.44
G1 F1866.1 X111.495 Y104.44 E44.92231
G0 F9000 X111.495 Y104.72
G1 F1866.1 X109.086 Y104.72 E44.97559
G0 F9000 X109.086 Y105
G1 F1866.1 X111.495 Y105 E45.02888
G0 F9000 X111.495 Y105.28
G1 F1866.1 X109.086 Y105.28 E45.08216
G0 F9000 X109.086 Y105.56
G1 F1866.1 X111.495 Y105.56 E45.13544
G0 F9000 X111.495 Y105.84
G1 F1866.1 X109.086 Y105.84 E45.18872
G0 F9000 X109.086 Y106.12
G1 F1866.1 X111.495 Y106.12 E45.24201
G0 F9000 X111.495 Y106.4
G1 F1866.1 X109.086 Y106.4 E45.29529
G0 F9000 X109.086 Y106.68
G1 F1866.1 X111.495 Y106.68 E45.34857
G0 F9000 X111.495 Y106.96
G1 F1866.1 X109.086 Y106.96 E45.40185
G0 F9000 X109.086 Y107.24
G1 F1866.1 X111.495 Y107.24 E45.45514
G0 F9000 X111.495 Y107.52
G1 F1866.1 X109.086 Y107.52 E45.50842
G0 F9000 X109.086 Y107.8
G1 F1866.1 X111.495 Y107.8 E45.5617
G0 F9000 X110.903 Y108.08
G1 F1866.1 X109.086 Y108.08 E45.60189
G0 F9000 X109.086 Y108.36
G1 F1866.1 X110.564 Y108.36 E45.63458
G0 F9000 X110.296 Y108.64
G1 F1866.1 X109.086 Y108.64 E45.66134
G0 F9000 X109.086 Y108.92
G1 F1866.1 X110.111 Y108.92 E45.68401
G0 F9000 X109.954 Y109.2
G1 F1866.1 X109.072 Y109.2 E45.70352
G0 F9000 X108.994 Y109.48
G1 F1866.1 X109.851 Y109.48 E45.72248
G0 F9000 X109.784 Y109.76
G1 F1866.1 X108.869 Y109.76 E45.74271
G0 F9000 X108.75 Y110.04
G1 F1866.1 X109.769 Y110.04 E45.76525
G0 F9000 X109.796 Y110.32
G1 F1866.1 X108.912 Y110.32 E45.7848
G0 F9000 X109.015 Y110.6
G1 F1866.1 X109.882 Y110.6 E45.80398
G0 F9000 X109.984 Y110.88
G1 F1866.1 X109.081 Y110.88 E45.82395
G0 F9000 X109.081 Y111.16
G1 F1866.1 X110.165 Y111.16 E45.84793
G0 F9000 X110.362 Y111.44
G1 F1866.1 X109.081 Y111.44 E45.87626
G0 F9000 X109.081 Y111.72
G1 F1866.1 X110.651 Y111.72 E45.91099
G0 F9000 X111.072 Y112
G1 F1866.1 X109.081 Y112 E45.95502
G0 F9000 X109.081 Y112.28
G1 F1866.1 X111.495 Y112.28 E46.00842
G0 F9000 X111.495 Y112.56
G1 F1866.1 X109.081 Y112.56 E46.06181
G0 F9000 X109.081 Y112.84
G1 F1866.1 X111.495 Y112.84 E46.1152
G0 F9000 X111.495 Y113.12
G1 F1866.1 X109.082 Y113.12 E46.16857
G0 F9000 X109.082 Y113.4
G1 F1866.1 X111.495 Y113.4 E46.22194
G0 F9000 X111.495 Y113.68
G1 F1866.1 X109.082 Y113.68 E46.27531
G0 F9000 X109.082 Y113.96
G1 F1866.1 X111.495 Y113.96 E46.32869
G0 F9000 X111.495 Y114.24
G1 F1866.1 X109.082 Y114.24 E46.38206
G0 F9000 X109.082 Y114.52
G1 F1866.1 X111.495 Y114.52 E46.43543
G0 F9000 X111.495 Y114.8
G1 F1866.1 X109.082 Y114.8 E46.4888
G0 F9000 X109.083 Y115.08
G1 F1866.1 X111.495 Y115.08 E46.54215
G0 F9000 X111.495 Y115.36
G1 F1866.1 X109.083 Y115.36 E46.59549
G0 F9000 X109.083 Y115.64
G1 F1866.1 X111.495 Y115.64 E46.64884
G0 F9000 X111.495 Y115.92
G1 F1866.1 X109.083 Y115.92 E46.70219
G0 F9000 X109.083 Y116.2
G1 F1866.1 X111.495 Y116.2 E46.75554
G0 F9000 X111.495 Y116.48
G1 F1866.1 X109.083 Y116.48 E46.80889
G0 F9000 X109.083 Y116.76
G1 F1866.1 X111.495 Y116.76 E46.86224
G0 F9000 X111.495 Y117.04
G1 F1866.1 X109.084 Y117.04 E46.91556
G0 F9000 X109.084 Y117.32
G1 F1866.1 X111.495 Y117.32 E46.96889
G0 F9000 X111.495 Y117.6
G1 F1866.1 X109.084 Y117.6 E47.02222
G0 F9000 X109.084 Y117.88
G1 F1866.1 X111.495 Y117.88 E47.07554
G0 F9000 X111.495 Y118.16
G1 F1866.1 X109.084 Y118.16 E47.12887
G0 F9000 X109.084 Y118.44
G1 F1866.1 X111.495 Y118.44 E47.1822
G0 F9000 X111.495 Y118.72
G1 F1866.1 X109.084 Y118.72 E47.23552
G0 F9000 X109.083 Y119
G1 F1866.1 X111.494 Y119 E47.28885
G0 F9000 X111.783 Y119
;MESH:NONMESH
G0 F600 X111.783 Y119 Z0.88
G0 F9000 X111.688 Y112.008
G0 X110.179 Y110.002
;TIME_ELAPSED:67.595547
;LAYER:3
M106 S255
;TYPE:WALL-INNER
;MESH:fly.stl
G1 F3900 X110.203 Y109.717 E47.30015
G1 X110.367 Y109.275 E47.31877
G1 X110.632 Y108.874 E47.33775
G1 X110.908 Y108.598 E47.35317
G1 X111.132 Y108.422 E47.36442
G1 X111.408 Y108.298 E47.37637
G1 X111.695 Y108.212 E47.3882
G1 X111.908 Y108.18 E47.39671
G1 X111.908 Y100.489 E47.70048
G1 X108.672 Y100.489 E47.82829
G1 X108.671 Y109.097 E48.16827
G1 X108.578 Y109.437 E48.18219
G1 X108.249 Y110.001 E48.20798
G1 X108.579 Y110.571 E48.234
G1 X108.671 Y110.902 E48.24756
G1 X108.672 Y119.512 E48.58763
G1 X111.908 Y119.512 E48.71544
G1 X111.908 Y111.82 E49.01925
G1 X111.706 Y111.79 E49.02731
G1 X111.411 Y111.702 E49.03947
G1 X111.131 Y111.577 E49.05158
G1 X110.907 Y111.401 E49.06283
G1 X110.632 Y111.126 E49.07819
G1 X110.367 Y110.725 E49.09718
G1 X110.202 Y110.28 E49.11592
G1 X110.179 Y110.002 E49.12694
G0 F9000 X110.692 Y110.162
G1 F3900 X110.692 Y109.839 E49.1397
G1 X110.831 Y109.462 E49.15557
G1 X110.986 Y109.228 E49.16665
G1 X111.382 Y108.829 E49.18886
G1 X111.939 Y108.66 E49.21185
G1 X112.408 Y108.66 E49.23037
G1 X112.408 Y99.989 E49.57284
G1 X108.172 Y99.989 E49.74015
G1 X108.171 Y108.969 E50.09483
G1 X108.123 Y109.222 E50.105
G1 X107.671 Y109.999 E50.1405
G1 X108.12 Y110.775 E50.17591
G1 X108.172 Y110.973 E50.184
G1 X108.172 Y120.012 E50.54101
G1 X112.408 Y120.012 E50.70831
G1 X112.408 Y111.34 E51.05083
G1 X111.946 Y111.34 E51.06907
G1 X111.383 Y111.172 E51.09228
G1 X110.986 Y110.772 E51.11454
G1 X110.831 Y110.538 E51.12562
G1 X110.692 Y110.162 E51.14146
G0 F9000 X111.143 Y109.999
;TYPE:WALL-OUTER
G1 F3000 X111.287 Y109.597 E51.15663
G1 X111.636 Y109.248 E51.17418
G1 X112.008 Y109.135 E51.188
G1 X112.883 Y109.135 E51.2191
G1 X112.883 Y99.513 E51.56113
G1 X107.696 Y99.513 E51.74551
G1 X107.693 Y109.009 E52.08307
G1 X107.126 Y109.99 E52.12334
G1 X107.131 Y110.013 E52.12418
G1 X107.697 Y110.998 E52.16456
G1 X107.696 Y120.487 E52.50187
G1 X112.883 Y120.487 E52.68625
G1 X112.883 Y110.865 E53.02828
G1 X112.015 Y110.865 E53.05913
G1 X111.635 Y110.751 E53.07324
G1 X111.285 Y110.401 E53.09083
G1 X111.143 Y109.999 E53.10599
G0 F9000 X111.21 Y109.811
G0 X110.513 Y109.645
G0 X110.485 Y111.278
G0 X111.687 Y112.007
G0 X111.686 Y119.29
G0 X108.894 Y119.29
G0 X109.062 Y119.122
;TYPE:SKIN
G1 F2700 X111.518 Y119.122 E53.16031
G1 X111.518 Y112.139 E53.31476
G1 X111.299 Y112.076 E53.3198
G1 X110.914 Y111.901 E53.32915
G1 X110.645 Y111.689 E53.33673
G1 X110.336 Y111.379 E53.34641
G1 X110.003 Y110.869 E53.35988
G1 X109.881 Y110.535 E53.36774
G1 X109.776 Y110.152 E53.37653
G1 X109.81 Y109.734 E53.3858
G1 X109.884 Y109.453 E53.39223
G1 X110.003 Y109.13 E53.39984
G1 X110.354 Y108.599 E53.41392
G1 X110.634 Y108.321 E53.42265
G1 X110.915 Y108.098 E53.43058
G1 X111.297 Y107.924 E53.43987
G1 X111.518 Y107.86 E53.44496
G1 X111.518 Y100.879 E53.59936
G1 X109.063 Y100.879 E53.65366
G1 X109.057 Y109.155 E53.83671
G1 X108.971 Y109.482 E53.84419
G1 X108.849 Y109.749 E53.85068
G1 X108.701 Y110.002 E53.85717
G1 X108.945 Y110.43 E53.86806
G1 X109.061 Y110.847 E53.87764
G1 X109.062 Y119.122 E54.06066
G0 F9000 X108.822 Y119.122
G0 X111.16 Y119.362
G0 X111.16 Y118.982
;TYPE:SKIN
G1 F3000 X111.16 Y112.169 E54.21135
G0 F9000 X110.88 Y112.042
G1 F3000 X110.88 Y118.982 E54.36485
G0 F9000 X110.6 Y118.982
G1 F3000 X110.6 Y111.832 E54.52299
G0 F9000 X110.32 Y111.564
G1 F3000 X110.32 Y118.982 E54.68707
G0 F9000 X110.04 Y118.982
G1 F3000 X110.04 Y111.185 E54.85952
G0 F9000 X109.76 Y110.616
G1 F3000 X109.76 Y118.982 E55.04456
G0 F9000 X109.76 Y119.362
G0 X111.686 Y119.29
G0 X111.687 Y112.007
G0 X110.78 Y110.798
G0 X110.6 Y110.459
G0 X110.491 Y110
G0 X110.578 Y109.631
G0 X111.314 Y108.178
G0 X111.16 Y107.831
G1 F3000 X111.16 Y101.019 E55.19523
G0 F9000 X110.88 Y101.019
G1 F3000 X110.88 Y107.959 E55.34873
G0 F9000 X110.6 Y108.171
G1 F3000 X110.6 Y101.019 E55.50691
G0 F9000 X110.32 Y101.019
G1 F3000 X110.32 Y108.436 E55.67096
G0 F9000 X110.04 Y108.815
G1 F3000 X110.04 Y101.019 E55.84339
G0 F9000 X109.76 Y101.019
G1 F3000 X109.76 Y109.384 E56.02841
G0 F9000 X110.117 Y109.516
G0 X111.688 Y107.993
G0 X111.686 Y100.711
G0 X109.48 Y100.639
G0 X109.48 Y101.019
G1 F3000 X109.48 Y118.982 E56.42572
G0 F9000 X109.48 Y119.362
G0 X108.894 Y119.29
G0 X108.805 Y110.863
G0 X109.2 Y110.822
G1 F3000 X109.2 Y109.16 E56.46248
G0 F9000 X108.92 Y109.905
G1 F3000 X108.92 Y110.1 E56.46679
G0 F9000 X108.568 Y110.304
G0 X108.366 Y119.817
G0 X107.793 Y120.39
G0 X107.842 Y120.3
;TYPE:SKIN
G1 F1800 X112.735 Y120.3 E56.47086
G1 X112.735 Y120.2 E56.47094
G1 X107.842 Y120.2 E56.47501
G1 X107.842 Y120.1 E56.47509
G1 X112.735 Y120.1 E56.47916
G1 X112.735 Y120 E56.47925
G1 X107.842 Y120 E56.48331
G1 X107.842 Y119.9 E56.4834
G1 X112.735 Y119.9 E56.48747
G1 X112.735 Y119.8 E56.48755
G1 X107.842 Y119.8 E56.49162
G1 X107.842 Y119.7 E56.4917
G1 X112.735 Y119.7 E56.49577
G1 X112.735 Y119.6 E56.49585
G1 X107.842 Y119.6 E56.49992
G1 X107.842 Y119.5 E56.5
G1 X112.735 Y119.5 E56.50407
G1 X112.735 Y119.4 E56.50416
G1 X107.842 Y119.4 E56.50822
G1 X107.842 Y119.3 E56.50831
G1 X112.735 Y119.3 E56.51238
G1 X112.735 Y119.2 E56.51246
G1 X107.842 Y119.2 E56.51653
G1 X107.842 Y119.1 E56.51661
G1 X112.735 Y119.1 E56.52068
G1 X112.735 Y119 E56.52076
G1 X107.842 Y119 E56.52483
G1 X107.842 Y118.9 E56.52491
G1 X112.735 Y118.9 E56.52898
G1 X112.736 Y118.8 E56.52907
G1 X107.843 Y118.8 E56.53313
G1 X107.843 Y118.7 E56.53322
G1 X112.736 Y118.7 E56.53729
G1 X112.736 Y118.6 E56.53737
G1 X107.843 Y118.6 E56.54144
G1 X107.843 Y118.5 E56.54152
G1 X112.736 Y118.5 E56.54559
G1 X112.736 Y118.4 E56.54567
G1 X107.843 Y118.4 E56.54974
G1 X107.843 Y118.3 E56.54982
G1 X112.736 Y118.3 E56.55389
G1 X112.736 Y118.2 E56.55398
G1 X107.843 Y118.2 E56.55804
G1 X107.843 Y118.1 E56.55813
G1 X112.736 Y118.1 E56.5622
G1 X112.736 Y118 E56.56228
G1 X107.843 Y118 E56.56635
G1 X107.843 Y117.9 E56.56643
G1 X112.736 Y117.9 E56.5705
G1 X112.736 Y117.8 E56.57058
G1 X107.843 Y117.8 E56.57465
G1 X107.843 Y117.7 E56.57473
G1 X112.736 Y117.7 E56.5788
G1 X112.736 Y117.6 E56.57889
G1 X107.843 Y117.6 E56.58295
G1 X107.843 Y117.5 E56.58304
G1 X112.736 Y117.5 E56.58711
G1 X112.736 Y117.4 E56.58719
G1 X107.843 Y117.4 E56.59126
G1 X107.843 Y117.3 E56.59134
G1 X112.736 Y117.3 E56.59541
G1 X112.736 Y117.2 E56.59549
G1 X107.843 Y117.2 E56.59956
G1 X107.843 Y117.1 E56.59964
G1 X112.736 Y117.1 E56.60371
G1 X112.736 Y117 E56.6038
G1 X107.843 Y117 E56.60786
G1 X107.843 Y116.9 E56.60795
G1 X112.736 Y116.9 E56.61202
G1 X112.736 Y116.8 E56.6121
G1 X107.843 Y116.8 E56.61617
G1 X107.843 Y116.7 E56.61625
G1 X112.736 Y116.7 E56.62032
G1 X112.736 Y116.6 E56.6204
G1 X107.843 Y116.6 E56.62447
G1 X107.843 Y116.5 E56.62455
G1 X112.736 Y116.5 E56.62862
G1 X112.736 Y116.4 E56.62871
G1 X107.843 Y116.4 E56.63277
G1 X107.843 Y116.3 E56.63286
G1 X112.736 Y116.3 E56.63693
G1 X112.736 Y116.2 E56.63701
G1 X107.843 Y116.2 E56.64108
G1 X107.843 Y116.1 E56.64116
G1 X112.736 Y116.1 E56.64523
G1 X112.736 Y116 E56.64531
G1 X107.843 Y116 E56.64938
G1 X107.843 Y115.9 E56.64946
G1 X112.736 Y115.9 E56.65353
G1 X112.736 Y115.8 E56.65362
G1 X107.843 Y115.8 E56.65769
G1 X107.843 Y115.7 E56.65777
G1 X112.736 Y115.7 E56.66184
G1 X112.736 Y115.6 E56.66192
G1 X107.843 Y115.6 E56.66599
G1 X107.843 Y115.5 E56.66607
G1 X112.736 Y115.5 E56.67014
G1 X112.736 Y115.4 E56.67022
G1 X107.843 Y115.4 E56.67429
G1 X107.843 Y115.3 E56.67438
G1 X112.736 Y115.3 E56.67844
G1 X112.736 Y115.2 E56.67853
G1 X107.843 Y115.2 E56.6826
G1 X107.843 Y115.1 E56.68268
G1 X112.736 Y115.1 E56.68675
G1 X112.736 Y115 E56.68683
G1 X107.843 Y115 E56.6909
G1 X107.843 Y114.9 E56.69098
G1 X112.736 Y114.9 E56.69505
G1 X112.736 Y114.8 E56.69513
G1 X107.843 Y114.8 E56.6992
G1 X107.843 Y114.7 E56.69929
G1 X112.736 Y114.7 E56.70335
G1 X112.736 Y114.6 E56.70344
G1 X107.843 Y114.6 E56.70751
G1 X107.843 Y114.5 E56.70759
G1 X112.736 Y114.5 E56.71166
G1 X112.736 Y114.4 E56.71174
G1 X107.843 Y114.4 E56.71581
G1 X107.843 Y114.3 E56.71589
G1 X112.736 Y114.3 E56.71996
G1 X112.736 Y114.2 E56.72004
G1 X107.843 Y114.2 E56.72411
G1 X107.843 Y114.1 E56.7242
G1 X112.736 Y114.1 E56.72826
G1 X112.736 Y114 E56.72835
G1 X107.843 Y114 E56.73242
G1 X107.843 Y113.9 E56.7325
G1 X112.736 Y113.9 E56.73657
G1 X112.736 Y113.8 E56.73665
G1 X107.843 Y113.8 E56.74072
G1 X107.843 Y113.7 E56.7408
G1 X112.736 Y113.7 E56.74487
G1 X112.736 Y113.6 E56.74495
G1 X107.843 Y113.6 E56.74902
G1 X107.843 Y113.5 E56.74911
G1 X112.736 Y113.5 E56.75317
G1 X112.736 Y113.4 E56.75326
G1 X107.843 Y113.4 E56.75733
G1 X107.843 Y113.3 E56.75741
G1 X112.736 Y113.3 E56.76148
G1 X112.736 Y113.2 E56.76156
G1 X107.843 Y113.2 E56.76563
G1 X107.843 Y113.1 E56.76571
G1 X112.736 Y113.1 E56.76978
G1 X112.736 Y113 E56.76986
G1 X107.843 Y113 E56.77393
G1 X107.843 Y112.9 E56.77402
G1 X112.736 Y112.9 E56.77808
G1 X112.736 Y112.8 E56.77817
G1 X107.843 Y112.8 E56.78224
G1 X107.843 Y112.7 E56.78232
G1 X112.736 Y112.7 E56.78639
G1 X112.736 Y112.6 E56.78647
G1 X107.843 Y112.6 E56.79054
G1 X107.843 Y112.5 E56.79062
G1 X112.736 Y112.5 E56.79469
G1 X112.736 Y112.4 E56.79477
G1 X107.843 Y112.4 E56.79884
G1 X107.843 Y112.3 E56.79893
G1 X112.736 Y112.3 E56.80299
G1 X112.736 Y112.2 E56.80308
G1 X107.843 Y112.2 E56.80715
G1 X107.843 Y112.1 E56.80723
G1 X112.736 Y112.1 E56.8113
G1 X112.736 Y112 E56.81138
G1 X107.843 Y112 E56.81545
G1 X107.843 Y111.9 E56.81553
G1 X112.736 Y111.9 E56.8196
G1 X112.736 Y111.8 E56.81968
G1 X107.843 Y111.8 E56.82375
G1 X107.843 Y111.7 E56.82384
G1 X112.736 Y111.7 E56.8279
G1 X112.736 Y111.6 E56.82799
G1 X107.843 Y111.6 E56.83206
G1 X107.843 Y111.5 E56.83214
G1 X112.736 Y111.5 E56.83621
G1 X112.736 Y111.4 E56.83629
G1 X107.843 Y111.4 E56.84036
G1 X107.843 Y111.3 E56.84044
G1 X112.736 Y111.3 E56.84451
G1 X112.736 Y111.2 E56.84459
G1 X107.843 Y111.2 E56.84866
G1 X107.843 Y111.1 E56.84875
G1 X112.736 Y111.1 E56.85281
G1 X112.736 Y111.012 E56.85289
G1 X111.997 Y111.012 E56.8535
G1 X111.958 Y111 E56.85354
G1 X107.843 Y111 E56.85696
G1 X107.812 Y110.9 E56.85705
G1 X111.579 Y110.9 E56.86018
G1 X111.479 Y110.8 E56.86029
G1 X107.754 Y110.8 E56.86339
G1 X107.696 Y110.7 E56.86349
G1 X111.379 Y110.7 E56.86655
G1 X111.278 Y110.6 E56.86667
G1 X107.638 Y110.6 E56.8697
G1 X107.58 Y110.5 E56.86979
G1 X111.179 Y110.5 E56.87278
G1 X111.126 Y110.4 E56.87288
G1 X107.522 Y110.4 E56.87588
G1 X107.464 Y110.3 E56.87597
G1 X111.073 Y110.3 E56.87897
G1 X111.045 Y110.2 E56.87906
G1 X107.406 Y110.2 E56.88208
G1 X107.348 Y110.1 E56.88218
G1 X111.021 Y110.1 E56.88523
G1 X110.997 Y110 E56.88532
G1 X107.291 Y110 E56.8884
G1 X107.349 Y109.9 E56.8885
G1 X111.02 Y109.9 E56.89155
G1 X111.044 Y109.8 E56.89164
G1 X107.407 Y109.8 E56.89466
G1 X107.465 Y109.7 E56.89476
G1 X111.072 Y109.7 E56.89776
G1 X111.125 Y109.6 E56.89785
G1 X107.523 Y109.6 E56.90084
G1 X107.581 Y109.5 E56.90094
G1 X111.178 Y109.5 E56.90393
G1 X111.277 Y109.4 E56.90405
G1 X107.639 Y109.4 E56.90707
G1 X107.697 Y109.3 E56.90717
G1 X111.377 Y109.3 E56.91023
G1 X111.477 Y109.2 E56.91035
G1 X107.755 Y109.2 E56.91344
G1 X107.813 Y109.1 E56.91354
G1 X111.62 Y109.1 E56.9167
G1 X111.95 Y109 E56.91699
G1 X107.843 Y109 E56.92041
G1 X107.843 Y108.9 E56.92049
G1 X112.736 Y108.9 E56.92456
G1 X112.736 Y108.8 E56.92464
G1 X107.843 Y108.8 E56.92871
G1 X107.843 Y108.7 E56.92879
G1 X112.736 Y108.7 E56.93286
G1 X112.736 Y108.6 E56.93294
G1 X107.843 Y108.6 E56.93701
G1 X107.843 Y108.5 E56.9371
G1 X112.736 Y108.5 E56.94116
G1 X112.736 Y108.4 E56.94125
G1 X107.843 Y108.4 E56.94532
G1 X107.843 Y108.3 E56.9454
G1 X112.736 Y108.3 E56.94947
G1 X112.736 Y108.2 E56.94955
G1 X107.843 Y108.2 E56.95362
G1 X107.843 Y108.1 E56.9537
G1 X112.736 Y108.1 E56.95777
G1 X112.736 Y108 E56.95785
G1 X107.843 Y108 E56.96192
G1 X107.843 Y107.9 E56.96201
G1 X112.736 Y107.9 E56.96607
G1 X112.736 Y107.8 E56.96616
G1 X107.843 Y107.8 E56.97023
G1 X107.843 Y107.7 E56.97031
G1 X112.736 Y107.7 E56.97438
G1 X112.736 Y107.6 E56.97446
G1 X107.843 Y107.6 E56.97853
G1 X107.843 Y107.5 E56.97861
G1 X112.736 Y107.5 E56.98268
G1 X112.736 Y107.4 E56.98276
G1 X107.843 Y107.4 E56.98683
G1 X107.843 Y107.3 E56.98692
G1 X112.736 Y107.3 E56.99098
G1 X112.736 Y107.2 E56.99107
G1 X107.843 Y107.2 E56.99514
G1 X107.843 Y107.1 E56.99522
G1 X112.736 Y107.1 E56.99929
G1 X112.736 Y107 E56.99937
G1 X107.843 Y107 E57.00344
G1 X107.843 Y106.9 E57.00352
G1 X112.736 Y106.9 E57.00759
G1 X112.736 Y106.8 E57.00767
G1 X107.843 Y106.8 E57.01174
G1 X107.843 Y106.7 E57.01183
G1 X112.736 Y106.7 E57.01589
G1 X112.736 Y106.6 E57.01598
G1 X107.843 Y106.6 E57.02005
G1 X107.843 Y106.5 E57.02013
G1 X112.736 Y106.5 E57.0242
G1 X112.736 Y106.4 E57.02428
G1 X107.843 Y106.4 E57.02835
G1 X107.843 Y106.3 E57.02843
G1 X112.736 Y106.3 E57.0325
G1 X112.736 Y106.2 E57.03258
G1 X107.843 Y106.2 E57.03665
G1 X107.843 Y106.1 E57.03674
G1 X112.736 Y106.1 E57.0408
G1 X112.736 Y106 E57.04089
G1 X107.843 Y106 E57.04496
G1 X107.843 Y105.9 E57.04504
G1 X112.736 Y105.9 E57.04911
G1 X112.736 Y105.8 E57.04919
G1 X107.843 Y105.8 E57.05326
G1 X107.843 Y105.7 E57.05334
G1 X112.736 Y105.7 E57.05741
G1 X112.736 Y105.6 E57.05749
G1 X107.843 Y105.6 E57.06156
G1 X107.843 Y105.5 E57.06165
G1 X112.736 Y105.5 E57.06571
G1 X112.736 Y105.4 E57.0658
G1 X107.843 Y105.4 E57.06987
G1 X107.843 Y105.3 E57.06995
G1 X112.736 Y105.3 E57.07402
G1 X112.736 Y105.2 E57.0741
G1 X107.843 Y105.2 E57.07817
G1 X107.843 Y105.1 E57.07825
G1 X112.736 Y105.1 E57.08232
G1 X112.736 Y105 E57.0824
G1 X107.843 Y105 E57.08647
G1 X107.843 Y104.9 E57.08656
G1 X112.736 Y104.9 E57.09063
G1 X112.736 Y104.8 E57.09071
G1 X107.843 Y104.8 E57.09478
G1 X107.843 Y104.7 E57.09486
G1 X112.736 Y104.7 E57.09893
G1 X112.736 Y104.6 E57.09901
G1 X107.843 Y104.6 E57.10308
G1 X107.843 Y104.5 E57.10316
G1 X112.736 Y104.5 E57.10723
G1 X112.736 Y104.4 E57.10732
G1 X107.843 Y104.4 E57.11138
G1 X107.843 Y104.3 E57.11147
G1 X112.736 Y104.3 E57.11554
G1 X112.736 Y104.2 E57.11562
G1 X107.843 Y104.2 E57.11969
G1 X107.843 Y104.1 E57.11977
G1 X112.736 Y104.1 E57.12384
G1 X112.736 Y104 E57.12392
G1 X107.843 Y104 E57.12799
G1 X107.843 Y103.9 E57.12807
G1 X112.736 Y103.9 E57.13214
G1 X112.736 Y103.8 E57.13223
G1 X107.843 Y103.8 E57.13629
G1 X107.843 Y103.7 E57.13638
G1 X112.736 Y103.7 E57.14045
G1 X112.736 Y103.6 E57.14053
G1 X107.843 Y103.6 E57.1446
G1 X107.843 Y103.5 E57.14468
G1 X112.736 Y103.5 E57.14875
G1 X112.736 Y103.4 E57.14883
G1 X107.843 Y103.4 E57.1529
G1 X107.843 Y103.3 E57.15298
G1 X112.736 Y103.3 E57.15705
G1 X112.736 Y103.2 E57.15714
G1 X107.843 Y103.2 E57.1612
G1 X107.843 Y103.1 E57.16129
G1 X112.736 Y103.1 E57.16536
G1 X112.736 Y103 E57.16544
G1 X107.843 Y103 E57.16951
G1 X107.843 Y102.9 E57.16959
G1 X112.736 Y102.9 E57.17366
G1 X112.736 Y102.8 E57.17374
G1 X107.843 Y102.8 E57.17781
G1 X107.843 Y102.7 E57.17789
G1 X112.736 Y102.7 E57.18196
G1 X112.736 Y102.6 E57.18205
G1 X107.843 Y102.6 E57.18611
G1 X107.843 Y102.5 E57.1862
G1 X112.736 Y102.5 E57.19027
G1 X112.736 Y102.4 E57.19035
G1 X107.843 Y102.4 E57.19442
G1 X107.843 Y102.3 E57.1945
G1 X112.736 Y102.3 E57.19857
G1 X112.736 Y102.2 E57.19865
G1 X107.843 Y102.2 E57.20272
G1 X107.843 Y102.1 E57.2028
G1 X112.736 Y102.1 E57.20687
G1 X112.736 Y102 E57.20696
G1 X107.843 Y102 E57.21102
G1 X107.843 Y101.9 E57.21111
G1 X112.736 Y101.9 E57.21518
G1 X112.736 Y101.8 E57.21526
G1 X107.843 Y101.8 E57.21933
G1 X107.843 Y101.7 E57.21941
G1 X112.736 Y101.7 E57.22348
G1 X112.736 Y101.6 E57.22356
G1 X107.843 Y101.6 E57.22763
G1 X107.843 Y101.5 E57.22771
G1 X112.736 Y101.5 E57.23178
G1 X112.736 Y101.4 E57.23187
G1 X107.843 Y101.4 E57.23593
G1 X107.843 Y101.3 E57.23602
G1 X112.736 Y101.3 E57.24009
G1 X112.736 Y101.2 E57.24017
G1 X107.843 Y101.2 E57.24424
G1 X107.843 Y101.1 E57.24432
G1 X112.736 Y101.1 E57.24839
G1 X112.736 Y101 E57.24847
G1 X107.843 Y101 E57.25254
G1 X107.843 Y100.9 E57.25262
G1 X112.736 Y100.9 E57.25669
G1 X112.736 Y100.8 E57.25678
G1 X107.843 Y100.8 E57.26084
G1 X107.843 Y100.7 E57.26093
G1 X112.736 Y100.7 E57.265
G1 X112.736 Y100.6 E57.26508
G1 X107.843 Y100.6 E57.26915
G1 X107.843 Y100.5 E57.26923
G1 X112.736 Y100.5 E57.2733
G1 X112.736 Y100.4 E57.27338
G1 X107.843 Y100.4 E57.27745
G1 X107.843 Y100.3 E57.27753
G1 X112.736 Y100.3 E57.2816
G1 X112.736 Y100.2 E57.28169
G1 X107.843 Y100.2 E57.28575
G1 X107.843 Y100.1 E57.28584
G1 X112.736 Y100.1 E57.28991
G1 X112.736 Y100 E57.28999
G1 X107.843 Y100 E57.29406
G1 X107.843 Y99.9 E57.29414
G1 X112.736 Y99.9 E57.29821
G1 X112.736 Y99.8 E57.29829
G1 X107.843 Y99.8 E57.30236
G1 X107.843 Y99.7 E57.30244
G1 X112.736 Y99.7 E57.30651
;TIME_ELAPSED:116.131778
G1 F2400 E55.30651
M140 S0
M205 X10 Y10
M107
G91 ;Relative positioning
G1 E-2 F2700 ;Retract a bit
G1 E-2 Z0.2 F2400 ;Retract and raise Z
G1 X5 Y5 F3000 ;Wipe out
G1 Z10 ;Raise Z more
G90 ;Absolute positioning

G28 X0 Y0 ;Present print
M106 S0 ;Turn-off fan
M104 S0 ;Turn-off hotend
M140 S0 ;Turn-off bed

;*** Message and End Tones
M117 Print Completed
M300 S440 P200 ; Make Print Completed Tones
M300 S660 P250
M300 S880 P300
;*** End Message and End Tones

M84 X Y E ;Disable all steppers but Z
M82 ;absolute extrusion mode
M104 S0
;End of Gcode
;SETTING_3 {"global_quality": "[general]\\nversion = 4\\nname = FFV5.1_EF(.20)\\
;SETTING_3 ndefinition = creality_ender5\\n\\n[metadata]\\ntype = quality_change
;SETTING_3 s\\nquality_type = standard\\nsetting_version = 20\\n\\n[values]\\nac
;SETTING_3 celeration_enabled = True\\nadhesion_type = skirt\\njerk_enabled = Tr
;SETTING_3 ue\\nlayer_height = 0.2\\nlayer_height_0 = 0.28\\nmaterial_bed_temper
;SETTING_3 ature = 40\\nmaterial_bed_temperature_layer_0 = 50\\n\\n", "extruder_
;SETTING_3 quality": ["[general]\\nversion = 4\\nname = FFV5.1_EF(.20)\\ndefinit
;SETTING_3 ion = creality_ender5\\n\\n[metadata]\\ntype = quality_changes\\nqual
;SETTING_3 ity_type = standard\\nintent_category = default\\nposition = 0\\nsett
;SETTING_3 ing_version = 20\\n\\n[values]\\nacceleration_print = 500.0\\nacceler
;SETTING_3 ation_roofing = 500.0\\nacceleration_topbottom = 500.0\\nacceleration
;SETTING_3 _travel = 500.0\\nacceleration_wall = 500.0\\nbottom_layers = 3\\nbri
;SETTING_3 m_line_count = 10\\ncoasting_enable = False\\nfill_outline_gaps = Tru
;SETTING_3 e\\ninfill_line_distance = =0 if infill_sparse_density == 0 else (inf
;SETTING_3 ill_line_width * 100) / infill_sparse_density * (2 if infill_pattern 
;SETTING_3 == 'grid' else (3 if infill_pattern == 'triangles' or infill_pattern 
;SETTING_3 == 'trihexagon' or infill_pattern == 'cubic' or infill_pattern == 'cu
;SETTING_3 bicsubdiv' else (2 if infill_pattern == 'tetrahedral' or infill_patte
;SETTING_3 rn == 'quarter_cubic' else (1 if infill_pattern == 'cross' or infill_
;SETTING_3 pattern == 'cross_3d' else 1))))\\ninfill_line_width = 0.57\\ninfill_
;SETTING_3 overlap = 0\\ninfill_pattern = ='zigzag' if infill_sparse_density > 8
;SETTING_3 9 else 'lines' if infill_sparse_density > 31 else 'cubic'\\ninfill_sp
;SETTING_3 arse_density = 20\\ninfill_sparse_thickness = 0.3\\ninitial_layer_lin
;SETTING_3 e_width_factor = 100.0\\ninset_direction = inside_out\\nironing_enabl
;SETTING_3 ed = True\\njerk_layer_0 = 8\\njerk_print = 20\\njerk_travel_layer_0 
;SETTING_3 = 5\\nline_width = 0.45\\nmaterial_flow = 95\\nmaterial_flow_layer_0 
;SETTING_3 = 95\\nmaterial_print_temperature = 210\\nretraction_amount = 2\\nret
;SETTING_3 raction_extrusion_window = 6\\nretraction_prime_speed = 20\\nretracti
;SETTING_3 on_retract_speed = 40\\nroofing_layer_count = 1\\nskin_angles = [90,0
;SETTING_3  ]\\nskin_line_width = 0.28\\nskin_monotonic = True\\nskin_overlap = 
;SETTING_3 30.0\\nskirt_brim_speed = 25.0\\nskirt_line_count = 1\\nspeed_layer_0
;SETTING_3  = 25\\nspeed_print = 60.0\\nspeed_roofing = 50\\nspeed_topbottom = 4
;SETTING_3 5\\nspeed_travel_layer_0 = 125.0\\nspeed_wall_0 = 50\\nspeed_wall_x =
;SETTING_3  65\\nspeed_z_hop = 10\\ntop_bottom_pattern = lines\\ntop_bottom_thic
;SETTING_3 kness = =layer_height_0+layer_height*3\\ntop_layers = 3\\nwall_0_mate
;SETTING_3 rial_flow = 95\\nwall_0_wipe_dist = 0.2\\nwall_line_count = 3\\nwall_
;SETTING_3 line_width_x = 0.5\\nwall_thickness = =line_width*2\\nxy_offset = 0.2
;SETTING_3 \\nxy_offset_layer_0 = -0.2\\nz_seam_corner = z_seam_corner_weighted\
;SETTING_3 \nz_seam_type = sharpest_corner\\n\\n"]}
