;FLAVOR:Marlin
;TIME:155
;Filament used: 0.0810467m
;Layer height: 0.28
;MINX:95.892
;MINY:95.897
;MINZ:0.32
;MAXX:124.101
;MAXY:124.1
;MAXZ:8.16
;Generated with Cura_SteamEngine main
M82 ;absolute extrusion mode
M201 X500.00 Y500.00 Z100.00 E5000.00 ;Setup machine max acceleration
M203 X500.00 Y500.00 Z10.00 E50.00 ;Setup machine max feedrate
M204 P500.00 R1000.00 T500.00 ;Setup Print/Retract/Travel acceleration
M205 X8.00 Y8.00 Z0.40 E5.00 ;Setup Jerk
M220 S100 ;Reset Feedrate
M221 S100 ;Reset Flowrate

;*** Start Dual Nozzle/Bed Preheating ***
M140 S50 ; start preheating the bed
M104 S210 ?T0 ; start preheating hotend
M190 S50 ; heat to Cura Bed setting and WAIT
M109 S210 ?T0 ; heat to Cura Hotend and WAIT
;*** End Preheating ***


;*** Single Print Start Tone
M300 S1000 P500 ; chirp to indicate starting to print
;*** End Single Start Tone

G28 ;Home

G92 E0 ;Reset Extruder
G1 Z2.0 F3000 ;Move Z Axis up
G1 X10.1 Y20 Z0.28 F5000.0 ;Move to start position
G1 X10.1 Y200.0 Z0.28 F1500.0 E15 ;Draw the first line
G1 X10.4 Y200.0 Z0.28 F5000.0 ;Move to side a little
G1 X10.4 Y20 Z0.28 F1500.0 E30 ;Draw the second line
G92 E0 ;Reset Extruder
G1 Z2.0 F3000 ;Move Z Axis up
G92 E0
G92 E0
G1 F2400 E-2
;LAYER_COUNT:29
;LAYER:0
M107
M204 S500
M205 X5 Y5
G0 F7500 X100.27 Y99.785 Z0.32
G0 X95.892 Y109.826
M205 X8 Y8
;TYPE:SKIRT
G1 F1200 E0
G1 F1500 X95.97 Y108.716 E0.06012
G1 X96.065 Y107.928 E0.10301
G1 X96.217 Y106.998 E0.15392
G1 X96.448 Y106.083 E0.20491
G1 X96.791 Y105.102 E0.26106
G1 X97.086 Y104.37 E0.30371
G1 X97.476 Y103.51 E0.35473
G1 X97.936 Y102.687 E0.40567
G1 X98.534 Y101.815 E0.4628
G1 X99.01 Y101.186 E0.50542
G1 X99.61 Y100.458 E0.55639
G1 X100.27 Y99.785 E0.60732
G1 X100.969 Y99.182 E0.6572
G1 X101.365 Y98.868 E0.68451
G1 X101.831 Y98.515 E0.71609
G1 X102.61 Y97.984 E0.76703
G1 X103.432 Y97.521 E0.81801
G1 X104.098 Y97.209 E0.85774
G1 X104.815 Y96.902 E0.89989
G1 X105.697 Y96.568 E0.95084
G1 X106.604 Y96.31 E1.00179
G1 X107.531 Y96.129 E1.05283
G1 X108.1 Y96.043 E1.08392
G1 X108.711 Y95.966 E1.11719
G1 X109.652 Y95.897 E1.16817
G1 X110.595 Y95.909 E1.21913
G1 X111.359 Y95.977 E1.26057
G1 X112.108 Y96.07 E1.30135
G1 X113.038 Y96.226 E1.3523
G1 X113.952 Y96.46 E1.40328
G1 X114.895 Y96.791 E1.45728
G1 X115.632 Y97.088 E1.50021
G1 X116.491 Y97.478 E1.55118
G1 X117.314 Y97.938 E1.60213
G1 X118.184 Y98.533 E1.65908
G1 X118.799 Y98.998 E1.70073
G1 X119.526 Y99.598 E1.75166
G1 X120.2 Y100.258 E1.80263
G1 X120.78 Y100.927 E1.85047
G1 X121.126 Y101.36 E1.88042
G1 X121.51 Y101.866 E1.91474
G1 X122.039 Y102.648 E1.96575
G1 X122.499 Y103.471 E2.0167
G1 X122.809 Y104.137 E2.05639
G1 X123.111 Y104.848 E2.09813
G1 X123.442 Y105.731 E2.14908
G1 X123.698 Y106.639 E2.20005
G1 X123.887 Y107.642 E2.2552
G1 X123.997 Y108.421 E2.29771
G1 X124.089 Y109.359 E2.34863
G1 X124.101 Y110.302 E2.39959
G1 X124.024 Y111.32 E2.45475
G1 X123.931 Y112.084 E2.49633
G1 X123.778 Y113.015 E2.54731
G1 X123.546 Y113.929 E2.59826
G1 X123.238 Y114.82 E2.6492
G1 X123.033 Y115.34 E2.6794
G1 X122.812 Y115.868 E2.71032
G1 X122.403 Y116.718 E2.76129
G1 X121.923 Y117.53 E2.81225
G1 X121.533 Y118.092 E2.84922
G1 X121.214 Y118.523 E2.87819
G1 X120.847 Y118.997 E2.91058
G1 X120.23 Y119.711 E2.96156
G1 X119.555 Y120.37 E3.01253
G1 X119.074 Y120.777 E3.04658
G1 X118.64 Y121.124 E3.0766
G1 X118.124 Y121.515 E3.11158
G1 X117.343 Y122.043 E3.16252
G1 X116.519 Y122.503 E3.21351
G1 X115.866 Y122.806 E3.2524
G1 X115.151 Y123.11 E3.29438
G1 X114.268 Y123.442 E3.34535
G1 X113.36 Y123.698 E3.39633
G1 X112.456 Y123.873 E3.44608
G1 X111.912 Y123.955 E3.4758
G1 X111.315 Y124.031 E3.50832
G1 X110.374 Y124.1 E3.5593
G1 X109.431 Y124.09 E3.61025
G1 X108.677 Y124.024 E3.65115
G1 X107.906 Y123.93 E3.69311
G1 X106.975 Y123.776 E3.7441
G1 X106.061 Y123.544 E3.79505
G1 X105.178 Y123.239 E3.84553
G1 X104.68 Y123.043 E3.87444
G1 X104.139 Y122.817 E3.90612
G1 X103.29 Y122.408 E3.95704
G1 X102.477 Y121.928 E4.00805
G1 X101.844 Y121.486 E4.04977
G1 X101.214 Y121.012 E4.09236
G1 X100.485 Y120.413 E4.14334
G1 X99.81 Y119.755 E4.19428
G1 X99.187 Y119.035 E4.24572
G1 X98.884 Y118.653 E4.27207
G1 X98.485 Y118.125 E4.30782
G1 X97.956 Y117.344 E4.35879
G1 X97.496 Y116.521 E4.40973
G1 X97.229 Y115.953 E4.44364
G1 X97.024 Y115.483 E4.47135
G1 X96.794 Y114.92 E4.50421
G1 X96.482 Y114.03 E4.55517
G1 X96.247 Y113.117 E4.6061
G1 X96.128 Y112.463 E4.64202
G1 X96.014 Y111.707 E4.68333
G1 X95.913 Y110.769 E4.7343
G1 X95.892 Y109.826 E4.78527
M205 X5 Y5
G0 F7500 X96.343 Y109.797
M205 X8 Y8
G1 F1500 X96.417 Y108.77 E4.8409
G1 X96.512 Y107.982 E4.88379
G1 X96.662 Y107.071 E4.93367
G1 X96.89 Y106.175 E4.98363
G1 X97.209 Y105.27 E5.03547
G1 X97.504 Y104.538 E5.07811
G1 X97.886 Y103.697 E5.12802
G1 X98.339 Y102.892 E5.17793
G1 X98.893 Y102.086 E5.23078
G1 X99.369 Y101.457 E5.2734
G1 X99.958 Y100.745 E5.32332
G1 X100.606 Y100.087 E5.37322
G1 X101.249 Y99.534 E5.41905
G1 X101.645 Y99.22 E5.44635
G1 X102.099 Y98.875 E5.47716
G1 X102.864 Y98.356 E5.52711
G1 X103.67 Y97.905 E5.57701
G1 X104.275 Y97.623 E5.61308
G1 X104.992 Y97.316 E5.65522
G1 X105.856 Y96.989 E5.70513
G1 X106.746 Y96.739 E5.75508
G1 X107.599 Y96.574 E5.80203
G1 X108.168 Y96.488 E5.83312
G1 X108.763 Y96.413 E5.86552
G1 X109.684 Y96.346 E5.91542
G1 X110.608 Y96.36 E5.96535
G1 X111.303 Y96.423 E6.00305
G1 X112.052 Y96.516 E6.04383
G1 X112.963 Y96.67 E6.09375
G1 X113.858 Y96.901 E6.14369
G1 X114.727 Y97.209 E6.19351
G1 X115.464 Y97.506 E6.23644
G1 X116.305 Y97.888 E6.28635
G1 X117.11 Y98.341 E6.33626
G1 X117.912 Y98.892 E6.38883
G1 X118.527 Y99.357 E6.43049
G1 X119.239 Y99.946 E6.48042
G1 X119.898 Y100.594 E6.53036
G1 X120.429 Y101.208 E6.57422
G1 X120.775 Y101.641 E6.60416
G1 X121.149 Y102.134 E6.6376
G1 X121.666 Y102.9 E6.68753
G1 X122.115 Y103.707 E6.73743
G1 X122.394 Y104.313 E6.77348
G1 X122.696 Y105.024 E6.81521
G1 X123.02 Y105.889 E6.86512
G1 X123.269 Y106.779 E6.91506
G1 X123.441 Y107.704 E6.96589
G1 X123.551 Y108.483 E7.0084
G1 X123.641 Y109.403 E7.05834
G1 X123.65 Y110.327 E7.10827
G1 X123.578 Y111.266 E7.15916
G1 X123.485 Y112.03 E7.20074
G1 X123.334 Y112.941 E7.25063
G1 X123.104 Y113.836 E7.30056
G1 X122.819 Y114.655 E7.34742
G1 X122.614 Y115.175 E7.37762
G1 X122.398 Y115.69 E7.40779
G1 X121.997 Y116.522 E7.4577
G1 X121.525 Y117.317 E7.50765
G1 X121.171 Y117.825 E7.5411
G1 X120.852 Y118.256 E7.57008
G1 X120.494 Y118.718 E7.60166
G1 X119.889 Y119.416 E7.65157
G1 X119.227 Y120.06 E7.70147
G1 X118.793 Y120.426 E7.73214
G1 X118.359 Y120.773 E7.76216
G1 X117.857 Y121.154 E7.79622
G1 X117.091 Y121.67 E7.84612
G1 X116.283 Y122.118 E7.89604
G1 X115.69 Y122.392 E7.93133
G1 X114.975 Y122.696 E7.97331
G1 X114.11 Y123.02 E8.02322
G1 X113.22 Y123.269 E8.07315
G1 X112.389 Y123.428 E8.11887
G1 X111.845 Y123.51 E8.14859
G1 X111.262 Y123.584 E8.18035
G1 X110.341 Y123.651 E8.23024
G1 X109.417 Y123.639 E8.28017
G1 X108.731 Y123.578 E8.31738
G1 X107.96 Y123.484 E8.35935
G1 X107.049 Y123.332 E8.40925
G1 X106.154 Y123.103 E8.45917
G1 X105.342 Y122.82 E8.50563
G1 X104.844 Y122.624 E8.53454
G1 X104.317 Y122.403 E8.56542
G1 X103.485 Y122.002 E8.61532
G1 X102.691 Y121.53 E8.66523
G1 X102.115 Y121.126 E8.70325
G1 X101.485 Y120.652 E8.74584
G1 X100.771 Y120.065 E8.79579
G1 X100.111 Y119.419 E8.84568
G1 X99.54 Y118.756 E8.89296
G1 X99.237 Y118.374 E8.91931
G1 X98.847 Y117.857 E8.9543
G1 X98.33 Y117.092 E9.00418
G1 X97.881 Y116.284 E9.05413
G1 X97.641 Y115.773 E9.08463
G1 X97.436 Y115.303 E9.11234
G1 X97.212 Y114.754 E9.14437
G1 X96.907 Y113.881 E9.19434
G1 X96.679 Y112.986 E9.24424
G1 X96.573 Y112.396 E9.27663
G1 X96.459 Y111.64 E9.31794
G1 X96.361 Y110.721 E9.36788
G1 X96.343 Y109.797 E9.41781
M205 X5 Y5
G0 F7500 X96.794 Y109.769
M205 X8 Y8
G1 F1500 X96.864 Y108.824 E9.46901
G1 X96.959 Y108.036 E9.51189
G1 X97.106 Y107.144 E9.56074
G1 X97.332 Y106.269 E9.60957
G1 X97.626 Y105.438 E9.6572
G1 X97.921 Y104.706 E9.69984
G1 X98.296 Y103.883 E9.7487
G1 X98.742 Y103.096 E9.79758
G1 X99.252 Y102.358 E9.84605
G1 X99.728 Y101.729 E9.88867
G1 X100.305 Y101.033 E9.93752
G1 X100.941 Y100.39 E9.98638
G1 X101.528 Y99.887 E10.02815
G1 X101.924 Y99.573 E10.05546
G1 X102.368 Y99.236 E10.08558
G1 X103.117 Y98.729 E10.13444
G1 X103.907 Y98.289 E10.1833
G1 X104.452 Y98.036 E10.21577
G1 X105.169 Y97.729 E10.25791
G1 X106.015 Y97.411 E10.30674
G1 X106.886 Y97.168 E10.3556
G1 X107.666 Y97.019 E10.39851
G1 X108.235 Y96.933 E10.4296
G1 X108.814 Y96.86 E10.46113
G1 X109.716 Y96.796 E10.50999
G1 X110.62 Y96.812 E10.55884
G1 X111.248 Y96.87 E10.59292
G1 X111.997 Y96.963 E10.6337
G1 X112.888 Y97.114 E10.68253
G1 X113.763 Y97.343 E10.7314
G1 X114.559 Y97.626 E10.77704
G1 X115.296 Y97.923 E10.81998
G1 X116.119 Y98.298 E10.86884
G1 X116.905 Y98.744 E10.91767
G1 X117.641 Y99.251 E10.96596
G1 X118.256 Y99.716 E11.00762
G1 X118.952 Y100.293 E11.05647
G1 X119.595 Y100.929 E11.10533
G1 X120.077 Y101.489 E11.14525
G1 X120.423 Y101.922 E11.1752
G1 X120.787 Y102.402 E11.20775
G1 X121.292 Y103.152 E11.2566
G1 X121.729 Y103.943 E11.30543
G1 X121.98 Y104.489 E11.3379
G1 X122.282 Y105.2 E11.37964
G1 X122.599 Y106.047 E11.4285
G1 X122.839 Y106.918 E11.47732
G1 X122.996 Y107.767 E11.52397
G1 X123.106 Y108.546 E11.56647
G1 X123.192 Y109.446 E11.61532
G1 X123.199 Y110.351 E11.66422
G1 X123.131 Y111.212 E11.71089
G1 X123.038 Y111.976 E11.75247
G1 X122.889 Y112.867 E11.80128
G1 X122.662 Y113.743 E11.85018
G1 X122.4 Y114.49 E11.89295
G1 X122.195 Y115.01 E11.92315
G1 X121.985 Y115.512 E11.95255
G1 X121.591 Y116.327 E12.00146
G1 X121.127 Y117.103 E12.05031
G1 X120.81 Y117.557 E12.08023
G1 X120.491 Y117.988 E12.1092
G1 X120.141 Y118.438 E12.14001
G1 X119.549 Y119.121 E12.18884
G1 X118.899 Y119.749 E12.23768
G1 X118.512 Y120.074 E12.26498
G1 X118.078 Y120.421 E12.29501
G1 X117.589 Y120.792 E12.32817
G1 X116.839 Y121.296 E12.37699
G1 X116.047 Y121.733 E12.42587
G1 X115.514 Y121.978 E12.45756
G1 X114.799 Y122.282 E12.49954
G1 X113.952 Y122.598 E12.54839
G1 X113.08 Y122.839 E12.59727
G1 X112.322 Y122.983 E12.63896
G1 X111.778 Y123.065 E12.66868
G1 X111.21 Y123.137 E12.69962
G1 X110.308 Y123.202 E12.74848
G1 X109.404 Y123.187 E12.79733
G1 X108.786 Y123.131 E12.83086
G1 X108.015 Y123.037 E12.87283
G1 X107.123 Y122.888 E12.92169
G1 X106.247 Y122.661 E12.97058
G1 X105.507 Y122.402 E13.01295
G1 X105.009 Y122.206 E13.04186
G1 X104.495 Y121.99 E13.07199
G1 X103.681 Y121.596 E13.12085
G1 X102.905 Y121.133 E13.16967
G1 X102.386 Y120.767 E13.20399
G1 X101.756 Y120.293 E13.24658
G1 X101.058 Y119.718 E13.29545
G1 X100.413 Y119.083 E13.34435
G1 X99.892 Y118.476 E13.38757
G1 X99.382 Y117.825 E13.43226
G1 X99.208 Y117.59 E13.44806
G1 X98.703 Y116.84 E13.49691
G1 X98.266 Y116.048 E13.54578
G1 X98.054 Y115.593 E13.5729
G1 X97.849 Y115.123 E13.60061
G1 X97.63 Y114.587 E13.63189
G1 X97.333 Y113.733 E13.68075
G1 X97.112 Y112.856 E13.72961
G1 X97.018 Y112.329 E13.75854
G1 X96.904 Y111.573 E13.79985
G1 X96.809 Y110.673 E13.84875
G1 X96.794 Y109.769 E13.8976
M205 X5 Y5
G1 F2400 E11.8976
;MESH:gripbolt.stl
G0 F7500 X106.441 Y110.805
G0 X107.54 Y110.661
G0 X108.933 Y111.849
G1 F1200 E13.8976
G0 F7500 X108.857 Y111.981
M205 X8 Y8
;TYPE:WALL-INNER
G1 F1500 X109.407 Y112.208 E13.93332
G1 X110.001 Y112.287 E13.96929
G1 X110.593 Y112.209 E14.00514
G1 X111.141 Y111.981 E14.04077
G1 X111.618 Y111.616 E14.07683
G1 X111.98 Y111.143 E14.11259
G1 X112.208 Y110.594 E14.14828
G1 X112.286 Y110 E14.18424
G1 X112.209 Y109.403 E14.22038
G1 X111.981 Y108.856 E14.25596
G1 X111.618 Y108.385 E14.29166
G1 X111.141 Y108.017 E14.32783
G1 X110.594 Y107.79 E14.36338
G1 X110 Y107.712 E14.39935
G1 X109.406 Y107.789 E14.43531
G1 X108.857 Y108.017 E14.47099
G1 X108.381 Y108.382 E14.50701
G1 X108.017 Y108.859 E14.54303
G1 X107.791 Y109.401 E14.57828
G1 X107.712 Y110.001 E14.61461
G1 X107.79 Y110.595 E14.65058
G1 X108.017 Y111.14 E14.68602
G1 X108.381 Y111.616 E14.722
G1 X108.857 Y111.981 E14.75801
M205 X5 Y5
G0 F7500 X108.617 Y112.396
M205 X8 Y8
;TYPE:WALL-OUTER
G1 F1500 X109.282 Y112.671 E14.79689
G1 X110.001 Y112.767 E14.83608
G1 X110.718 Y112.671 E14.87517
G1 X111.381 Y112.396 E14.91395
G1 X111.958 Y111.954 E14.95322
G1 X112.396 Y111.381 E14.99219
G1 X112.671 Y110.718 E15.03097
G1 X112.766 Y109.999 E15.07016
G1 X112.671 Y109.279 E15.1094
G1 X112.396 Y108.617 E15.14813
G1 X111.958 Y108.045 E15.18706
G1 X111.381 Y107.602 E15.22636
G1 X110.718 Y107.327 E15.26514
G1 X110 Y107.232 E15.30428
G1 X109.282 Y107.327 E15.34341
G1 X108.617 Y107.602 E15.38229
G1 X108.042 Y108.044 E15.42148
G1 X107.602 Y108.619 E15.4606
G1 X107.328 Y109.276 E15.49906
G1 X107.232 Y110.001 E15.53857
G1 X107.328 Y110.72 E15.57777
G1 X107.602 Y111.379 E15.61633
G1 X108.042 Y111.954 E15.65545
G1 X108.617 Y112.396 E15.69463
M205 X5 Y5
G0 F7500 X108.801 Y112.472
G0 X109.068 Y111.828
G0 X109.462 Y112.003
G0 X110.001 Y112.075
G0 X110.538 Y112.003
G0 X111.034 Y111.797
G0 X111.467 Y111.466
G0 X111.795 Y111.036
G0 X112.002 Y110.539
G0 X112.074 Y110.001
G0 X112.003 Y109.459
G0 X111.887 Y109.179
G0 X111.461 Y108.455
G0 X111.356 Y108.591
M205 X8 Y8
;TYPE:SKIN
G1 F1500 X110.972 Y108.308 E15.72041
G1 X110.508 Y108.115 E15.74756
G1 X109.999 Y108.048 E15.7753
G1 X109.49 Y108.115 E15.80304
G1 X109.028 Y108.306 E15.83005
G1 X108.617 Y108.621 E15.85803
G1 X108.306 Y109.03 E15.88579
G1 X108.116 Y109.485 E15.91243
G1 X108.048 Y110.002 E15.94061
G1 X108.116 Y110.509 E15.96825
G1 X108.306 Y110.968 E15.99509
G1 X108.618 Y111.376 E16.02284
G1 X109.028 Y111.692 E16.05081
G1 X109.492 Y111.883 E16.07792
G1 X110.001 Y111.951 E16.10567
G1 X110.508 Y111.883 E16.1333
G1 X110.97 Y111.692 E16.16032
G1 X111.382 Y111.377 E16.18834
G1 X111.69 Y110.972 E16.21583
G1 X111.882 Y110.508 E16.24296
G1 X111.951 Y109.998 E16.27077
G1 X111.883 Y109.488 E16.29857
G1 X111.692 Y109.028 E16.32548
G1 X111.356 Y108.591 E16.35526
M205 X5 Y5
G0 F7500 X111.461 Y108.455
G0 X111.815 Y109.065
G0 X112.097 Y109.755
G0 X111.695 Y109.786
M205 X8 Y8
G1 F1500 X110.213 Y108.304 E16.46851
M205 X5 Y5
G0 F7500 X109.6 Y108.327
M205 X8 Y8
G1 F1500 X111.669 Y110.397 E16.62664
M205 X5 Y5
G0 F7500 X111.493 Y110.857
M205 X8 Y8
G1 F1500 X109.139 Y108.503 E16.80651
M205 X5 Y5
G0 F7500 X108.78 Y108.78
M205 X8 Y8
G1 F1500 X111.217 Y111.217 E16.99273
M205 X5 Y5
G0 F7500 X110.857 Y111.493
M205 X8 Y8
G1 F1500 X108.503 Y109.139 E17.1726
M205 X5 Y5
G0 F7500 X108.327 Y109.6
M205 X8 Y8
G1 F1500 X110.397 Y111.669 E17.33073
M205 X5 Y5
G0 F7500 X109.785 Y111.694
M104 S210
M205 X8 Y8
G1 F1500 X108.303 Y110.212 E17.44397
M205 X5 Y5
;MESH:NONMESH
G0 F600 X108.303 Y110.212 Z0.6
G0 F7500 X107.901 Y110.286
G0 X107.996 Y109.456
G0 X108.201 Y108.965
G0 X108.468 Y108.615
G0 X108.968 Y108.211
G0 X108.782 Y107.885
;TIME_ELAPSED:19.955161
;LAYER:1
M140 S40
M106 S85
M205 X14 Y14
;TYPE:WALL-INNER
;MESH:gripbolt.stl
G1 F771.4 X108.274 Y108.275 E17.47939
G1 X107.887 Y108.783 E17.5147
G1 X107.644 Y109.364 E17.54952
G1 X107.561 Y110.001 E17.58504
G1 X107.602 Y110.314 E17.6025
G1 X107.643 Y110.632 E17.62023
G1 X107.887 Y111.215 E17.65517
G1 X108.275 Y111.723 E17.69052
G1 X108.783 Y112.113 E17.72593
G1 X109.368 Y112.355 E17.76094
G1 X109.999 Y112.439 E17.79614
G1 X110.631 Y112.355 E17.83139
G1 X111.215 Y112.113 E17.86635
G1 X111.724 Y111.723 E17.9018
G1 X112.111 Y111.217 E17.93703
G1 X112.353 Y110.633 E17.97198
G1 X112.437 Y110 E18.00729
G1 X112.355 Y109.364 E18.04275
G1 X112.113 Y108.782 E18.0776
G1 X111.724 Y108.278 E18.11281
G1 X111.216 Y107.885 E18.14832
G1 X110.633 Y107.644 E18.18321
G1 X110 Y107.561 E18.21851
G1 X109.367 Y107.644 E18.25381
G1 X108.782 Y107.885 E18.28879
M205 X12.5 Y12.5
G1 F2400 E16.28879
G0 F8250 X108.894 Y108.08
G0 X108.425 Y108.425
G0 X108.071 Y108.89
G0 X107.849 Y109.42
G0 X107.773 Y110.001
G0 X107.849 Y110.576
G0 X108.071 Y111.109
G0 X108.358 Y111.484
G0 X108.894 Y111.918
G1 F1200 E18.28879
G0 F8250 X108.543 Y112.528
M205 X14 Y14
;TYPE:WALL-OUTER
G1 F642.9 X109.243 Y112.817 E18.32648
G1 X109.999 Y112.918 E18.36444
G1 X110.756 Y112.817 E18.40244
G1 X111.455 Y112.528 E18.44009
G1 X112.064 Y112.061 E18.47828
G1 X112.527 Y111.455 E18.51623
G1 X112.817 Y110.757 E18.55385
G1 X112.918 Y109.999 E18.5919
G1 X112.817 Y109.24 E18.63001
G1 X112.528 Y108.543 E18.66756
G1 X112.064 Y107.938 E18.7055
G1 X111.455 Y107.47 E18.74372
G1 X110.757 Y107.181 E18.78132
G1 X110 Y107.081 E18.81932
G1 X109.243 Y107.181 E18.85732
G1 X108.543 Y107.47 E18.89501
G1 X107.935 Y107.937 E18.93316
G1 X107.472 Y108.543 E18.97111
G1 X107.181 Y109.239 E19.00865
G1 X107.081 Y110.001 E19.0469
G1 X107.131 Y110.375 E19.06568
G1 X107.181 Y110.757 E19.08485
G1 X107.472 Y111.455 E19.12248
G1 X107.935 Y112.061 E19.16044
G1 X108.543 Y112.528 E19.19859
M205 X12.5 Y12.5
G0 F8250 X108.727 Y112.604
G0 X108.995 Y111.959
G0 X108.426 Y111.573
G0 X108.071 Y111.109
G0 X107.849 Y110.576
G0 X107.773 Y110.001
G0 X107.849 Y109.42
G0 X108.071 Y108.89
G0 X108.271 Y108.627
G0 X108.884 Y108.006
G0 X108.953 Y108.175
M205 X14 Y14
;TYPE:SKIN
G1 F600 X108.51 Y108.514 E19.22635
G1 X108.176 Y108.954 E19.25384
G1 X107.969 Y109.449 E19.28054
G1 X107.896 Y110.002 E19.3083
G1 X107.969 Y110.546 E19.33562
G1 X108.176 Y111.044 E19.36246
G1 X108.512 Y111.484 E19.39001
G1 X108.954 Y111.823 E19.41773
G1 X109.453 Y112.029 E19.44459
G1 X109.999 Y112.103 E19.47201
G1 X110.545 Y112.029 E19.49943
G1 X111.044 Y111.823 E19.5263
G1 X111.488 Y111.484 E19.5541
G1 X111.821 Y111.047 E19.58144
G1 X112.026 Y110.549 E19.60824
G1 X112.101 Y109.998 E19.63592
G1 X112.03 Y109.447 E19.66356
G1 X111.824 Y108.954 E19.69015
G1 X111.488 Y108.518 E19.71755
G1 X111.045 Y108.175 E19.74543
G1 X110.548 Y107.969 E19.7722
G1 X110.001 Y107.897 E19.79966
G1 X109.452 Y107.969 E19.82722
G1 X108.953 Y108.175 E19.85408
M205 X12.5 Y12.5
G0 F8250 X108.884 Y108.006
G0 X108.366 Y108.537
G0 X107.848 Y109.266
G0 X108.223 Y109.424
M205 X14 Y14
G1 F600 X109.424 Y108.223 E19.93861
M205 X12.5 Y12.5
G0 F8250 X110.141 Y108.142
M205 X14 Y14
G1 F600 X108.142 Y110.141 E20.07929
M205 X12.5 Y12.5
G0 F8250 X108.26 Y110.659
M205 X14 Y14
G1 F600 X110.661 Y108.258 E20.24827
M205 X12.5 Y12.5
G0 F8250 X111.074 Y108.482
M205 X14 Y14
G1 F600 X108.482 Y111.073 E20.43066
M205 X12.5 Y12.5
G0 F8250 X108.784 Y111.408
M205 X14 Y14
G1 F600 X111.408 Y108.784 E20.61534
M205 X12.5 Y12.5
G0 F8250 X111.666 Y109.163
M205 X14 Y14
G1 F600 X109.163 Y111.665 E20.79146
M205 X12.5 Y12.5
G0 F8250 X109.639 Y111.826
M205 X14 Y14
G1 F600 X111.826 Y109.639 E20.94538
M205 X12.5 Y12.5
G0 F8250 X111.836 Y110.265
M205 X14 Y14
G1 F600 X110.261 Y111.84 E21.05623
M205 X12.5 Y12.5
;MESH:NONMESH
G0 X110.261 Y111.84 Z0.88
G0 F8250 X110.314 Y112.245
G0 X109.423 Y112.149
G0 X108.89 Y111.928
G0 X108.426 Y111.573
G0 X108.071 Y111.109
G0 X107.849 Y110.576
G0 X107.773 Y110.001
G0 X107.849 Y109.42
G0 X108.071 Y108.89
G0 X108.357 Y108.514
G0 X108.894 Y108.08
G0 X108.782 Y107.885
;TIME_ELAPSED:28.220304
;LAYER:2
M106 S170
M205 X20 Y20
;TYPE:WALL-INNER
;MESH:gripbolt.stl
G1 F866.7 X108.274 Y108.275 E21.09164
G1 X107.887 Y108.783 E21.12695
G1 X107.644 Y109.364 E21.16177
G1 X107.561 Y110.001 E21.19729
G1 X107.643 Y110.632 E21.23248
G1 X107.887 Y111.215 E21.26743
G1 X108.275 Y111.723 E21.30277
G1 X108.783 Y112.113 E21.33818
G1 X109.368 Y112.355 E21.37319
G1 X109.999 Y112.439 E21.40839
G1 X110.631 Y112.355 E21.44364
G1 X111.215 Y112.113 E21.4786
G1 X111.724 Y111.723 E21.51406
G1 X112.111 Y111.217 E21.54928
G1 X112.353 Y110.633 E21.58423
G1 X112.437 Y110 E21.61954
G1 X112.355 Y109.364 E21.655
G1 X112.113 Y108.782 E21.68985
G1 X111.724 Y108.278 E21.72506
G1 X111.216 Y107.885 E21.76057
G1 X110.633 Y107.644 E21.79546
G1 X110 Y107.561 E21.83076
G1 X109.367 Y107.644 E21.86606
G1 X108.782 Y107.885 E21.90104
G1 F2400 E19.90104
G0 F9000 X108.894 Y108.08
G0 X108.425 Y108.425
G0 X108.071 Y108.89
G0 X107.849 Y109.42
G0 X107.773 Y110.001
G0 X107.849 Y110.576
G0 X108.071 Y111.109
G0 X108.358 Y111.484
G0 X108.894 Y111.918
G1 F1200 E21.90104
G0 F9000 X108.543 Y112.528
;TYPE:WALL-OUTER
G1 F666.7 X109.243 Y112.817 E21.93873
G1 X109.999 Y112.918 E21.97669
G1 X110.756 Y112.817 E22.01469
G1 X111.455 Y112.528 E22.05234
G1 X112.064 Y112.061 E22.09053
G1 X112.527 Y111.455 E22.12848
G1 X112.817 Y110.757 E22.1661
G1 X112.918 Y109.999 E22.20415
G1 X112.817 Y109.24 E22.24226
G1 X112.528 Y108.543 E22.27981
G1 X112.064 Y107.938 E22.31775
G1 X111.455 Y107.47 E22.35597
G1 X110.757 Y107.181 E22.39357
G1 X110 Y107.081 E22.43157
G1 X109.243 Y107.181 E22.46957
G1 X108.543 Y107.47 E22.50726
G1 X107.935 Y107.937 E22.54541
G1 X107.472 Y108.543 E22.58336
G1 X107.181 Y109.239 E22.6209
G1 X107.081 Y110.001 E22.65915
G1 X107.181 Y110.757 E22.6971
G1 X107.472 Y111.455 E22.73474
G1 X107.935 Y112.061 E22.77269
G1 X108.543 Y112.528 E22.81084
G0 F9000 X108.727 Y112.604
G0 X108.995 Y111.959
G0 X108.426 Y111.573
G0 X108.071 Y111.109
G0 X107.849 Y110.576
G0 X107.773 Y110.001
G0 X107.849 Y109.42
G0 X108.071 Y108.89
G0 X108.271 Y108.627
G0 X108.884 Y108.006
G0 X108.953 Y108.175
;TYPE:SKIN
G1 F600 X108.51 Y108.514 E22.8386
G1 X108.176 Y108.954 E22.86609
G1 X107.969 Y109.449 E22.89279
G1 X107.896 Y110.002 E22.92055
G1 X107.969 Y110.546 E22.94787
G1 X108.176 Y111.044 E22.97471
G1 X108.512 Y111.484 E23.00226
G1 X108.954 Y111.823 E23.02998
G1 X109.453 Y112.029 E23.05684
G1 X109.999 Y112.103 E23.08426
G1 X110.545 Y112.029 E23.11169
G1 X111.044 Y111.823 E23.13855
G1 X111.488 Y111.484 E23.16635
G1 X111.821 Y111.047 E23.19369
G1 X112.026 Y110.549 E23.22049
G1 X112.101 Y109.998 E23.24817
G1 X112.03 Y109.447 E23.27582
G1 X111.824 Y108.954 E23.30241
G1 X111.488 Y108.518 E23.3298
G1 X111.045 Y108.175 E23.35768
G1 X110.548 Y107.969 E23.38445
G1 X110.001 Y107.897 E23.41191
G1 X109.452 Y107.969 E23.43947
G1 X108.953 Y108.175 E23.46633
G0 F9000 X108.884 Y108.006
G0 X109.688 Y107.824
G0 X110 Y107.773
G0 X110.578 Y107.849
G0 X111.11 Y108.07
G0 X111.371 Y108.273
G0 X112.015 Y108.936
G0 X111.638 Y109.092
G1 F600 X110.906 Y108.36 E23.51785
G0 F9000 X110.037 Y108.128
G1 F600 X111.869 Y109.96 E23.64678
G0 F9000 X111.793 Y110.52
G1 F600 X109.475 Y108.202 E23.80992
G0 F9000 X109.033 Y108.396
G1 F600 X111.601 Y110.964 E23.99066
G0 F9000 X111.324 Y111.324
G1 F600 X108.673 Y108.673 E24.17723
G0 F9000 X108.397 Y109.033
G1 F600 X110.963 Y111.599 E24.35782
G0 F9000 X110.521 Y111.794
G1 F600 X108.201 Y109.474 E24.5211
G0 F9000 X108.127 Y110.036
G1 F600 X109.96 Y111.869 E24.65011
G0 F9000 X109.088 Y111.633
G1 F600 X108.364 Y110.91 E24.70103
;MESH:NONMESH
G0 X108.364 Y110.91 Z1.16
G0 F9000 X107.987 Y111.067
G0 X107.811 Y110.286
G0 X107.812 Y109.71
G0 X107.849 Y109.42
G0 X108.071 Y108.89
G0 X108.357 Y108.514
G0 X108.894 Y108.08
G0 X108.782 Y107.885
;TIME_ELAPSED:36.321657
;LAYER:3
M106 S255
;TYPE:WALL-INNER
;MESH:gripbolt.stl
G1 F780 X108.274 Y108.275 E24.73644
G1 X107.887 Y108.783 E24.77175
G1 X107.644 Y109.364 E24.80657
G1 X107.561 Y110.001 E24.8421
G1 X107.643 Y110.632 E24.87728
G1 X107.887 Y111.215 E24.91223
G1 X108.275 Y111.723 E24.94757
G1 X108.783 Y112.113 E24.98299
G1 X109.368 Y112.355 E25.01799
G1 X109.999 Y112.439 E25.05319
G1 X110.631 Y112.355 E25.08844
G1 X111.215 Y112.113 E25.1234
G1 X111.724 Y111.723 E25.15886
G1 X112.111 Y111.217 E25.19408
G1 X112.353 Y110.633 E25.22904
G1 X112.437 Y110 E25.26434
G1 X112.355 Y109.364 E25.2998
G1 X112.113 Y108.782 E25.33466
G1 X111.724 Y108.278 E25.36986
G1 X111.216 Y107.885 E25.40537
G1 X110.633 Y107.644 E25.44026
G1 X110 Y107.561 E25.47556
G1 X109.367 Y107.644 E25.51086
G1 X108.782 Y107.885 E25.54584
G1 F2400 E23.54584
G0 F9000 X108.894 Y108.08
G0 X108.894 Y111.918
G1 F1200 E25.54584
G0 F9000 X108.543 Y112.528
;TYPE:WALL-OUTER
G1 F600 X109.243 Y112.817 E25.58353
G1 X109.999 Y112.918 E25.62149
G1 X110.756 Y112.817 E25.6595
G1 X111.455 Y112.528 E25.69714
G1 X112.064 Y112.061 E25.73533
G1 X112.527 Y111.455 E25.77328
G1 X112.817 Y110.757 E25.8109
G1 X112.918 Y109.999 E25.84895
G1 X112.817 Y109.24 E25.88706
G1 X112.528 Y108.543 E25.92461
G1 X112.064 Y107.938 E25.96255
G1 X111.455 Y107.47 E26.00077
G1 X110.757 Y107.181 E26.03837
G1 X110 Y107.081 E26.07637
G1 X109.243 Y107.181 E26.11437
G1 X108.543 Y107.47 E26.15206
G1 X107.935 Y107.937 E26.19021
G1 X107.472 Y108.543 E26.22816
G1 X107.181 Y109.239 E26.26571
G1 X107.081 Y110.001 E26.30395
G1 X107.181 Y110.757 E26.3419
G1 X107.472 Y111.455 E26.37954
G1 X107.935 Y112.061 E26.41749
G1 X108.543 Y112.528 E26.45564
G0 F9000 X108.727 Y112.604
G0 X108.688 Y111.723
;TYPE:FILL
G1 F720 X109.726 Y107.847 E26.70858
G0 F9000 X109.159 Y107.999
G1 F720 X111.996 Y110.836 E26.96149
G0 F9000 X112.146 Y110.272
G1 F720 X108.273 Y111.31 E27.21424
G0 F9000 X108.57 Y111.084
;MESH:NONMESH
G0 F600 X108.57 Y111.084 Z1.44
G0 F9000 X108.894 Y108.08
G0 X108.782 Y107.885
;TIME_ELAPSED:41.209565
;LAYER:4
;TYPE:WALL-INNER
;MESH:gripbolt.stl
G1 F780 X108.274 Y108.275 E27.24966
G1 X107.887 Y108.783 E27.28497
G1 X107.644 Y109.364 E27.31979
G1 X107.561 Y110.001 E27.35531
G1 X107.643 Y110.632 E27.3905
G1 X107.887 Y111.215 E27.42545
G1 X108.275 Y111.723 E27.46079
G1 X108.783 Y112.113 E27.4962
G1 X109.368 Y112.355 E27.53121
G1 X109.999 Y112.439 E27.56641
G1 X110.631 Y112.355 E27.60166
G1 X111.215 Y112.113 E27.63662
G1 X111.724 Y111.723 E27.67208
G1 X112.111 Y111.217 E27.7073
G1 X112.353 Y110.633 E27.74225
G1 X112.437 Y110 E27.77756
G1 X112.355 Y109.364 E27.81302
G1 X112.113 Y108.782 E27.84787
G1 X111.724 Y108.278 E27.88308
G1 X111.216 Y107.885 E27.91859
G1 X110.633 Y107.644 E27.95348
G1 X110 Y107.561 E27.98878
G1 X109.367 Y107.644 E28.02408
G1 X108.782 Y107.885 E28.05906
G1 F2400 E26.05906
G0 F9000 X108.894 Y108.08
G0 X108.894 Y111.918
G1 F1200 E28.05906
G0 F9000 X108.543 Y112.528
;TYPE:WALL-OUTER
G1 F600 X109.243 Y112.817 E28.09675
G1 X109.999 Y112.918 E28.13471
G1 X110.756 Y112.817 E28.17271
G1 X111.455 Y112.528 E28.21036
G1 X112.064 Y112.061 E28.24855
G1 X112.527 Y111.455 E28.2865
G1 X112.817 Y110.757 E28.32412
G1 X112.918 Y109.999 E28.36217
G1 X112.817 Y109.24 E28.40028
G1 X112.528 Y108.543 E28.43783
G1 X112.064 Y107.938 E28.47577
G1 X111.455 Y107.47 E28.51399
G1 X110.757 Y107.181 E28.55159
G1 X110 Y107.081 E28.58959
G1 X109.243 Y107.181 E28.62759
G1 X108.543 Y107.47 E28.66528
G1 X107.935 Y107.937 E28.70343
G1 X107.472 Y108.543 E28.74138
G1 X107.181 Y109.239 E28.77892
G1 X107.081 Y110.001 E28.81717
G1 X107.181 Y110.757 E28.85512
G1 X107.472 Y111.455 E28.89276
G1 X107.935 Y112.061 E28.93071
G1 X108.543 Y112.528 E28.96886
G0 F9000 X108.727 Y112.604
G0 X108.995 Y111.959
G0 X108.518 Y111.593
;TYPE:FILL
G1 F720 X109.514 Y107.875 E29.21149
G1 X109.357 Y107.917
G1 X112.078 Y110.638 E29.45406
G1 X112.118 Y110.485
G1 X108.404 Y111.48 E29.69643
G0 F9000 X108.701 Y111.254
;MESH:NONMESH
G0 F600 X108.701 Y111.254 Z1.72
G0 F9000 X108.894 Y108.08
G0 X108.782 Y107.885
;TIME_ELAPSED:45.989112
;LAYER:5
;TYPE:WALL-INNER
;MESH:gripbolt.stl
G1 F780 X108.274 Y108.275 E29.73185
G1 X107.887 Y108.783 E29.76716
G1 X107.644 Y109.364 E29.80198
G1 X107.561 Y110.001 E29.8375
G1 X107.643 Y110.632 E29.87269
G1 X107.887 Y111.215 E29.90763
G1 X108.275 Y111.723 E29.94298
G1 X108.783 Y112.113 E29.97839
G1 X109.368 Y112.355 E30.0134
G1 X109.999 Y112.439 E30.0486
G1 X110.631 Y112.355 E30.08385
G1 X111.215 Y112.113 E30.11881
G1 X111.724 Y111.723 E30.15426
G1 X112.111 Y111.217 E30.18949
G1 X112.353 Y110.633 E30.22444
G1 X112.437 Y110 E30.25975
G1 X112.355 Y109.364 E30.29521
G1 X112.113 Y108.782 E30.33006
G1 X111.724 Y108.278 E30.36527
G1 X111.216 Y107.885 E30.40078
G1 X110.633 Y107.644 E30.43567
G1 X110 Y107.561 E30.47097
G1 X109.367 Y107.644 E30.50627
G1 X108.782 Y107.885 E30.54125
G1 F2400 E28.54125
G0 F9000 X108.894 Y108.08
G0 X108.894 Y111.918
G1 F1200 E30.54125
G0 F9000 X108.543 Y112.528
;TYPE:WALL-OUTER
G1 F600 X109.243 Y112.817 E30.57894
G1 X109.999 Y112.918 E30.6169
G1 X110.756 Y112.817 E30.6549
G1 X111.455 Y112.528 E30.69255
G1 X112.064 Y112.061 E30.73074
G1 X112.527 Y111.455 E30.76869
G1 X112.817 Y110.757 E30.80631
G1 X112.918 Y109.999 E30.84436
G1 X112.817 Y109.24 E30.88247
G1 X112.528 Y108.543 E30.92002
G1 X112.064 Y107.938 E30.95796
G1 X111.455 Y107.47 E30.99618
G1 X110.757 Y107.181 E31.03378
G1 X110 Y107.081 E31.07178
G1 X109.243 Y107.181 E31.10978
G1 X108.543 Y107.47 E31.14747
G1 X107.935 Y107.937 E31.18562
G1 X107.472 Y108.543 E31.22357
G1 X107.181 Y109.239 E31.26111
G1 X107.081 Y110.001 E31.29936
G1 X107.181 Y110.757 E31.33731
G1 X107.472 Y111.455 E31.37495
G1 X107.935 Y112.061 E31.4129
G1 X108.543 Y112.528 E31.45105
G0 F9000 X108.727 Y112.604
G0 X108.576 Y111.639
;TYPE:FILL
G1 F720 X112.048 Y110.709 E31.67763
G0 F9000 X112.128 Y110.409
G1 F720 X109.586 Y107.867 E31.90424
G0 F9000 X109.291 Y107.943
G1 F720 X108.359 Y111.421 E32.13121
G0 F9000 X108.656 Y111.195
;MESH:NONMESH
G0 F600 X108.656 Y111.195 Z2
G0 F9000 X108.894 Y108.08
G0 X108.782 Y107.885
;TIME_ELAPSED:50.747544
;LAYER:6
;TYPE:WALL-INNER
;MESH:gripbolt.stl
G1 F780 X108.274 Y108.275 E32.16663
G1 X107.887 Y108.783 E32.20194
G1 X107.644 Y109.364 E32.23676
G1 X107.561 Y110.001 E32.27228
G1 X107.643 Y110.632 E32.30747
G1 X107.887 Y111.215 E32.34241
G1 X108.275 Y111.723 E32.37776
G1 X108.783 Y112.113 E32.41317
G1 X109.368 Y112.355 E32.44818
G1 X109.999 Y112.439 E32.48338
G1 X110.631 Y112.355 E32.51863
G1 X111.215 Y112.113 E32.55359
G1 X111.724 Y111.723 E32.58904
G1 X112.111 Y111.217 E32.62427
G1 X112.353 Y110.633 E32.65922
G1 X112.437 Y110 E32.69453
G1 X112.355 Y109.364 E32.72999
G1 X112.113 Y108.782 E32.76484
G1 X111.724 Y108.278 E32.80005
G1 X111.216 Y107.885 E32.83556
G1 X110.633 Y107.644 E32.87045
G1 X110 Y107.561 E32.90575
G1 X109.367 Y107.644 E32.94105
G1 X108.782 Y107.885 E32.97603
G1 F2400 E30.97603
G0 F9000 X108.894 Y108.08
G0 X108.894 Y111.918
G1 F1200 E32.97603
G0 F9000 X108.543 Y112.528
;TYPE:WALL-OUTER
G1 F600 X109.243 Y112.817 E33.01372
G1 X109.999 Y112.918 E33.05168
G1 X110.756 Y112.817 E33.08968
G1 X111.455 Y112.528 E33.12733
G1 X112.064 Y112.061 E33.16552
G1 X112.527 Y111.455 E33.20347
G1 X112.817 Y110.757 E33.24109
G1 X112.918 Y109.999 E33.27914
G1 X112.817 Y109.24 E33.31725
G1 X112.528 Y108.543 E33.3548
G1 X112.064 Y107.938 E33.39274
G1 X111.455 Y107.47 E33.43096
G1 X110.757 Y107.181 E33.46856
G1 X110 Y107.081 E33.50656
G1 X109.243 Y107.181 E33.54456
G1 X108.543 Y107.47 E33.58225
G1 X107.935 Y107.937 E33.6204
G1 X107.472 Y108.543 E33.65835
G1 X107.181 Y109.239 E33.69589
G1 X107.081 Y110.001 E33.73414
G1 X107.181 Y110.757 E33.77209
G1 X107.472 Y111.455 E33.80972
G1 X107.935 Y112.061 E33.84768
G1 X108.543 Y112.528 E33.88583
G0 F9000 X108.727 Y112.604
G0 X108.774 Y111.791
;TYPE:FILL
G1 F720 X111.952 Y110.939 E34.09323
G0 F9000 X112.161 Y110.162
G1 F720 X109.834 Y107.835 E34.30068
G0 F9000 X109.06 Y108.039
G1 F720 X108.207 Y111.222 E34.5084
G0 F9000 X108.504 Y110.997
;MESH:NONMESH
G0 F600 X108.504 Y110.997 Z2.28
G0 F9000 X108.894 Y108.08
G0 X108.782 Y107.885
;TIME_ELAPSED:55.470740
;LAYER:7
;TYPE:WALL-INNER
;MESH:gripbolt.stl
G1 F780 X108.274 Y108.275 E34.54382
G1 X107.887 Y108.783 E34.57913
G1 X107.644 Y109.364 E34.61395
G1 X107.561 Y110.001 E34.64947
G1 X107.643 Y110.632 E34.68466
G1 X107.887 Y111.215 E34.7196
G1 X108.275 Y111.723 E34.75495
G1 X108.783 Y112.113 E34.79036
G1 X109.368 Y112.355 E34.82537
G1 X109.999 Y112.439 E34.86057
G1 X110.631 Y112.355 E34.89582
G1 X111.215 Y112.113 E34.93078
G1 X111.724 Y111.723 E34.96623
G1 X112.111 Y111.217 E35.00146
G1 X112.353 Y110.633 E35.03641
G1 X112.437 Y110 E35.07172
G1 X112.355 Y109.364 E35.10718
G1 X112.113 Y108.782 E35.14203
G1 X111.724 Y108.278 E35.17724
G1 X111.216 Y107.885 E35.21275
G1 X110.633 Y107.644 E35.24763
G1 X110 Y107.561 E35.28293
G1 X109.367 Y107.644 E35.31824
G1 X108.782 Y107.885 E35.35322
G1 F2400 E33.35322
G0 F9000 X108.894 Y108.08
G0 X108.894 Y111.918
G1 F1200 E35.35322
G0 F9000 X108.543 Y112.528
;TYPE:WALL-OUTER
G1 F600 X109.243 Y112.817 E35.39091
G1 X109.999 Y112.918 E35.42887
G1 X110.756 Y112.817 E35.46687
G1 X111.455 Y112.528 E35.50451
G1 X112.064 Y112.061 E35.54271
G1 X112.527 Y111.455 E35.58066
G1 X112.817 Y110.757 E35.61827
G1 X112.918 Y109.999 E35.65633
G1 X112.817 Y109.24 E35.69443
G1 X112.528 Y108.543 E35.73198
G1 X112.064 Y107.938 E35.76993
G1 X111.455 Y107.47 E35.80815
G1 X110.757 Y107.181 E35.84575
G1 X110 Y107.081 E35.88375
G1 X109.243 Y107.181 E35.92175
G1 X108.543 Y107.47 E35.95943
G1 X107.935 Y107.937 E35.99759
G1 X107.472 Y108.543 E36.03554
G1 X107.181 Y109.239 E36.07308
G1 X107.081 Y110.001 E36.11133
G1 X107.181 Y110.757 E36.14928
G1 X107.472 Y111.455 E36.18691
G1 X107.935 Y112.061 E36.22487
G1 X108.543 Y112.528 E36.26302
G0 F9000 X108.727 Y112.604
G0 X109.005 Y111.934
;TYPE:FILL
G1 F720 X111.822 Y111.179 E36.44686
G0 F9000 X112.169 Y109.89
G1 F720 X110.107 Y107.827 E36.63072
G0 F9000 X108.82 Y108.169
G1 F720 X108.064 Y110.991 E36.81488
G0 F9000 X108.41 Y110.849
;MESH:NONMESH
G0 F600 X108.41 Y110.849 Z2.56
G0 F9000 X108.894 Y108.08
G0 X108.782 Y107.885
;TIME_ELAPSED:60.134304
;LAYER:8
;TYPE:WALL-INNER
;MESH:gripbolt.stl
G1 F780 X108.274 Y108.275 E36.8503
G1 X107.887 Y108.783 E36.88561
G1 X107.644 Y109.364 E36.92043
G1 X107.561 Y110.001 E36.95595
G1 X107.643 Y110.632 E36.99114
G1 X107.887 Y111.215 E37.02609
G1 X108.275 Y111.723 E37.06143
G1 X108.783 Y112.113 E37.09684
G1 X109.368 Y112.355 E37.13185
G1 X109.999 Y112.439 E37.16705
G1 X110.631 Y112.355 E37.2023
G1 X111.215 Y112.113 E37.23726
G1 X111.724 Y111.723 E37.27271
G1 X112.111 Y111.217 E37.30794
G1 X112.353 Y110.633 E37.34289
G1 X112.437 Y110 E37.3782
G1 X112.355 Y109.364 E37.41366
G1 X112.113 Y108.782 E37.44851
G1 X111.724 Y108.278 E37.48372
G1 X111.216 Y107.885 E37.51923
G1 X110.633 Y107.644 E37.55412
G1 X110 Y107.561 E37.58942
G1 X109.367 Y107.644 E37.62472
G1 X108.782 Y107.885 E37.6597
G1 F2400 E35.6597
G0 F9000 X108.894 Y108.08
G0 X108.894 Y111.918
G1 F1200 E37.6597
G0 F9000 X108.543 Y112.528
;TYPE:WALL-OUTER
G1 F600 X109.243 Y112.817 E37.69739
G1 X109.999 Y112.918 E37.73535
G1 X110.756 Y112.817 E37.77335
G1 X111.455 Y112.528 E37.811
G1 X112.064 Y112.061 E37.84919
G1 X112.527 Y111.455 E37.88714
G1 X112.817 Y110.757 E37.92476
G1 X112.918 Y109.999 E37.96281
G1 X112.817 Y109.24 E38.00092
G1 X112.528 Y108.543 E38.03847
G1 X112.064 Y107.938 E38.07641
G1 X111.455 Y107.47 E38.11463
G1 X110.757 Y107.181 E38.15223
G1 X110 Y107.081 E38.19023
G1 X109.243 Y107.181 E38.22823
G1 X108.543 Y107.47 E38.26592
G1 X107.935 Y107.937 E38.30407
G1 X107.472 Y108.543 E38.34202
G1 X107.181 Y109.239 E38.37956
G1 X107.081 Y110.001 E38.41781
G1 X107.181 Y110.757 E38.45576
G1 X107.472 Y111.455 E38.4934
G1 X107.935 Y112.061 E38.53135
G1 X108.543 Y112.528 E38.5695
G0 F9000 X108.727 Y112.604
G0 X109.305 Y112.058
;TYPE:FILL
G1 F720 X111.626 Y111.437 E38.72095
G0 F9000 X112.128 Y109.569
G1 F720 X110.429 Y107.869 E38.87246
G0 F9000 X108.562 Y108.367
G1 F720 X107.939 Y110.692 E39.02419
G0 F9000 X108.285 Y110.549
;MESH:NONMESH
G0 F600 X108.285 Y110.549 Z2.84
G0 F9000 X108.894 Y108.08
G0 X108.782 Y107.885
;TIME_ELAPSED:64.703549
;LAYER:9
;TYPE:WALL-INNER
;MESH:gripbolt.stl
G1 F780 X108.274 Y108.275 E39.0596
G1 X107.887 Y108.783 E39.09491
G1 X107.644 Y109.364 E39.12974
G1 X107.561 Y110.001 E39.16526
G1 X107.643 Y110.632 E39.20044
G1 X107.887 Y111.215 E39.23539
G1 X108.275 Y111.723 E39.27073
G1 X108.783 Y112.113 E39.30615
G1 X109.368 Y112.355 E39.34115
G1 X109.999 Y112.439 E39.37635
G1 X110.631 Y112.355 E39.41161
G1 X111.215 Y112.113 E39.44656
G1 X111.724 Y111.723 E39.48202
G1 X112.111 Y111.217 E39.51724
G1 X112.353 Y110.633 E39.5522
G1 X112.437 Y110 E39.58751
G1 X112.355 Y109.364 E39.62297
G1 X112.113 Y108.782 E39.65782
G1 X111.724 Y108.278 E39.69302
G1 X111.216 Y107.885 E39.72854
G1 X110.633 Y107.644 E39.76342
G1 X110 Y107.561 E39.79872
G1 X109.367 Y107.644 E39.83402
G1 X108.782 Y107.885 E39.86901
G1 F2400 E37.86901
G0 F9000 X108.894 Y108.08
G0 X108.894 Y111.918
G1 F1200 E39.86901
G0 F9000 X108.543 Y112.528
;TYPE:WALL-OUTER
G1 F600 X109.243 Y112.817 E39.9067
G1 X109.999 Y112.918 E39.94465
G1 X110.756 Y112.817 E39.98266
G1 X111.455 Y112.528 E40.0203
G1 X112.064 Y112.061 E40.05849
G1 X112.527 Y111.455 E40.09645
G1 X112.817 Y110.757 E40.13406
G1 X112.918 Y109.999 E40.17212
G1 X112.817 Y109.24 E40.21022
G1 X112.528 Y108.543 E40.24777
G1 X112.064 Y107.938 E40.28571
G1 X111.455 Y107.47 E40.32394
G1 X110.757 Y107.181 E40.36153
G1 X110 Y107.081 E40.39953
G1 X109.243 Y107.181 E40.43753
G1 X108.543 Y107.47 E40.47522
G1 X107.935 Y107.937 E40.51337
G1 X107.472 Y108.543 E40.55133
G1 X107.181 Y109.239 E40.58887
G1 X107.081 Y110.001 E40.62711
G1 X107.181 Y110.757 E40.66507
G1 X107.472 Y111.455 E40.7027
G1 X107.935 Y112.061 E40.74065
G1 X108.543 Y112.528 E40.7788
G0 F9000 X108.727 Y112.604
G0 X108.995 Y111.959
G0 X109.727 Y112.15
;TYPE:FILL
G1 F720 X111.305 Y111.728 E40.88177
G0 F9000 X111.999 Y109.159
G1 F720 X110.841 Y108.001 E40.985
G0 F9000 X108.271 Y108.69
G1 F720 X107.847 Y110.269 E41.08806
G0 F9000 X108.219 Y110.223
;MESH:NONMESH
G0 F600 X108.219 Y110.223 Z3.12
G0 F9000 X108.894 Y108.08
G0 X108.782 Y107.885
;TIME_ELAPSED:69.150335
;LAYER:10
;TYPE:WALL-INNER
;MESH:gripbolt.stl
G1 F780 X108.274 Y108.275 E41.12348
G1 X107.887 Y108.783 E41.15879
G1 X107.644 Y109.364 E41.19361
G1 X107.561 Y110.001 E41.22913
G1 X107.602 Y110.314 E41.24659
G1 X107.643 Y110.632 E41.26432
G1 X107.887 Y111.215 E41.29926
G1 X108.275 Y111.723 E41.33461
G1 X108.783 Y112.113 E41.37002
G1 X109.368 Y112.355 E41.40503
G1 X109.999 Y112.439 E41.44023
G1 X110.631 Y112.355 E41.47548
G1 X111.215 Y112.113 E41.51044
G1 X111.724 Y111.723 E41.54589
G1 X112.111 Y111.217 E41.58112
G1 X112.353 Y110.633 E41.61607
G1 X112.437 Y110 E41.65138
G1 X112.355 Y109.364 E41.68684
G1 X112.113 Y108.782 E41.72169
G1 X111.724 Y108.278 E41.7569
G1 X111.216 Y107.885 E41.79241
G1 X110.633 Y107.644 E41.82729
G1 X110 Y107.561 E41.8626
G1 X109.367 Y107.644 E41.8979
G1 X108.782 Y107.885 E41.93288
G1 F2400 E39.93288
G0 F9000 X108.894 Y108.08
G0 X108.894 Y111.918
G1 F1200 E41.93288
G0 F9000 X108.543 Y112.528
;TYPE:WALL-OUTER
G1 F600 X109.243 Y112.817 E41.97057
G1 X109.999 Y112.918 E42.00853
G1 X110.756 Y112.817 E42.04653
G1 X111.455 Y112.528 E42.08418
G1 X112.064 Y112.061 E42.12237
G1 X112.527 Y111.455 E42.16032
G1 X112.817 Y110.757 E42.19794
G1 X112.918 Y109.999 E42.23599
G1 X112.817 Y109.24 E42.2741
G1 X112.528 Y108.543 E42.31165
G1 X112.064 Y107.938 E42.34959
G1 X111.455 Y107.47 E42.38781
G1 X110.757 Y107.181 E42.42541
G1 X110 Y107.081 E42.46341
G1 X109.243 Y107.181 E42.50141
G1 X108.543 Y107.47 E42.5391
G1 X107.935 Y107.937 E42.57725
G1 X107.472 Y108.543 E42.6152
G1 X107.181 Y109.239 E42.65274
G1 X107.081 Y110.001 E42.69099
G1 X107.131 Y110.375 E42.70977
G1 X107.181 Y110.757 E42.72894
G1 X107.472 Y111.455 E42.76657
G1 X107.935 Y112.061 E42.80453
G1 X108.543 Y112.528 E42.84268
G0 F9000 X108.727 Y112.604
G0 X109.148 Y111.589
;MESH:NONMESH
G0 F600 X109.148 Y111.589 Z3.4
G0 F9000 X108.894 Y108.08
G0 X108.782 Y107.885
;TIME_ELAPSED:72.890521
;LAYER:11
;TYPE:WALL-INNER
;MESH:gripbolt.stl
G1 F780 X108.274 Y108.275 E42.87809
G1 X107.887 Y108.783 E42.91341
G1 X107.644 Y109.364 E42.94823
G1 X107.561 Y110.001 E42.98375
G1 X107.643 Y110.632 E43.01893
G1 X107.887 Y111.215 E43.05388
G1 X108.275 Y111.723 E43.08923
G1 X108.783 Y112.113 E43.12464
G1 X109.368 Y112.355 E43.15964
G1 X109.999 Y112.439 E43.19484
G1 X110.631 Y112.355 E43.2301
G1 X111.215 Y112.113 E43.26505
G1 X111.724 Y111.723 E43.30051
G1 X112.111 Y111.217 E43.33573
G1 X112.353 Y110.633 E43.37069
G1 X112.437 Y110 E43.406
G1 X112.355 Y109.364 E43.44146
G1 X112.113 Y108.782 E43.47631
G1 X111.724 Y108.278 E43.51151
G1 X111.216 Y107.885 E43.54703
G1 X110.633 Y107.644 E43.58191
G1 X110 Y107.561 E43.61721
G1 X109.367 Y107.644 E43.65251
G1 X108.782 Y107.885 E43.6875
G1 F2400 E41.6875
G0 F9000 X108.894 Y108.08
G0 X108.894 Y111.918
G1 F1200 E43.6875
G0 F9000 X108.543 Y112.528
;TYPE:WALL-OUTER
G1 F600 X109.243 Y112.817 E43.72519
G1 X109.999 Y112.918 E43.76314
G1 X110.756 Y112.817 E43.80115
G1 X111.455 Y112.528 E43.83879
G1 X112.064 Y112.061 E43.87698
G1 X112.527 Y111.455 E43.91494
G1 X112.817 Y110.757 E43.95255
G1 X112.918 Y109.999 E43.99061
G1 X112.817 Y109.24 E44.02871
G1 X112.528 Y108.543 E44.06626
G1 X112.064 Y107.938 E44.10421
G1 X111.455 Y107.47 E44.14243
G1 X110.757 Y107.181 E44.18002
G1 X110 Y107.081 E44.21802
G1 X109.243 Y107.181 E44.25602
G1 X108.543 Y107.47 E44.29371
G1 X107.935 Y107.937 E44.33186
G1 X107.472 Y108.543 E44.36982
G1 X107.181 Y109.239 E44.40736
G1 X107.081 Y110.001 E44.44561
G1 X107.181 Y110.757 E44.48356
G1 X107.472 Y111.455 E44.52119
G1 X107.935 Y112.061 E44.55914
G1 X108.543 Y112.528 E44.5973
G0 F9000 X108.727 Y112.604
G0 X109.148 Y111.589
;MESH:NONMESH
G0 F600 X109.148 Y111.589 Z3.68
G0 F9000 X108.894 Y108.08
G0 X108.782 Y107.885
;TIME_ELAPSED:76.630706
;LAYER:12
;TYPE:WALL-INNER
;MESH:gripbolt.stl
G1 F780 X108.274 Y108.275 E44.63271
G1 X107.887 Y108.783 E44.66802
G1 X107.644 Y109.364 E44.70284
G1 X107.561 Y110.001 E44.73836
G1 X107.643 Y110.632 E44.77355
G1 X107.887 Y111.215 E44.8085
G1 X108.275 Y111.723 E44.84384
G1 X108.783 Y112.113 E44.87925
G1 X109.368 Y112.355 E44.91426
G1 X109.999 Y112.439 E44.94946
G1 X110.631 Y112.355 E44.98471
G1 X111.215 Y112.113 E45.01967
G1 X111.724 Y111.723 E45.05513
G1 X112.111 Y111.217 E45.09035
G1 X112.353 Y110.633 E45.1253
G1 X112.437 Y110 E45.16061
G1 X112.355 Y109.364 E45.19607
G1 X112.113 Y108.782 E45.23093
G1 X111.724 Y108.278 E45.26613
G1 X111.216 Y107.885 E45.30164
G1 X110.633 Y107.644 E45.33653
G1 X110 Y107.561 E45.37183
G1 X109.367 Y107.644 E45.40713
G1 X108.782 Y107.885 E45.44211
G1 F2400 E43.44211
G0 F9000 X108.894 Y108.08
G0 X108.894 Y111.918
G1 F1200 E45.44211
G0 F9000 X108.543 Y112.528
;TYPE:WALL-OUTER
G1 F600 X109.243 Y112.817 E45.4798
G1 X109.999 Y112.918 E45.51776
G1 X110.756 Y112.817 E45.55577
G1 X111.455 Y112.528 E45.59341
G1 X112.064 Y112.061 E45.6316
G1 X112.527 Y111.455 E45.66955
G1 X112.817 Y110.757 E45.70717
G1 X112.918 Y109.999 E45.74522
G1 X112.817 Y109.24 E45.78333
G1 X112.528 Y108.543 E45.82088
G1 X112.064 Y107.938 E45.85882
G1 X111.455 Y107.47 E45.89704
G1 X110.757 Y107.181 E45.93464
G1 X110 Y107.081 E45.97264
G1 X109.243 Y107.181 E46.01064
G1 X108.543 Y107.47 E46.04833
G1 X107.935 Y107.937 E46.08648
G1 X107.472 Y108.543 E46.12443
G1 X107.181 Y109.239 E46.16197
G1 X107.081 Y110.001 E46.20022
G1 X107.181 Y110.757 E46.23817
G1 X107.472 Y111.455 E46.27581
G1 X107.935 Y112.061 E46.31376
G1 X108.543 Y112.528 E46.35191
G0 F9000 X108.727 Y112.604
G0 X109.148 Y111.589
;MESH:NONMESH
G0 F600 X109.148 Y111.589 Z3.96
G0 F9000 X108.894 Y108.08
G0 X108.782 Y107.885
;TIME_ELAPSED:80.370892
;LAYER:13
;TYPE:WALL-INNER
;MESH:gripbolt.stl
G1 F780 X108.274 Y108.275 E46.38732
G1 X107.887 Y108.783 E46.42264
G1 X107.644 Y109.364 E46.45746
G1 X107.561 Y110.001 E46.49298
G1 X107.643 Y110.632 E46.52817
G1 X107.887 Y111.215 E46.56311
G1 X108.275 Y111.723 E46.59846
G1 X108.783 Y112.113 E46.63387
G1 X109.368 Y112.355 E46.66888
G1 X109.999 Y112.439 E46.70408
G1 X110.631 Y112.355 E46.73933
G1 X111.215 Y112.113 E46.77428
G1 X111.724 Y111.723 E46.80974
G1 X112.111 Y111.217 E46.84497
G1 X112.353 Y110.633 E46.87992
G1 X112.437 Y110 E46.91523
G1 X112.355 Y109.364 E46.95069
G1 X112.113 Y108.782 E46.98554
G1 X111.724 Y108.278 E47.02075
G1 X111.216 Y107.885 E47.05626
G1 X110.633 Y107.644 E47.09114
G1 X110 Y107.561 E47.12644
G1 X109.367 Y107.644 E47.16174
G1 X108.782 Y107.885 E47.19673
G1 F2400 E45.19673
G0 F9000 X108.894 Y108.08
G0 X108.894 Y111.918
G1 F1200 E47.19673
G0 F9000 X108.543 Y112.528
;TYPE:WALL-OUTER
G1 F600 X109.243 Y112.817 E47.23442
G1 X109.999 Y112.918 E47.27237
G1 X110.756 Y112.817 E47.31038
G1 X111.455 Y112.528 E47.34802
G1 X112.064 Y112.061 E47.38622
G1 X112.527 Y111.455 E47.42417
G1 X112.817 Y110.757 E47.46178
G1 X112.918 Y109.999 E47.49984
G1 X112.817 Y109.24 E47.53794
G1 X112.528 Y108.543 E47.57549
G1 X112.064 Y107.938 E47.61344
G1 X111.455 Y107.47 E47.65166
G1 X110.757 Y107.181 E47.68926
G1 X110 Y107.081 E47.72726
G1 X109.243 Y107.181 E47.76525
G1 X108.543 Y107.47 E47.80294
G1 X107.935 Y107.937 E47.8411
G1 X107.472 Y108.543 E47.87905
G1 X107.181 Y109.239 E47.91659
G1 X107.081 Y110.001 E47.95484
G1 X107.181 Y110.757 E47.99279
G1 X107.472 Y111.455 E48.03042
G1 X107.935 Y112.061 E48.06837
G1 X108.543 Y112.528 E48.10653
G0 F9000 X108.727 Y112.604
G0 X109.148 Y111.589
;MESH:NONMESH
G0 F600 X109.148 Y111.589 Z4.24
G0 F9000 X108.894 Y108.08
G0 X108.782 Y107.885
;TIME_ELAPSED:84.111078
;LAYER:14
;TYPE:WALL-INNER
;MESH:gripbolt.stl
G1 F780 X108.274 Y108.275 E48.14194
G1 X107.887 Y108.783 E48.17725
G1 X107.644 Y109.364 E48.21208
G1 X107.561 Y110.001 E48.2476
G1 X107.602 Y110.314 E48.26505
G1 X107.643 Y110.632 E48.28278
G1 X107.887 Y111.215 E48.31773
G1 X108.275 Y111.723 E48.35307
G1 X108.783 Y112.113 E48.38849
G1 X109.368 Y112.355 E48.42349
G1 X109.999 Y112.439 E48.45869
G1 X110.631 Y112.355 E48.49395
G1 X111.215 Y112.113 E48.5289
G1 X111.724 Y111.723 E48.56436
G1 X112.111 Y111.217 E48.59958
G1 X112.353 Y110.633 E48.63454
G1 X112.437 Y110 E48.66985
G1 X112.355 Y109.364 E48.7053
G1 X112.113 Y108.782 E48.74016
G1 X111.724 Y108.278 E48.77536
G1 X111.216 Y107.885 E48.81088
G1 X110.633 Y107.644 E48.84576
G1 X110 Y107.561 E48.88106
G1 X109.367 Y107.644 E48.91636
G1 X108.782 Y107.885 E48.95135
G1 F2400 E46.95135
G0 F9000 X108.894 Y108.08
G0 X108.894 Y111.918
G1 F1200 E48.95135
G0 F9000 X108.543 Y112.528
;TYPE:WALL-OUTER
G1 F600 X109.243 Y112.817 E48.98903
G1 X109.999 Y112.918 E49.02699
G1 X110.756 Y112.817 E49.065
G1 X111.455 Y112.528 E49.10264
G1 X112.064 Y112.061 E49.14083
G1 X112.527 Y111.455 E49.17878
G1 X112.817 Y110.757 E49.2164
G1 X112.918 Y109.999 E49.25445
G1 X112.817 Y109.24 E49.29256
G1 X112.528 Y108.543 E49.33011
G1 X112.064 Y107.938 E49.36805
G1 X111.455 Y107.47 E49.40628
G1 X110.757 Y107.181 E49.44387
G1 X110 Y107.081 E49.48187
G1 X109.243 Y107.181 E49.51987
G1 X108.543 Y107.47 E49.55756
G1 X107.935 Y107.937 E49.59571
G1 X107.472 Y108.543 E49.63366
G1 X107.181 Y109.239 E49.67121
G1 X107.081 Y110.001 E49.70945
G1 X107.131 Y110.375 E49.72823
G1 X107.181 Y110.757 E49.7474
G1 X107.472 Y111.455 E49.78504
G1 X107.935 Y112.061 E49.82299
G1 X108.543 Y112.528 E49.86114
G0 F9000 X108.727 Y112.604
G0 X109.148 Y111.589
;MESH:NONMESH
G0 F600 X109.148 Y111.589 Z4.52
G0 F9000 X108.894 Y108.08
G0 X108.782 Y107.885
;TIME_ELAPSED:87.851264
;LAYER:15
;TYPE:WALL-INNER
;MESH:gripbolt.stl
G1 F780 X108.274 Y108.275 E49.89656
G1 X107.887 Y108.783 E49.93187
G1 X107.644 Y109.364 E49.96669
G1 X107.561 Y110.001 E50.00221
G1 X107.643 Y110.632 E50.0374
G1 X107.887 Y111.215 E50.07234
G1 X108.275 Y111.723 E50.10769
G1 X108.783 Y112.113 E50.1431
G1 X109.368 Y112.355 E50.17811
G1 X109.999 Y112.439 E50.21331
G1 X110.631 Y112.355 E50.24856
G1 X111.215 Y112.113 E50.28352
G1 X111.724 Y111.723 E50.31897
G1 X112.111 Y111.217 E50.3542
G1 X112.353 Y110.633 E50.38915
G1 X112.437 Y110 E50.42446
G1 X112.355 Y109.364 E50.45992
G1 X112.113 Y108.782 E50.49477
G1 X111.724 Y108.278 E50.52998
G1 X111.216 Y107.885 E50.56549
G1 X110.633 Y107.644 E50.60037
G1 X110 Y107.561 E50.63568
G1 X109.367 Y107.644 E50.67098
G1 X108.782 Y107.885 E50.70596
G1 F2400 E48.70596
G0 F9000 X108.894 Y108.08
G0 X108.894 Y111.918
G1 F1200 E50.70596
G0 F9000 X108.543 Y112.528
;TYPE:WALL-OUTER
G1 F600 X109.243 Y112.817 E50.74365
G1 X109.999 Y112.918 E50.78161
G1 X110.756 Y112.817 E50.81961
G1 X111.455 Y112.528 E50.85725
G1 X112.064 Y112.061 E50.89545
G1 X112.527 Y111.455 E50.9334
G1 X112.817 Y110.757 E50.97101
G1 X112.918 Y109.999 E51.00907
G1 X112.817 Y109.24 E51.04718
G1 X112.528 Y108.543 E51.08473
G1 X112.064 Y107.938 E51.12267
G1 X111.455 Y107.47 E51.16089
G1 X110.757 Y107.181 E51.19849
G1 X110 Y107.081 E51.23649
G1 X109.243 Y107.181 E51.27449
G1 X108.543 Y107.47 E51.31217
G1 X107.935 Y107.937 E51.35033
G1 X107.472 Y108.543 E51.38828
G1 X107.181 Y109.239 E51.42582
G1 X107.081 Y110.001 E51.46407
G1 X107.181 Y110.757 E51.50202
G1 X107.472 Y111.455 E51.53965
G1 X107.935 Y112.061 E51.57761
G1 X108.543 Y112.528 E51.61576
G0 F9000 X108.727 Y112.604
G0 X109.148 Y111.589
;MESH:NONMESH
G0 F600 X109.148 Y111.589 Z4.8
G0 F9000 X108.894 Y108.08
G0 X108.782 Y107.885
;TIME_ELAPSED:91.591450
;LAYER:16
;TYPE:WALL-INNER
;MESH:gripbolt.stl
G1 F780 X108.274 Y108.275 E51.65117
G1 X107.887 Y108.783 E51.68648
G1 X107.644 Y109.364 E51.72131
G1 X107.561 Y110.001 E51.75683
G1 X107.643 Y110.632 E51.79201
G1 X107.887 Y111.215 E51.82696
G1 X108.275 Y111.723 E51.86231
G1 X108.783 Y112.113 E51.89772
G1 X109.368 Y112.355 E51.93272
G1 X109.999 Y112.439 E51.96792
G1 X110.631 Y112.355 E52.00318
G1 X111.215 Y112.113 E52.03813
G1 X111.724 Y111.723 E52.07359
G1 X112.111 Y111.217 E52.10881
G1 X112.353 Y110.633 E52.14377
G1 X112.437 Y110 E52.17908
G1 X112.355 Y109.364 E52.21454
G1 X112.113 Y108.782 E52.24939
G1 X111.724 Y108.278 E52.28459
G1 X111.216 Y107.885 E52.32011
G1 X110.633 Y107.644 E52.35499
G1 X110 Y107.561 E52.39029
G1 X109.367 Y107.644 E52.42559
G1 X108.782 Y107.885 E52.46058
G1 F2400 E50.46058
G0 F9000 X108.894 Y108.08
G0 X108.894 Y111.918
G1 F1200 E52.46058
G0 F9000 X108.543 Y112.528
;TYPE:WALL-OUTER
G1 F600 X109.243 Y112.817 E52.49827
G1 X109.999 Y112.918 E52.53622
G1 X110.756 Y112.817 E52.57423
G1 X111.455 Y112.528 E52.61187
G1 X112.064 Y112.061 E52.65006
G1 X112.527 Y111.455 E52.68802
G1 X112.817 Y110.757 E52.72563
G1 X112.918 Y109.999 E52.76369
G1 X112.817 Y109.24 E52.80179
G1 X112.528 Y108.543 E52.83934
G1 X112.064 Y107.938 E52.87728
G1 X111.455 Y107.47 E52.91551
G1 X110.757 Y107.181 E52.9531
G1 X110 Y107.081 E52.9911
G1 X109.243 Y107.181 E53.0291
G1 X108.543 Y107.47 E53.06679
G1 X107.935 Y107.937 E53.10494
G1 X107.472 Y108.543 E53.1429
G1 X107.181 Y109.239 E53.18044
G1 X107.081 Y110.001 E53.21868
G1 X107.181 Y110.757 E53.25664
G1 X107.472 Y111.455 E53.29427
G1 X107.935 Y112.061 E53.33222
G1 X108.543 Y112.528 E53.37037
G0 F9000 X108.727 Y112.604
G0 X109.148 Y111.589
;MESH:NONMESH
G0 F600 X109.148 Y111.589 Z5.08
G0 F9000 X108.894 Y108.08
G0 X108.782 Y107.885
;TIME_ELAPSED:95.331636
;LAYER:17
;TYPE:WALL-INNER
;MESH:gripbolt.stl
G1 F780 X108.274 Y108.275 E53.40579
G1 X107.887 Y108.783 E53.4411
G1 X107.644 Y109.364 E53.47592
G1 X107.561 Y110.001 E53.51144
G1 X107.643 Y110.632 E53.54663
G1 X107.887 Y111.215 E53.58157
G1 X108.275 Y111.723 E53.61692
G1 X108.783 Y112.113 E53.65233
G1 X109.368 Y112.355 E53.68734
G1 X109.999 Y112.439 E53.72254
G1 X110.631 Y112.355 E53.75779
G1 X111.215 Y112.113 E53.79275
G1 X111.724 Y111.723 E53.8282
G1 X112.111 Y111.217 E53.86343
G1 X112.353 Y110.633 E53.89838
G1 X112.437 Y110 E53.93369
G1 X112.355 Y109.364 E53.96915
G1 X112.113 Y108.782 E54.004
G1 X111.724 Y108.278 E54.03921
G1 X111.216 Y107.885 E54.07472
G1 X110.633 Y107.644 E54.10961
G1 X110 Y107.561 E54.14491
G1 X109.367 Y107.644 E54.18021
G1 X108.782 Y107.885 E54.21519
G1 F2400 E52.21519
G0 F9000 X108.894 Y108.08
G0 X108.894 Y111.918
G1 F1200 E54.21519
G0 F9000 X108.543 Y112.528
;TYPE:WALL-OUTER
G1 F600 X109.243 Y112.817 E54.25288
G1 X109.999 Y112.918 E54.29084
G1 X110.756 Y112.817 E54.32884
G1 X111.455 Y112.528 E54.36649
G1 X112.064 Y112.061 E54.40468
G1 X112.527 Y111.455 E54.44263
G1 X112.817 Y110.757 E54.48025
G1 X112.918 Y109.999 E54.5183
G1 X112.817 Y109.24 E54.55641
G1 X112.528 Y108.543 E54.59396
G1 X112.064 Y107.938 E54.6319
G1 X111.455 Y107.47 E54.67012
G1 X110.757 Y107.181 E54.70772
G1 X110 Y107.081 E54.74572
G1 X109.243 Y107.181 E54.78372
G1 X108.543 Y107.47 E54.82141
G1 X107.935 Y107.937 E54.85956
G1 X107.472 Y108.543 E54.89751
G1 X107.181 Y109.239 E54.93505
G1 X107.081 Y110.001 E54.9733
G1 X107.181 Y110.757 E55.01125
G1 X107.472 Y111.455 E55.04889
G1 X107.935 Y112.061 E55.08684
G1 X108.543 Y112.528 E55.12499
G0 F9000 X108.727 Y112.604
G0 X109.148 Y111.589
;MESH:NONMESH
G0 F600 X109.148 Y111.589 Z5.36
G0 F9000 X108.894 Y108.08
G0 X108.782 Y107.885
;TIME_ELAPSED:99.071821
;LAYER:18
;TYPE:WALL-INNER
;MESH:gripbolt.stl
G1 F780 X108.274 Y108.275 E55.1604
G1 X107.887 Y108.783 E55.19572
G1 X107.644 Y109.364 E55.23054
G1 X107.561 Y110.001 E55.26606
G1 X107.643 Y110.632 E55.30124
G1 X107.887 Y111.215 E55.33619
G1 X108.275 Y111.723 E55.37154
G1 X108.783 Y112.113 E55.40695
G1 X109.368 Y112.355 E55.44196
G1 X109.999 Y112.439 E55.47715
G1 X110.631 Y112.355 E55.51241
G1 X111.215 Y112.113 E55.54736
G1 X111.724 Y111.723 E55.58282
G1 X112.111 Y111.217 E55.61805
G1 X112.353 Y110.633 E55.653
G1 X112.437 Y110 E55.68831
G1 X112.355 Y109.364 E55.72377
G1 X112.113 Y108.782 E55.75862
G1 X111.724 Y108.278 E55.79382
G1 X111.216 Y107.885 E55.82934
G1 X110.633 Y107.644 E55.86422
G1 X110 Y107.561 E55.89952
G1 X109.367 Y107.644 E55.93482
G1 X108.782 Y107.885 E55.96981
G1 F2400 E53.96981
G0 F9000 X108.894 Y108.08
G0 X108.894 Y111.918
G1 F1200 E55.96981
G0 F9000 X108.543 Y112.528
;TYPE:WALL-OUTER
G1 F600 X109.243 Y112.817 E56.0075
G1 X109.999 Y112.918 E56.04545
G1 X110.756 Y112.817 E56.08346
G1 X111.455 Y112.528 E56.1211
G1 X112.064 Y112.061 E56.15929
G1 X112.527 Y111.455 E56.19725
G1 X112.817 Y110.757 E56.23486
G1 X112.918 Y109.999 E56.27292
G1 X112.817 Y109.24 E56.31102
G1 X112.528 Y108.543 E56.34857
G1 X112.064 Y107.938 E56.38652
G1 X111.455 Y107.47 E56.42474
G1 X110.757 Y107.181 E56.46233
G1 X110 Y107.081 E56.50033
G1 X109.243 Y107.181 E56.53833
G1 X108.543 Y107.47 E56.57602
G1 X107.935 Y107.937 E56.61418
G1 X107.472 Y108.543 E56.65213
G1 X107.181 Y109.239 E56.68967
G1 X107.081 Y110.001 E56.72792
G1 X107.181 Y110.757 E56.76587
G1 X107.472 Y111.455 E56.8035
G1 X107.935 Y112.061 E56.84145
G1 X108.543 Y112.528 E56.87961
G0 F9000 X108.727 Y112.604
G0 X109.148 Y111.589
;MESH:NONMESH
G0 F600 X109.148 Y111.589 Z5.64
G0 F9000 X108.894 Y108.08
G0 X108.782 Y107.885
;TIME_ELAPSED:102.812007
;LAYER:19
;TYPE:WALL-INNER
;MESH:gripbolt.stl
G1 F780 X108.274 Y108.275 E56.91502
G1 X107.887 Y108.783 E56.95033
G1 X107.644 Y109.364 E56.98516
G1 X107.561 Y110.001 E57.02068
G1 X107.643 Y110.632 E57.05586
G1 X107.887 Y111.215 E57.09081
G1 X108.275 Y111.723 E57.12615
G1 X108.783 Y112.113 E57.16157
G1 X109.368 Y112.355 E57.19657
G1 X109.999 Y112.439 E57.23177
G1 X110.631 Y112.355 E57.26702
G1 X111.215 Y112.113 E57.30198
G1 X111.724 Y111.723 E57.33744
G1 X112.111 Y111.217 E57.37266
G1 X112.353 Y110.633 E57.40762
G1 X112.437 Y110 E57.44292
G1 X112.355 Y109.364 E57.47838
G1 X112.113 Y108.782 E57.51324
G1 X111.724 Y108.278 E57.54844
G1 X111.216 Y107.885 E57.58395
G1 X110.633 Y107.644 E57.61884
G1 X110 Y107.561 E57.65414
G1 X109.367 Y107.644 E57.68944
G1 X108.782 Y107.885 E57.72443
G1 F2400 E55.72443
G0 F9000 X108.894 Y108.08
G0 X108.894 Y111.918
G1 F1200 E57.72443
G0 F9000 X108.543 Y112.528
;TYPE:WALL-OUTER
G1 F600 X109.243 Y112.817 E57.76211
G1 X109.999 Y112.918 E57.80007
G1 X110.756 Y112.817 E57.83808
G1 X111.455 Y112.528 E57.87572
G1 X112.064 Y112.061 E57.91391
G1 X112.527 Y111.455 E57.95186
G1 X112.817 Y110.757 E57.98948
G1 X112.918 Y109.999 E58.02753
G1 X112.817 Y109.24 E58.06564
G1 X112.528 Y108.543 E58.10319
G1 X112.064 Y107.938 E58.14113
G1 X111.455 Y107.47 E58.17935
G1 X110.757 Y107.181 E58.21695
G1 X110 Y107.081 E58.25495
G1 X109.243 Y107.181 E58.29295
G1 X108.543 Y107.47 E58.33064
G1 X107.935 Y107.937 E58.36879
G1 X107.472 Y108.543 E58.40674
G1 X107.181 Y109.239 E58.44429
G1 X107.081 Y110.001 E58.48253
G1 X107.181 Y110.757 E58.52048
G1 X107.472 Y111.455 E58.55812
G1 X107.935 Y112.061 E58.59607
G1 X108.543 Y112.528 E58.63422
G0 F9000 X108.727 Y112.604
G0 X109.148 Y111.589
;MESH:NONMESH
G0 F600 X109.148 Y111.589 Z5.92
G0 F9000 X108.894 Y108.08
G0 X108.782 Y107.885
;TIME_ELAPSED:106.552193
;LAYER:20
;TYPE:WALL-INNER
;MESH:gripbolt.stl
G1 F780 X108.274 Y108.275 E58.66964
G1 X107.887 Y108.783 E58.70495
G1 X107.644 Y109.364 E58.73977
G1 X107.561 Y110.001 E58.77529
G1 X107.643 Y110.632 E58.81048
G1 X107.887 Y111.215 E58.84542
G1 X108.275 Y111.723 E58.88077
G1 X108.783 Y112.113 E58.91618
G1 X109.368 Y112.355 E58.95119
G1 X109.999 Y112.439 E58.98639
G1 X110.631 Y112.355 E59.02164
G1 X111.215 Y112.113 E59.0566
G1 X111.724 Y111.723 E59.09205
G1 X112.111 Y111.217 E59.12728
G1 X112.353 Y110.633 E59.16223
G1 X112.437 Y110 E59.19754
G1 X112.355 Y109.364 E59.233
G1 X112.113 Y108.782 E59.26785
G1 X111.724 Y108.278 E59.30306
G1 X111.216 Y107.885 E59.33857
G1 X110.633 Y107.644 E59.37345
G1 X110 Y107.561 E59.40875
G1 X109.367 Y107.644 E59.44406
G1 X108.782 Y107.885 E59.47904
G1 F2400 E57.47904
G0 F9000 X108.894 Y108.08
G0 X108.894 Y111.918
G1 F1200 E59.47904
G0 F9000 X108.543 Y112.528
;TYPE:WALL-OUTER
G1 F600 X109.243 Y112.817 E59.51673
G1 X109.999 Y112.918 E59.55469
G1 X110.756 Y112.817 E59.59269
G1 X111.455 Y112.528 E59.63033
G1 X112.064 Y112.061 E59.66853
G1 X112.527 Y111.455 E59.70648
G1 X112.817 Y110.757 E59.74409
G1 X112.918 Y109.999 E59.78215
G1 X112.817 Y109.24 E59.82025
G1 X112.528 Y108.543 E59.8578
G1 X112.064 Y107.938 E59.89575
G1 X111.455 Y107.47 E59.93397
G1 X110.757 Y107.181 E59.97157
G1 X110 Y107.081 E60.00957
G1 X109.243 Y107.181 E60.04757
G1 X108.543 Y107.47 E60.08525
G1 X107.935 Y107.937 E60.12341
G1 X107.472 Y108.543 E60.16136
G1 X107.181 Y109.239 E60.1989
G1 X107.081 Y110.001 E60.23715
G1 X107.181 Y110.757 E60.2751
G1 X107.472 Y111.455 E60.31273
G1 X107.935 Y112.061 E60.35069
G1 X108.543 Y112.528 E60.38884
G0 F9000 X108.727 Y112.604
G0 X109.148 Y111.589
;MESH:NONMESH
G0 F600 X109.148 Y111.589 Z6.2
G0 F9000 X108.894 Y108.08
G0 X108.782 Y107.885
;TIME_ELAPSED:110.292379
;LAYER:21
;TYPE:WALL-INNER
;MESH:gripbolt.stl
G1 F780 X108.274 Y108.275 E60.42425
G1 X107.887 Y108.783 E60.45956
G1 X107.644 Y109.364 E60.49439
G1 X107.561 Y110.001 E60.52991
G1 X107.602 Y110.314 E60.54736
G1 X107.643 Y110.632 E60.56509
G1 X107.887 Y111.215 E60.60004
G1 X108.275 Y111.723 E60.63538
G1 X108.783 Y112.113 E60.6708
G1 X109.368 Y112.355 E60.7058
G1 X109.999 Y112.439 E60.741
G1 X110.631 Y112.355 E60.77626
G1 X111.215 Y112.113 E60.81121
G1 X111.724 Y111.723 E60.84667
G1 X112.111 Y111.217 E60.88189
G1 X112.353 Y110.633 E60.91685
G1 X112.437 Y110 E60.95216
G1 X112.355 Y109.364 E60.98761
G1 X112.113 Y108.782 E61.02247
G1 X111.724 Y108.278 E61.05767
G1 X111.216 Y107.885 E61.09319
G1 X110.633 Y107.644 E61.12807
G1 X110 Y107.561 E61.16337
G1 X109.367 Y107.644 E61.19867
G1 X108.782 Y107.885 E61.23366
G1 F2400 E59.23366
G0 F9000 X108.894 Y108.08
G0 X108.894 Y111.918
G1 F1200 E61.23366
G0 F9000 X108.543 Y112.528
;TYPE:WALL-OUTER
G1 F600 X109.243 Y112.817 E61.27134
G1 X109.999 Y112.918 E61.3093
G1 X110.756 Y112.817 E61.34731
G1 X111.455 Y112.528 E61.38495
G1 X112.064 Y112.061 E61.42314
G1 X112.527 Y111.455 E61.46109
G1 X112.817 Y110.757 E61.49871
G1 X112.918 Y109.999 E61.53677
G1 X112.817 Y109.24 E61.57487
G1 X112.528 Y108.543 E61.61242
G1 X112.064 Y107.938 E61.65036
G1 X111.455 Y107.47 E61.68859
G1 X110.757 Y107.181 E61.72618
G1 X110 Y107.081 E61.76418
G1 X109.243 Y107.181 E61.80218
G1 X108.543 Y107.47 E61.83987
G1 X107.935 Y107.937 E61.87802
G1 X107.472 Y108.543 E61.91598
G1 X107.181 Y109.239 E61.95352
G1 X107.081 Y110.001 E61.99176
G1 X107.131 Y110.375 E62.01054
G1 X107.181 Y110.757 E62.02971
G1 X107.472 Y111.455 E62.06735
G1 X107.935 Y112.061 E62.1053
G1 X108.543 Y112.528 E62.14345
G0 F9000 X108.727 Y112.604
G0 X109.148 Y111.589
;MESH:NONMESH
G0 F600 X109.148 Y111.589 Z6.48
G0 F9000 X108.894 Y108.08
G0 X108.782 Y107.885
;TIME_ELAPSED:114.032565
;LAYER:22
;TYPE:WALL-INNER
;MESH:gripbolt.stl
G1 F780 X108.274 Y108.275 E62.17887
G1 X107.887 Y108.783 E62.21418
G1 X107.644 Y109.364 E62.249
G1 X107.561 Y110.001 E62.28452
G1 X107.643 Y110.632 E62.31971
G1 X107.887 Y111.215 E62.35465
G1 X108.275 Y111.723 E62.39
G1 X108.783 Y112.113 E62.42541
G1 X109.368 Y112.355 E62.46042
G1 X109.999 Y112.439 E62.49562
G1 X110.631 Y112.355 E62.53087
G1 X111.215 Y112.113 E62.56583
G1 X111.724 Y111.723 E62.60128
G1 X112.111 Y111.217 E62.63651
G1 X112.353 Y110.633 E62.67146
G1 X112.437 Y110 E62.70677
G1 X112.355 Y109.364 E62.74223
G1 X112.113 Y108.782 E62.77708
G1 X111.724 Y108.278 E62.81229
G1 X111.216 Y107.885 E62.8478
G1 X110.633 Y107.644 E62.88269
G1 X110 Y107.561 E62.91799
G1 X109.367 Y107.644 E62.95329
G1 X108.782 Y107.885 E62.98827
G1 F2400 E60.98827
G0 F9000 X108.894 Y108.08
G0 X108.894 Y111.918
G1 F1200 E62.98827
G0 F9000 X108.543 Y112.528
;TYPE:WALL-OUTER
G1 F600 X109.243 Y112.817 E63.02596
G1 X109.999 Y112.918 E63.06392
G1 X110.756 Y112.817 E63.10192
G1 X111.455 Y112.528 E63.13957
G1 X112.064 Y112.061 E63.17776
G1 X112.527 Y111.455 E63.21571
G1 X112.817 Y110.757 E63.25333
G1 X112.918 Y109.999 E63.29138
G1 X112.817 Y109.24 E63.32949
G1 X112.528 Y108.543 E63.36704
G1 X112.064 Y107.938 E63.40498
G1 X111.455 Y107.47 E63.4432
G1 X110.757 Y107.181 E63.4808
G1 X110 Y107.081 E63.5188
G1 X109.243 Y107.181 E63.5568
G1 X108.543 Y107.47 E63.59449
G1 X107.935 Y107.937 E63.63264
G1 X107.472 Y108.543 E63.67059
G1 X107.181 Y109.239 E63.70813
G1 X107.081 Y110.001 E63.74638
G1 X107.181 Y110.757 E63.78433
G1 X107.472 Y111.455 E63.82196
G1 X107.935 Y112.061 E63.85992
G1 X108.543 Y112.528 E63.89807
G0 F9000 X108.727 Y112.604
G0 X109.148 Y111.589
;MESH:NONMESH
G0 F600 X109.148 Y111.589 Z6.76
G0 F9000 X108.894 Y108.08
G0 X108.782 Y107.885
;TIME_ELAPSED:117.772750
;LAYER:23
;TYPE:WALL-INNER
;MESH:gripbolt.stl
G1 F780 X108.274 Y108.275 E63.93348
G1 X107.887 Y108.783 E63.9688
G1 X107.644 Y109.364 E64.00362
G1 X107.561 Y110.001 E64.03914
G1 X107.643 Y110.632 E64.07432
G1 X107.887 Y111.215 E64.10927
G1 X108.275 Y111.723 E64.14462
G1 X108.783 Y112.113 E64.18003
G1 X109.368 Y112.355 E64.21504
G1 X109.999 Y112.439 E64.25023
G1 X110.631 Y112.355 E64.28549
G1 X111.215 Y112.113 E64.32044
G1 X111.724 Y111.723 E64.3559
G1 X112.111 Y111.217 E64.39112
G1 X112.353 Y110.633 E64.42608
G1 X112.437 Y110 E64.46139
G1 X112.355 Y109.364 E64.49685
G1 X112.113 Y108.782 E64.5317
G1 X111.724 Y108.278 E64.5669
G1 X111.216 Y107.885 E64.60242
G1 X110.633 Y107.644 E64.6373
G1 X110 Y107.561 E64.6726
G1 X109.367 Y107.644 E64.7079
G1 X108.782 Y107.885 E64.74289
G1 F2400 E62.74289
G0 F9000 X108.894 Y108.08
G0 X108.894 Y111.918
G1 F1200 E64.74289
G0 F9000 X108.543 Y112.528
;TYPE:WALL-OUTER
G1 F600 X109.243 Y112.817 E64.78058
G1 X109.999 Y112.918 E64.81853
G1 X110.756 Y112.817 E64.85654
G1 X111.455 Y112.528 E64.89418
G1 X112.064 Y112.061 E64.93237
G1 X112.527 Y111.455 E64.97033
G1 X112.817 Y110.757 E65.00794
G1 X112.918 Y109.999 E65.046
G1 X112.817 Y109.24 E65.0841
G1 X112.528 Y108.543 E65.12165
G1 X112.064 Y107.938 E65.1596
G1 X111.455 Y107.47 E65.19782
G1 X110.757 Y107.181 E65.23541
G1 X110 Y107.081 E65.27341
G1 X109.243 Y107.181 E65.31141
G1 X108.543 Y107.47 E65.3491
G1 X107.935 Y107.937 E65.38725
G1 X107.472 Y108.543 E65.42521
G1 X107.181 Y109.239 E65.46275
G1 X107.081 Y110.001 E65.501
G1 X107.181 Y110.757 E65.53895
G1 X107.472 Y111.455 E65.57658
G1 X107.935 Y112.061 E65.61453
G1 X108.543 Y112.528 E65.65269
G0 F9000 X108.727 Y112.604
G0 X109.148 Y111.589
;MESH:NONMESH
G0 F600 X109.148 Y111.589 Z7.04
G0 F9000 X108.894 Y108.08
G0 X108.782 Y107.885
;TIME_ELAPSED:121.512936
;LAYER:24
;TYPE:WALL-INNER
;MESH:gripbolt.stl
G1 F866.7 X108.274 Y108.275 E65.6881
G1 X107.887 Y108.783 E65.72341
G1 X107.644 Y109.364 E65.75823
G1 X107.561 Y110.001 E65.79376
G1 X107.643 Y110.632 E65.82894
G1 X107.887 Y111.215 E65.86389
G1 X108.275 Y111.723 E65.89923
G1 X108.783 Y112.113 E65.93465
G1 X109.368 Y112.355 E65.96965
G1 X109.999 Y112.439 E66.00485
G1 X110.631 Y112.355 E66.0401
G1 X111.215 Y112.113 E66.07506
G1 X111.724 Y111.723 E66.11052
G1 X112.111 Y111.217 E66.14574
G1 X112.353 Y110.633 E66.1807
G1 X112.437 Y110 E66.216
G1 X112.355 Y109.364 E66.25146
G1 X112.113 Y108.782 E66.28632
G1 X111.724 Y108.278 E66.32152
G1 X111.216 Y107.885 E66.35703
G1 X110.633 Y107.644 E66.39192
G1 X110 Y107.561 E66.42722
G1 X109.367 Y107.644 E66.46252
G1 X108.782 Y107.885 E66.4975
G1 F2400 E64.4975
G0 F9000 X108.894 Y108.08
G0 X107.849 Y110.576
G0 X108.071 Y111.109
G0 X108.358 Y111.484
G0 X108.894 Y111.918
G1 F1200 E66.4975
G0 F9000 X108.543 Y112.528
;TYPE:WALL-OUTER
G1 F666.7 X109.243 Y112.817 E66.53519
G1 X109.999 Y112.918 E66.57315
G1 X110.756 Y112.817 E66.61116
G1 X111.455 Y112.528 E66.6488
G1 X112.064 Y112.061 E66.68699
G1 X112.527 Y111.455 E66.72494
G1 X112.817 Y110.757 E66.76256
G1 X112.918 Y109.999 E66.80061
G1 X112.817 Y109.24 E66.83872
G1 X112.528 Y108.543 E66.87627
G1 X112.064 Y107.938 E66.91421
G1 X111.455 Y107.47 E66.95243
G1 X110.757 Y107.181 E66.99003
G1 X110 Y107.081 E67.02803
G1 X109.243 Y107.181 E67.06603
G1 X108.543 Y107.47 E67.10372
G1 X107.935 Y107.937 E67.14187
G1 X107.472 Y108.543 E67.17982
G1 X107.181 Y109.239 E67.21737
G1 X107.081 Y110.001 E67.25561
G1 X107.181 Y110.757 E67.29356
G1 X107.472 Y111.455 E67.3312
G1 X107.935 Y112.061 E67.36915
G1 X108.543 Y112.528 E67.4073
G0 F9000 X108.727 Y112.604
G0 X108.995 Y111.959
G0 X109.423 Y112.149
G0 X110.06 Y112.215
G0 X112.199 Y109.38
G0 X112.029 Y109.45
;TYPE:SKIN
G1 F600 X111.824 Y108.953 E67.43406
G1 X111.488 Y108.518 E67.46141
G1 X111.045 Y108.175 E67.48929
G1 X110.548 Y107.969 E67.51607
G1 X110.001 Y107.898 E67.54352
G1 X107.969 Y110.55 E67.70978
G1 X108.176 Y111.044 E67.73644
G1 X108.511 Y111.484 E67.76396
G1 X108.954 Y111.823 E67.79172
G1 X109.453 Y112.029 E67.81858
G1 X109.995 Y112.102 E67.8458
G1 X112.029 Y109.45 E68.01213
G0 F9000 X111.637 Y109.091
G1 F600 X110.906 Y108.36 E68.06357
G0 F9000 X110.076 Y108.166
G1 F600 X111.578 Y109.669 E68.16932
G0 F9000 X111.302 Y110.029
G1 F600 X109.8 Y108.527 E68.27503
G0 F9000 X109.524 Y108.888
G1 F600 X111.025 Y110.389 E68.38067
G0 F9000 X110.749 Y110.749
G1 F600 X109.247 Y109.247 E68.48638
G0 F9000 X108.972 Y109.608
G1 F600 X110.473 Y111.109 E68.59201
G0 F9000 X110.196 Y111.469
G1 F600 X108.696 Y109.969 E68.69758
G0 F9000 X108.42 Y110.329
G1 F600 X109.92 Y111.829 E68.80315
G0 F9000 X109.088 Y111.633
G1 F600 X108.362 Y110.908 E68.85421
;MESH:NONMESH
G0 X108.362 Y110.908 Z7.32
G0 F9000 X107.986 Y111.064
G0 X107.859 Y110.57
G0 X108.894 Y108.08
G0 X108.782 Y107.885
;TIME_ELAPSED:128.585178
;LAYER:25
;TYPE:WALL-INNER
;MESH:gripbolt.stl
G1 F866.7 X108.274 Y108.275 E68.88962
G1 X107.887 Y108.783 E68.92494
G1 X107.644 Y109.364 E68.95976
G1 X107.561 Y110.001 E68.99528
G1 X107.643 Y110.632 E69.03047
G1 X107.887 Y111.215 E69.06541
G1 X108.275 Y111.723 E69.10076
G1 X108.783 Y112.113 E69.13617
G1 X109.368 Y112.355 E69.17118
G1 X109.999 Y112.439 E69.20638
G1 X110.631 Y112.355 E69.24163
G1 X111.215 Y112.113 E69.27658
G1 X111.724 Y111.723 E69.31204
G1 X112.111 Y111.217 E69.34727
G1 X112.353 Y110.633 E69.38222
G1 X112.437 Y110 E69.41753
G1 X112.355 Y109.364 E69.45299
G1 X112.113 Y108.782 E69.48784
G1 X111.724 Y108.278 E69.52305
G1 X111.216 Y107.885 E69.55856
G1 X110.633 Y107.644 E69.59344
G1 X110 Y107.561 E69.62874
G1 X109.367 Y107.644 E69.66404
G1 X108.782 Y107.885 E69.69903
G1 F2400 E67.69903
G0 F9000 X108.894 Y108.08
G0 X107.849 Y110.576
G0 X108.071 Y111.109
G0 X108.358 Y111.484
G0 X108.894 Y111.918
G1 F1200 E69.69903
G0 F9000 X108.543 Y112.528
;TYPE:WALL-OUTER
G1 F666.7 X109.243 Y112.817 E69.73672
G1 X109.999 Y112.918 E69.77467
G1 X110.756 Y112.817 E69.81268
G1 X111.455 Y112.528 E69.85032
G1 X112.064 Y112.061 E69.88852
G1 X112.527 Y111.455 E69.92647
G1 X112.817 Y110.757 E69.96408
G1 X112.918 Y109.999 E70.00214
G1 X112.817 Y109.24 E70.04024
G1 X112.528 Y108.543 E70.07779
G1 X112.064 Y107.938 E70.11574
G1 X111.455 Y107.47 E70.15396
G1 X110.757 Y107.181 E70.19156
G1 X110 Y107.081 E70.22956
G1 X109.243 Y107.181 E70.26756
G1 X108.543 Y107.47 E70.30524
G1 X107.935 Y107.937 E70.3434
G1 X107.472 Y108.543 E70.38135
G1 X107.181 Y109.239 E70.41889
G1 X107.081 Y110.001 E70.45714
G1 X107.181 Y110.757 E70.49509
G1 X107.472 Y111.455 E70.53272
G1 X107.935 Y112.061 E70.57067
G1 X108.543 Y112.528 E70.60883
G0 F9000 X108.727 Y112.604
G0 X108.995 Y111.959
G0 X109.423 Y112.149
G0 X110.06 Y112.215
G0 X112.199 Y109.38
G0 X112.029 Y109.45
;TYPE:SKIN
G1 F600 X111.824 Y108.953 E70.63558
G1 X111.488 Y108.518 E70.66294
G1 X111.045 Y108.175 E70.69082
G1 X110.548 Y107.969 E70.71759
G1 X110.001 Y107.898 E70.74504
G1 X107.971 Y110.551 E70.91129
G1 X108.176 Y111.044 E70.93786
G1 X108.511 Y111.484 E70.96538
G1 X108.954 Y111.823 E70.99314
G1 X109.453 Y112.029 E71.02
G1 X109.995 Y112.102 E71.04722
G1 X112.029 Y109.45 E71.21355
G0 F9000 X112.199 Y109.38
G0 X111.729 Y108.645
G0 X111.573 Y108.429
G0 X111.157 Y108.106
G0 X110.195 Y107.738
G0 X110.141 Y108.142
G1 F600 X109.953 Y108.33 E71.22678
G0 F9000 X110.661 Y108.258
G1 F600 X108.26 Y110.659 E71.39576
G0 F9000 X108.482 Y111.073
G1 F600 X111.074 Y108.482 E71.57815
G0 F9000 X111.408 Y108.784
G1 F600 X108.784 Y111.408 E71.76282
G0 F9000 X109.163 Y111.665
G1 F600 X111.666 Y109.163 E71.93894
G0 F9000 X112.044 Y109.007
G0 X112.156 Y109.483
G0 X111.181 Y110.857
G0 X110.857 Y110.608
G1 F600 X109.639 Y111.826 E72.02466
;MESH:NONMESH
G0 X109.639 Y111.826 Z7.6
G0 F9000 X109.585 Y112.231
G0 X108.89 Y111.928
G0 X108.426 Y111.573
G0 X108.071 Y111.109
G0 X107.844 Y110.517
G0 X108.894 Y108.08
G0 X108.782 Y107.885
;TIME_ELAPSED:135.696031
;LAYER:26
;TYPE:WALL-INNER
;MESH:gripbolt.stl
G1 F866.7 X108.274 Y108.275 E72.06008
G1 X107.887 Y108.783 E72.09539
G1 X107.644 Y109.364 E72.13021
G1 X107.561 Y110.001 E72.16573
G1 X107.643 Y110.632 E72.20092
G1 X107.887 Y111.215 E72.23587
G1 X108.275 Y111.723 E72.27121
G1 X108.783 Y112.113 E72.30662
G1 X109.368 Y112.355 E72.34163
G1 X109.999 Y112.439 E72.37683
G1 X110.631 Y112.355 E72.41208
G1 X111.215 Y112.113 E72.44704
G1 X111.724 Y111.723 E72.48249
G1 X112.111 Y111.217 E72.51772
G1 X112.353 Y110.633 E72.55267
G1 X112.437 Y110 E72.58798
G1 X112.355 Y109.364 E72.62344
G1 X112.113 Y108.782 E72.65829
G1 X111.724 Y108.278 E72.6935
G1 X111.216 Y107.885 E72.72901
G1 X110.633 Y107.644 E72.7639
G1 X110 Y107.561 E72.7992
G1 X109.367 Y107.644 E72.8345
G1 X108.782 Y107.885 E72.86948
G1 F2400 E70.86948
G0 F9000 X108.894 Y108.08
G0 X108.425 Y108.425
G0 X108.071 Y108.89
G0 X107.849 Y109.42
G0 X107.773 Y110.001
G0 X107.849 Y110.576
G0 X108.071 Y111.109
G0 X108.358 Y111.484
G0 X108.894 Y111.918
G1 F1200 E72.86948
G0 F9000 X108.543 Y112.528
;TYPE:WALL-OUTER
G1 F666.7 X109.243 Y112.817 E72.90717
G1 X109.999 Y112.918 E72.94513
G1 X110.756 Y112.817 E72.98313
G1 X111.455 Y112.528 E73.02078
G1 X112.064 Y112.061 E73.05897
G1 X112.527 Y111.455 E73.09692
G1 X112.817 Y110.757 E73.13454
G1 X112.918 Y109.999 E73.17259
G1 X112.817 Y109.24 E73.2107
G1 X112.528 Y108.543 E73.24825
G1 X112.064 Y107.938 E73.28619
G1 X111.455 Y107.47 E73.32441
G1 X110.757 Y107.181 E73.36201
G1 X110 Y107.081 E73.40001
G1 X109.243 Y107.181 E73.43801
G1 X108.543 Y107.47 E73.4757
G1 X107.935 Y107.937 E73.51385
G1 X107.472 Y108.543 E73.5518
G1 X107.181 Y109.239 E73.58934
G1 X107.081 Y110.001 E73.62759
G1 X107.181 Y110.757 E73.66554
G1 X107.472 Y111.455 E73.70318
G1 X107.935 Y112.061 E73.74113
G1 X108.543 Y112.528 E73.77928
G0 F9000 X108.727 Y112.604
G0 X108.995 Y111.959
G0 X108.455 Y111.672
G0 X108.643 Y111.43
;TYPE:SKIN
G1 F658.5 X108.968 Y111.679 E73.79784
G1 X111.353 Y108.57 E73.97551
G1 F656.9 X111.03 Y108.318 E73.99413
G1 F658.5 X108.643 Y111.43 E74.17197
G0 F9000 X108.375 Y111.305
G1 F600 X110.84 Y108.09 E74.37358
G1 X110.548 Y107.969 E74.38931
G1 X110.001 Y107.897 E74.41676
G1 X109.452 Y107.969 E74.44432
G1 X108.953 Y108.175 E74.47119
G1 X108.511 Y108.514 E74.49891
G1 X108.176 Y108.954 E74.52643
G1 X107.969 Y109.449 E74.55313
G1 X107.896 Y110.002 E74.58089
G1 X107.969 Y110.546 E74.6082
G1 X108.176 Y111.044 E74.63504
G1 X108.375 Y111.305 E74.65137
G0 F9000 X108.229 Y111.415
G0 X108.89 Y111.928
G0 X109.423 Y112.149
G0 X109.999 Y112.227
G0 X110.576 Y112.149
G0 X111.108 Y111.928
G0 X111.573 Y111.573
G0 X111.926 Y111.11
G0 X112.146 Y110.578
G0 X112.224 Y110.001
G0 X112.165 Y109.532
G0 X111.767 Y108.585
G0 X111.624 Y108.693
G1 F600 X109.158 Y111.907 E74.85298
G1 X109.452 Y112.029 E74.86882
G1 X109.999 Y112.104 E74.89629
G1 X110.545 Y112.029 E74.92372
G1 X111.044 Y111.823 E74.95059
G1 X111.488 Y111.484 E74.97839
G1 X111.821 Y111.046 E75.00577
G1 X112.026 Y110.549 E75.03252
G1 X112.101 Y109.998 E75.0602
G1 X112.03 Y109.447 E75.08784
G1 X111.824 Y108.954 E75.11443
G1 X111.624 Y108.693 E75.1308
G0 F9000 X111.339 Y109.43
G1 F600 X111.869 Y109.96 E75.1681
G0 F9000 X111.793 Y110.52
G1 F600 X111.063 Y109.791 E75.21944
G0 F9000 X110.787 Y110.15
G1 F600 X111.6 Y110.964 E75.27669
G0 F9000 X111.324 Y111.324
G1 F600 X110.51 Y110.51 E75.33398
G0 F9000 X110.235 Y110.871
G1 F600 X110.963 Y111.599 E75.38522
G0 F9000 X110.521 Y111.794
G1 F600 X109.958 Y111.231 E75.42484
G0 F9000 X109.682 Y111.592
G1 F600 X109.961 Y111.87 E75.44444
G0 F9000 X109.906 Y112.275
G0 X108.89 Y111.928
G0 X108.515 Y111.641
G0 X107.908 Y110.877
G0 X108.655 Y110.564
G1 F600 X108.127 Y110.036 E75.4816
G0 F9000 X108.201 Y109.474
G1 F600 X108.931 Y110.204 E75.53298
G0 F9000 X109.207 Y109.844
G1 F600 X108.397 Y109.033 E75.59002
G0 F9000 X108.673 Y108.673
G1 F600 X109.484 Y109.484 E75.6471
G0 F9000 X109.759 Y109.123
G1 F600 X109.033 Y108.396 E75.69823
G0 F9000 X109.475 Y108.202
G1 F600 X110.036 Y108.763 E75.73771
G0 F9000 X110.312 Y108.403
G1 F600 X110.038 Y108.129 E75.757
;MESH:NONMESH
G0 X110.038 Y108.129 Z7.88
G0 F9000 X110.092 Y107.725
G0 X109.422 Y107.849
G0 X108.889 Y108.07
G0 X108.425 Y108.425
G0 X108.071 Y108.89
G0 X107.849 Y109.42
G0 X107.773 Y110.001
G0 X107.834 Y110.466
G0 X108.015 Y110.943
G0 X107.809 Y111.028
;TIME_ELAPSED:144.411279
;LAYER:27
;TYPE:WALL-INNER
;MESH:gripbolt.stl
G1 F866.7 X110.425 Y107.617 E75.99469
G1 X110 Y107.561 E76.01839
G1 X109.367 Y107.643 E76.05369
G1 X108.783 Y107.886 E76.08866
G1 X108.274 Y108.275 E76.12409
G1 X107.887 Y108.783 E76.1594
G1 X107.644 Y109.364 E76.19422
G1 X107.561 Y110.001 E76.22974
G1 X107.569 Y110.06 E76.23304
G1 X107.644 Y110.632 E76.26493
G1 X107.809 Y111.028 E76.28866
G0 F9000 X107.776 Y111.852
;TYPE:WALL-OUTER
G1 F666.7 X111.213 Y107.37 E76.56974
G1 X110.757 Y107.181 E76.5943
G1 X110 Y107.082 E76.6323
G1 X109.243 Y107.181 E76.67029
G1 X108.543 Y107.47 E76.70798
G1 X107.935 Y107.937 E76.74613
G1 X107.472 Y108.543 E76.78408
G1 X107.181 Y109.24 E76.82167
G1 X107.082 Y110.001 E76.85986
G1 X107.097 Y110.121 E76.86588
G1 X107.181 Y110.756 E76.89776
G1 X107.472 Y111.455 E76.93544
G1 X107.776 Y111.852 E76.96032
G0 F9000 X107.897 Y111.694
G0 X107.854 Y110.685
G0 X109.842 Y108.127
G0 X109.661 Y107.988
;TYPE:SKIN
G1 F495.4 X109.464 Y108.014 E76.9723
G1 X108.978 Y108.216 E77.00402
G1 X108.545 Y108.546 E77.03683
G1 F496.3 X108.217 Y108.976 E77.06937
G1 F497.2 X108.014 Y109.461 E77.10094
G1 X107.945 Y110.002 E77.13369
G1 X107.97 Y110.194 E77.14532
G1 F496.3 X109.661 Y107.988 E77.31254
G0 F9000 X109.469 Y107.841
G1 F2400 E75.31254
G0 F9000 X109.464 Y107.781
G0 X109.988 Y107.8
G0 X108.196 Y110.946
G0 X109.551 Y111.988
G0 X109.893 Y112.249
G1 F1200 E77.31254
G0 F9000 X109.573 Y112.382
;TYPE:WALL-INNER
G1 F866.7 X110 Y112.439 E77.33636
G1 X110.632 Y112.355 E77.37161
G1 X111.216 Y112.113 E77.40657
G1 X111.726 Y111.722 E77.4421
G1 X112.112 Y111.216 E77.47729
G1 X112.354 Y110.632 E77.51225
G1 X112.439 Y109.998 E77.54762
G1 X112.355 Y109.364 E77.58298
G1 X112.191 Y108.969 E77.60663
G1 X109.573 Y112.382 E77.84448
G0 F9000 X108.785 Y112.628
;TYPE:WALL-OUTER
G1 F666.7 X109.243 Y112.817 E77.86914
G1 X110 Y112.919 E77.90715
G1 X110.757 Y112.817 E77.94516
G1 X111.455 Y112.528 E77.98276
G1 X112.065 Y112.061 E78.02099
G1 X112.528 Y111.455 E78.05894
G1 X112.817 Y110.757 E78.09654
G1 X112.918 Y109.998 E78.13464
G1 X112.818 Y109.24 E78.17269
G1 X112.528 Y108.543 E78.21026
G1 X112.224 Y108.146 E78.23515
G1 X108.785 Y112.628 E78.51629
G0 F9000 X108.97 Y112.704
G0 X109.893 Y112.249
G0 X110.367 Y112.239
G0 X110.337 Y112.011
;TYPE:SKIN
G1 F495.4 X110.535 Y111.983 E78.52834
G1 X111.021 Y111.782 E78.56004
G1 X111.457 Y111.448 E78.59314
G1 F496.3 X111.782 Y111.022 E78.62538
G1 X111.984 Y110.535 E78.6571
G1 X112.055 Y109.996 E78.6898
G1 X112.03 Y109.802 E78.70157
G1 X110.337 Y112.011 E78.86901
G0 F9000 X110.305 Y111.769
G1 F2400 E76.86901
;MESH:NONMESH
G0 F600 X110.305 Y111.769 Z8.16
G0 F9000 X110.26 Y111.733
G0 X109.543 Y111.999
G0 X108.202 Y110.97
G0 X107.808 Y110.665
G1 F1200 E78.86901
G0 F9000 X107.984 Y110.8
;TIME_ELAPSED:151.073105
;LAYER:28
;TYPE:WALL-INNER
;MESH:gripbolt.stl
G1 F866.7 X110.249 Y107.845 E79.07488
G1 X110 Y107.812 E79.08877
G1 X109.431 Y107.886 E79.1205
G1 X108.908 Y108.102 E79.15179
G1 X108.453 Y108.452 E79.18353
G1 X108.104 Y108.909 E79.21532
G1 X107.886 Y109.429 E79.2465
G1 X107.811 Y110.001 E79.2784
G1 X107.886 Y110.567 E79.30997
G1 X107.984 Y110.8 E79.32395
G0 F9000 X107.933 Y111.647
;TYPE:WALL-OUTER
G1 F666.7 X111.056 Y107.574 E79.57937
G1 X110.693 Y107.423 E79.59894
G1 X110 Y107.333 E79.63371
G1 X109.307 Y107.423 E79.66849
G1 X108.668 Y107.687 E79.7029
G1 X108.113 Y108.114 E79.73775
G1 X107.689 Y108.669 E79.7725
G1 X107.423 Y109.304 E79.80676
G1 X107.332 Y110.001 E79.84175
G1 X107.423 Y110.692 E79.87643
G1 X107.689 Y111.329 E79.91078
G1 X107.933 Y111.647 E79.93073
G0 F9000 X108.054 Y111.489
G0 X108.031 Y110.458
G0 X108.863 Y109.404
G0 X108.563 Y109.177
;TYPE:SKIN
G1 F487.4 X108.83 Y108.829 E79.9576
G1 F2400 E77.9576
G0 F9000 X109.129 Y109.057
G0 X108.386 Y110.73
G0 X109.712 Y111.747
G0 X110.068 Y112.021
G1 F1200 E79.9576
G0 F9000 X109.747 Y112.154
;TYPE:WALL-INNER
G1 F866.7 X110 Y112.189 E79.97173
G1 X110.567 Y112.113 E80.00336
G1 X111.09 Y111.897 E80.03465
G1 X111.548 Y111.544 E80.06662
G1 X111.896 Y111.09 E80.09825
G1 X112.112 Y110.567 E80.12954
G1 X112.188 Y109.998 E80.16128
G1 X112.113 Y109.429 E80.19302
G1 X112.016 Y109.195 E80.20703
G1 X109.747 Y112.154 E80.41321
G0 F9000 X108.943 Y112.424
;TYPE:WALL-OUTER
G1 F666.7 X109.275 Y112.561 E80.43108
G1 X109.308 Y112.575 E80.43287
G1 X110 Y112.668 E80.46761
G1 X110.692 Y112.575 E80.50236
G1 X111.33 Y112.311 E80.53672
G1 X111.887 Y111.883 E80.57168
G1 X112.311 Y111.33 E80.60636
G1 X112.575 Y110.692 E80.64072
G1 X112.667 Y109.998 E80.67556
G1 X112.575 Y109.304 E80.7104
G1 X112.311 Y108.668 E80.74467
G1 X112.067 Y108.35 E80.76462
G1 X108.943 Y112.424 E81.02011
G0 F9000 X109.127 Y112.5
G0 X110.068 Y112.021
G0 X110.873 Y110.938
G0 X111.172 Y111.166
;TYPE:SKIN
G1 F486.5 X111.435 Y110.822 E81.04668
;TIME_ELAPSED:155.402908
G1 F2400 E79.04668
M140 S0
M205 X10 Y10
M107
G91 ;Relative positioning
G1 E-2 F2700 ;Retract a bit
G1 E-2 Z0.2 F2400 ;Retract and raise Z
G1 X5 Y5 F3000 ;Wipe out
G1 Z10 ;Raise Z more
G90 ;Absolute positioning

G28 X0 Y0 ;Present print
M106 S0 ;Turn-off fan
M104 S0 ;Turn-off hotend
M140 S0 ;Turn-off bed

;*** Message and End Tones
M117 Print Completed
M300 S440 P200 ; Make Print Completed Tones
M300 S660 P250
M300 S880 P300
;*** End Message and End Tones

M84 X Y E ;Disable all steppers but Z
M82 ;absolute extrusion mode
M104 S0
;End of Gcode
;SETTING_3 {"global_quality": "[general]\\nversion = 4\\nname = FFV5.1_EF(.28)\\
;SETTING_3 ndefinition = creality_ender5\\n\\n[metadata]\\ntype = quality_change
;SETTING_3 s\\nquality_type = standard\\nsetting_version = 20\\n\\n[values]\\nac
;SETTING_3 celeration_enabled = True\\njerk_enabled = True\\nlayer_height = 0.28
;SETTING_3 \\nlayer_height_0 = 0.32\\nmaterial_bed_temperature = 40\\nmaterial_b
;SETTING_3 ed_temperature_layer_0 = 50\\n\\n", "extruder_quality": ["[general]\\
;SETTING_3 nversion = 4\\nname = FFV5.1_EF(.28)\\ndefinition = creality_ender5\\
;SETTING_3 n\\n[metadata]\\ntype = quality_changes\\nquality_type = standard\\ni
;SETTING_3 ntent_category = default\\nposition = 0\\nsetting_version = 20\\n\\n[
;SETTING_3 values]\\nacceleration_print = 500.0\\nacceleration_roofing = 500.0\\
;SETTING_3 nacceleration_topbottom = 500.0\\nacceleration_travel = 500.0\\naccel
;SETTING_3 eration_wall = 500.0\\nbottom_layers = 3\\ncoasting_enable = False\\n
;SETTING_3 fill_outline_gaps = True\\ninfill_line_distance = =0 if infill_sparse
;SETTING_3 _density == 0 else (infill_line_width * 100) / infill_sparse_density 
;SETTING_3 * (2 if infill_pattern == 'grid' else (3 if infill_pattern == 'triang
;SETTING_3 les' or infill_pattern == 'trihexagon' or infill_pattern == 'cubic' o
;SETTING_3 r infill_pattern == 'cubicsubdiv' else (2 if infill_pattern == 'tetra
;SETTING_3 hedral' or infill_pattern == 'quarter_cubic' else (1 if infill_patter
;SETTING_3 n == 'cross' or infill_pattern == 'cross_3d' else 1))))\\ninfill_line
;SETTING_3 _width = 0.57\\ninfill_overlap = 0\\ninfill_pattern = ='zigzag' if in
;SETTING_3 fill_sparse_density > 89 else 'lines' if infill_sparse_density > 31 e
;SETTING_3 lse 'cubic'\\ninfill_sparse_density = 20\\ninfill_sparse_thickness = 
;SETTING_3 0.3\\ninitial_layer_line_width_factor = 100.0\\ninset_direction = ins
;SETTING_3 ide_out\\njerk_layer_0 = 8\\njerk_print = 20\\njerk_travel_layer_0 = 
;SETTING_3 5\\nline_width = 0.45\\nmaterial_flow = 95\\nmaterial_flow_layer_0 = 
;SETTING_3 95\\nmaterial_print_temperature = 210\\nretraction_amount = 2\\nretra
;SETTING_3 ction_retract_speed = 40\\nretraction_speed = 20\\nroofing_layer_coun
;SETTING_3 t = 1\\nskin_angles = [45,135]\\nskin_line_width = 0.45\\nskin_overla
;SETTING_3 p = 30.0\\nskirt_brim_speed = 25.0\\nskirt_line_count = 1\\nspeed_lay
;SETTING_3 er_0 = 25\\nspeed_print = 60.0\\nspeed_roofing = 50\\nspeed_topbottom
;SETTING_3  = 45\\nspeed_travel_layer_0 = 125.0\\nspeed_wall_0 = 50\\nspeed_wall
;SETTING_3 _x = 65\\nspeed_z_hop = 10\\nsupport_angle = 80\\ntop_bottom_pattern 
;SETTING_3 = lines\\ntop_bottom_thickness = =layer_height_0+layer_height*3\\ntop
;SETTING_3 _layers = 3\\nwall_0_material_flow = 95\\nwall_0_wipe_dist = 0.2\\nwa
;SETTING_3 ll_line_count = 2\\nwall_line_width_x = 0.5\\nwall_thickness = =line_
;SETTING_3 width*2\\nxy_offset_layer_0 = -0.15\\nz_seam_corner = z_seam_corner_w
;SETTING_3 eighted\\nz_seam_type = sharpest_corner\\n\\n"]}
