;FLAVOR:Marlin
;TIME:179
;Filament used: 0.229264m
;Layer height: 0.28
;MINX:87.312
;MINY:86.824
;MINZ:0.32
;MAXX:132.704
;MAXY:133.261
;MAXZ:2.56
;Generated with Cura_SteamEngine main
M82 ;absolute extrusion mode
M201 X500.00 Y500.00 Z100.00 E5000.00 ;Setup machine max acceleration
M203 X500.00 Y500.00 Z10.00 E50.00 ;Setup machine max feedrate
M204 P500.00 R1000.00 T500.00 ;Setup Print/Retract/Travel acceleration
M205 X8.00 Y8.00 Z0.40 E5.00 ;Setup Jerk
M220 S100 ;Reset Feedrate
M221 S100 ;Reset Flowrate

;*** Start Dual Nozzle/Bed Preheating ***
M140 S50 ; start preheating the bed
M104 S210 ?T0 ; start preheating hotend
M190 S50 ; heat to Cura Bed setting and WAIT
M109 S210 ?T0 ; heat to Cura Hotend and WAIT
;*** End Preheating ***


;*** Single Print Start Tone
M300 S1000 P500 ; chirp to indicate starting to print
;*** End Single Start Tone

G28 ;Home

G92 E0 ;Reset Extruder
G1 Z2.0 F3000 ;Move Z Axis up
G1 X10.1 Y20 Z0.28 F5000.0 ;Move to start position
G1 X10.1 Y200.0 Z0.28 F1500.0 E15 ;Draw the first line
G1 X10.4 Y200.0 Z0.28 F5000.0 ;Move to side a little
G1 X10.4 Y20 Z0.28 F1500.0 E30 ;Draw the second line
G92 E0 ;Reset Extruder
G1 Z2.0 F3000 ;Move Z Axis up
G92 E0
G92 E0
G1 F2400 E-2
;LAYER_COUNT:9
;LAYER:0
M107
M204 S500
M205 X5 Y5
G0 F7500 X93.647 Y90.129 Z0.32
G0 X90.168 Y99.44
M205 X8 Y8
;TYPE:SKIRT
G1 F1200 E0
G1 F1500 X90.175 Y98.65 E0.04269
G1 X90.193 Y98.002 E0.07771
G1 X90.259 Y97.08 E0.12766
G1 X90.404 Y96.168 E0.17755
G1 X90.59 Y95.399 E0.2203
G1 X90.658 Y95.158 E0.23383
G1 X90.947 Y94.281 E0.28372
G1 X91.311 Y93.431 E0.33368
G1 X91.762 Y92.592 E0.38515
G1 X91.936 Y92.3 E0.40351
G1 X92.443 Y91.528 E0.45342
G1 X93.014 Y90.802 E0.50332
G1 X93.647 Y90.129 E0.55324
G1 X94.335 Y89.512 E0.60317
G1 X95.074 Y88.958 E0.65308
G1 X95.634 Y88.599 E0.68902
G1 X95.974 Y88.396 E0.71041
G1 X96.787 Y87.958 E0.76031
G1 X97.635 Y87.591 E0.81024
G1 X98.697 Y87.241 E0.87065
G1 X99.714 Y87.006 E0.92705
G1 X100.629 Y86.877 E0.97698
G1 X101.549 Y86.827 E1.02676
G1 X101.823 Y86.824 E1.04157
G1 X102.747 Y86.854 E1.09152
G1 X103.664 Y86.963 E1.14141
G1 X104.514 Y87.138 E1.1883
G1 X105.617 Y87.412 E1.24971
G1 X106.024 Y87.522 E1.27249
G1 X106.911 Y87.784 E1.32246
G1 X107.388 Y87.938 E1.34954
G1 X107.958 Y88.135 E1.38213
G1 X108.649 Y88.395 E1.42202
G1 X109.773 Y88.864 E1.48783
G1 X110.476 Y89.186 E1.5296
G1 X111.138 Y89.513 E1.5695
G1 X111.836 Y89.882 E1.61216
G1 X112.276 Y90.129 E1.63942
G1 X112.93 Y90.515 E1.68045
G1 X113.846 Y91.093 E1.73898
G1 X115.72 Y92.322 E1.86006
G1 X117.862 Y93.644 E1.99606
G1 X120.032 Y94.899 E2.13151
G1 X122.237 Y96.093 E2.26699
G1 X125.608 Y97.77 E2.47042
G1 X126.566 Y98.222 E2.52766
G1 X127.384 Y98.652 E2.57759
G1 X128.161 Y99.151 E2.62748
G1 X128.893 Y99.716 E2.67745
G1 X129.572 Y100.342 E2.72735
G1 X130.195 Y101.024 E2.77726
G1 X130.757 Y101.757 E2.82716
G1 X131.253 Y102.537 E2.87711
G1 X131.68 Y103.356 E2.92701
G1 X132.035 Y104.209 E2.97693
G1 X132.314 Y105.09 E3.02686
G1 X132.516 Y105.991 E3.07675
G1 X132.64 Y106.907 E3.1267
G1 X132.682 Y107.659 E3.16739
G1 X132.704 Y108.862 E3.2324
G1 X132.703 Y115.229 E3.57642
G1 X132.693 Y115.958 E3.61581
G1 X132.64 Y116.881 E3.66576
G1 X132.508 Y117.795 E3.71566
G1 X132.297 Y118.695 E3.76561
G1 X132.01 Y119.573 E3.81552
G1 X131.647 Y120.422 E3.8654
G1 X131.212 Y121.238 E3.91537
G1 X130.709 Y122.012 E3.96524
G1 X130.14 Y122.74 E4.01517
G1 X129.511 Y123.417 E4.0651
G1 X128.825 Y124.036 E4.11502
G1 X128.088 Y124.594 E4.16497
G1 X127.306 Y125.086 E4.21489
G1 X126.138 Y125.66 E4.2852
G1 X125.602 Y125.884 E4.31659
G1 X123.13 Y126.96 E4.46226
G1 X120.844 Y128.034 E4.59873
G1 X118.63 Y129.15 E4.73269
G1 X116.373 Y130.37 E4.87132
G1 X113.882 Y131.813 E5.02686
G1 X113.063 Y132.241 E5.07679
G1 X112.211 Y132.597 E5.12668
G1 X111.331 Y132.877 E5.17658
G1 X110.429 Y133.081 E5.22654
G1 X109.514 Y133.206 E5.27644
G1 X108.8 Y133.248 E5.31509
G1 X108.134 Y133.261 E5.35108
G1 X98.53 Y133.26 E5.86999
G1 X97.833 Y133.25 E5.90766
G1 X96.91 Y133.197 E5.95761
G1 X95.996 Y133.064 E6.00751
G1 X95.097 Y132.853 E6.05741
G1 X94.219 Y132.564 E6.10735
G1 X93.369 Y132.201 E6.15729
G1 X92.554 Y131.766 E6.2072
G1 X91.78 Y131.262 E6.25711
G1 X91.052 Y130.693 E6.30703
G1 X90.377 Y130.063 E6.35692
G1 X89.758 Y129.377 E6.40684
G1 X89.2 Y128.64 E6.45679
G1 X88.709 Y127.857 E6.50673
G1 X88.287 Y127.035 E6.55665
G1 X87.938 Y126.18 E6.60655
G1 X87.664 Y125.298 E6.65645
G1 X87.467 Y124.395 E6.70639
G1 X87.349 Y123.479 E6.75629
G1 X87.312 Y122.403 E6.81446
G1 X87.321 Y121.847 E6.84451
G1 X87.367 Y120.829 E6.89957
G1 X87.453 Y119.909 E6.94949
G1 X87.608 Y119.049 E6.99671
G1 X87.787 Y118.249 E7.041
G1 X88.089 Y116.965 E7.11227
G1 X88.598 Y114.491 E7.24874
G1 X89.037 Y112 E7.38541
G1 X89.406 Y109.497 E7.52211
G1 X89.702 Y107.001 E7.65792
G1 X89.927 Y104.494 E7.79392
G1 X90.084 Y101.948 E7.93174
G1 X90.168 Y99.44 E8.06733
M205 X5 Y5
G1 F2400 E6.06733
G0 F7500 X90.376 Y104.527
M205 X8 Y8
G1 F1200 E8.06733
G1 F1500 X90.535 Y101.953 E8.20667
G1 X90.618 Y99.457 E8.34161
G1 X90.621 Y98.887 E8.3724
G1 X90.643 Y98.014 E8.41959
G1 X90.708 Y97.112 E8.46845
G1 X90.852 Y96.22 E8.51727
G1 X91.023 Y95.521 E8.55615
G1 X91.091 Y95.28 E8.56968
G1 X91.375 Y94.422 E8.61851
G1 X91.734 Y93.592 E8.66737
G1 X92.148 Y92.823 E8.71456
G1 X92.322 Y92.531 E8.73293
G1 X92.819 Y91.775 E8.78181
G1 X93.381 Y91.067 E8.83065
G1 X94.003 Y90.41 E8.87954
G1 X94.68 Y89.812 E8.92834
G1 X95.408 Y89.275 E8.97722
G1 X95.864 Y88.986 E9.00639
G1 X96.204 Y88.783 E9.02779
G1 X97 Y88.354 E9.07664
G1 X97.831 Y87.997 E9.12551
G1 X98.822 Y87.674 E9.18183
G1 X99.815 Y87.445 E9.23689
G1 X100.711 Y87.321 E9.28576
G1 X101.554 Y87.277 E9.33137
G1 X101.828 Y87.274 E9.34618
G1 X102.732 Y87.304 E9.39505
G1 X103.629 Y87.414 E9.44388
G1 X104.405 Y87.575 E9.4867
G1 X105.508 Y87.849 E9.54811
G1 X105.898 Y87.954 E9.56993
G1 X106.772 Y88.213 E9.61918
G1 X107.501 Y88.451 E9.66062
G1 X108.062 Y88.652 E9.69282
G1 X108.799 Y88.94 E9.73557
G1 X109.589 Y89.274 E9.78191
G1 X110.279 Y89.59 E9.82292
G1 X110.708 Y89.8 E9.84872
G1 X111.615 Y90.275 E9.90404
G1 X112.28 Y90.652 E9.94535
G1 X112.961 Y91.062 E9.9883
G1 X113.481 Y91.393 E10.0216
G1 X115.453 Y92.686 E10.14901
G1 X117.617 Y94.021 E10.28639
G1 X119.836 Y95.305 E10.42491
G1 X122.001 Y96.477 E10.55793
G1 X125.456 Y98.196 E10.76644
G1 X126.374 Y98.629 E10.82128
G1 X127.174 Y99.05 E10.87013
G1 X127.933 Y99.541 E10.91897
G1 X128.646 Y100.097 E10.96782
G1 X129.308 Y100.714 E11.01672
G1 X129.912 Y101.387 E11.06558
G1 X130.454 Y102.11 E11.1144
G1 X130.93 Y102.879 E11.16326
G1 X131.337 Y103.687 E11.21215
G1 X131.67 Y104.527 E11.26097
G1 X131.928 Y105.394 E11.30984
G1 X132.109 Y106.28 E11.3587
G1 X132.21 Y107.178 E11.40753
G1 X132.232 Y107.668 E11.43403
G1 X132.254 Y108.862 E11.49856
G1 X132.253 Y115.223 E11.84225
G1 X132.243 Y115.952 E11.88164
G1 X132.191 Y116.855 E11.93051
G1 X132.059 Y117.749 E11.97934
G1 X131.848 Y118.629 E12.02823
G1 X131.561 Y119.486 E12.07707
G1 X131.199 Y120.315 E12.12594
G1 X130.765 Y121.108 E12.17479
G1 X130.263 Y121.86 E12.22364
G1 X129.697 Y122.565 E12.27249
G1 X129.07 Y123.217 E12.32136
G1 X128.388 Y123.811 E12.37023
G1 X127.657 Y124.342 E12.41905
G1 X126.881 Y124.807 E12.46793
G1 X125.965 Y125.245 E12.52278
G1 X125.357 Y125.499 E12.55839
G1 X122.974 Y126.537 E12.69883
G1 X120.666 Y127.621 E12.8366
G1 X118.386 Y128.77 E12.97455
G1 X116.175 Y129.965 E13.11035
G1 X113.657 Y131.424 E13.26758
G1 X112.855 Y131.842 E13.31645
G1 X112.019 Y132.188 E13.36534
G1 X111.157 Y132.458 E13.41414
G1 X110.273 Y132.651 E13.46303
G1 X109.376 Y132.766 E13.51189
G1 X108.788 Y132.798 E13.54371
G1 X108.134 Y132.811 E13.57905
G1 X98.536 Y132.81 E14.09764
G1 X97.839 Y132.8 E14.13531
G1 X96.937 Y132.747 E14.18413
G1 X96.042 Y132.615 E14.23301
G1 X95.163 Y132.404 E14.28185
G1 X94.306 Y132.116 E14.3307
G1 X93.477 Y131.753 E14.3796
G1 X92.684 Y131.319 E14.42844
G1 X91.933 Y130.817 E14.47725
G1 X91.228 Y130.25 E14.52613
G1 X90.577 Y129.622 E14.57501
G1 X89.983 Y128.94 E14.62387
G1 X89.452 Y128.208 E14.67273
G1 X88.988 Y127.433 E14.72154
G1 X88.594 Y126.619 E14.7704
G1 X88.274 Y125.773 E14.81927
G1 X88.029 Y124.903 E14.86811
G1 X87.863 Y124.014 E14.91697
G1 X87.775 Y123.114 E14.96583
G1 X87.762 Y122.411 E15.00382
G1 X87.783 Y121.502 E15.05295
G1 X87.816 Y120.852 E15.08811
G1 X87.902 Y119.951 E15.13702
G1 X88.048 Y119.147 E15.18117
G1 X88.225 Y118.352 E15.22518
G1 X88.531 Y117.049 E15.29749
G1 X89.037 Y114.592 E15.43303
G1 X89.48 Y112.075 E15.57112
G1 X89.848 Y109.577 E15.70755
G1 X90.152 Y107.026 E15.84636
G1 X90.376 Y104.527 E15.98192
M205 X5 Y5
G1 F2400 E13.98192
;MESH:trigger.stl
G0 F7500 X99.199 Y120.48
G0 X99.38 Y121.574
G0 X100.506 Y121.752
G1 F1200 E15.98192
G0 F7500 X99.422 Y121.856
M205 X8 Y8
;TYPE:WALL-INNER
G1 F1358.7 X99.709 Y121.862 E16.00095
G1 F1388.9 X99.996 Y121.868 E16.01956
G1 F1417.8 X100.283 Y121.874 E16.03779
G1 F1450.7 X100.57 Y121.88 E16.05561
G1 F1485.1 X100.857 Y121.886 E16.07302
G1 F1500 X108.314 Y121.885 E16.52069
G1 X117.858 Y115.225 E17.21938
G1 X118.172 Y115.119 E17.23927
G1 X121.329 Y115.119 E17.4288
G1 X121.329 Y108.339 E17.83584
G1 X112.726 Y104.713 E18.39632
G1 X111.65 Y104.12 E18.47007
G1 X111.528 Y104.12 E18.4774
G1 X111.203 Y103.926 E18.50012
G1 X110.54 Y103.148 E18.56149
G1 X109.909 Y102.486 E18.61639
G1 X109.248 Y101.868 E18.67072
G1 X108.562 Y101.296 E18.72434
G1 X107.831 Y100.754 E18.77897
G1 X107.08 Y100.261 E18.8329
G1 X106.302 Y99.808 E18.88695
G1 X105.936 Y99.625 E18.91152
G1 F1211.6 X105.483 Y99.53 E18.94592
G1 F1033.1 X105.193 Y99.39 E18.97399
G1 F1066.9 X104.902 Y99.249 E19.00128
G1 F1102.9 X104.611 Y99.108 E19.02768
G1 F1145 X104.368 Y99.005 E19.04844
G1 F1184.8 X104.076 Y98.892 E19.07224
G1 F1211.6 X103.783 Y98.778 E19.0956
G1 F1247.9 X103.503 Y98.682 E19.11696
G1 F1290.9 X103.223 Y98.586 E19.13761
G1 F1336.9 X102.943 Y98.489 E19.15757
G1 F1376.1 X102.666 Y98.414 E19.17635
G1 F1407.1 X102.389 Y98.339 E19.19472
G1 F1439.5 X102.112 Y98.264 E19.21267
G1 F1473.5 X101.835 Y98.189 E19.23021
G1 F1488.1 X101.704 Y98.204 E19.23819
G1 X101.575 Y98.333 E19.24923
G1 X101.553 Y98.467 E19.25745
G1 X101.605 Y98.585 E19.26525
G1 X101.729 Y98.68 E19.2747
G1 F1470.6 X102.016 Y98.772 E19.29316
G1 F1434 X102.304 Y98.865 E19.31216
G1 F1396.6 X102.591 Y98.958 E19.33161
G1 F1363.6 X102.879 Y99.051 E19.3516
G1 F1327.4 X103.123 Y99.158 E19.36967
G1 F1288.7 X103.367 Y99.264 E19.38826
G1 F1252.1 X103.611 Y99.371 E19.40743
G1 F1219.5 X103.855 Y99.477 E19.42707
G1 F1186.7 X104.098 Y99.584 E19.44722
G1 F1175.5 X104.362 Y99.735 E19.47052
G1 F1186.7 X104.627 Y99.887 E19.4937
G1 F1196.2 X104.892 Y100.039 E19.5167
G1 F1207.7 X105.156 Y100.19 E19.53938
G1 F1341.7 X105.373 Y100.502 E19.56488
G1 F1500 X106.221 Y101.18 E19.63006
G1 X107.154 Y102.129 E19.70996
G1 X107.967 Y103.169 E19.78921
G1 X108.656 Y104.297 E19.86856
G1 X109.224 Y105.527 E19.9499
G1 X109.657 Y106.856 E20.03381
G1 X109.905 Y108.087 E20.1092
G1 X110.02 Y109.435 E20.19042
G1 X109.98 Y110.787 E20.27162
G1 X109.739 Y112.324 E20.36502
G1 X109.323 Y113.777 E20.45576
G1 X108.744 Y115.144 E20.54488
G1 X108.031 Y116.388 E20.63096
G1 X107.079 Y117.654 E20.72606
G1 X106.11 Y118.661 E20.80995
G1 X104.921 Y119.638 E20.90234
G1 X103.595 Y120.466 E20.99619
G1 X102.252 Y121.089 E21.08507
G1 X100.909 Y121.53 E21.16993
G1 F1488.1 X100.661 Y121.584 E21.18529
G1 F1459.1 X100.413 Y121.638 E21.20096
G1 F1431.3 X100.165 Y121.693 E21.21694
G1 F1407.1 X99.917 Y121.747 E21.23318
G1 F1381.2 X99.669 Y121.802 E21.24975
G1 F1356.2 X99.421 Y121.856 E21.2666
M205 X5 Y5
G0 F7500 X100.506 Y121.752
G0 X98.487 Y122.092
G0 X98.209 Y122.36
M205 X8 Y8
;TYPE:WALL-OUTER
G1 F1500 X108.464 Y122.36 E21.82069
G1 X118.093 Y115.643 E22.45503
G1 X118.226 Y115.599 E22.4626
G1 X121.804 Y115.594 E22.65592
G1 X121.804 Y108.024 E23.06494
G1 X112.91 Y104.275 E23.58644
G1 X111.809 Y103.664 E23.65447
G1 X111.703 Y103.664 E23.6602
G1 X111.53 Y103.577 E23.67066
G1 X110.893 Y102.829 E23.72375
G1 X110.243 Y102.148 E23.77461
G1 X109.562 Y101.511 E23.825
G1 X108.856 Y100.923 E23.87464
G1 X108.103 Y100.364 E23.92531
G1 X107.33 Y99.857 E23.97526
G1 X106.528 Y99.39 E24.0254
G1 X105.752 Y99 E24.07233
G1 X104.818 Y98.589 E24.12746
G1 X103.959 Y98.276 E24.17686
G1 X103.084 Y98.008 E24.22631
G1 X102.149 Y97.78 E24.27831
G1 X101.899 Y97.712 E24.2923
G1 X101.713 Y97.71 E24.30235
G1 X101.523 Y97.759 E24.31296
G1 X101.362 Y97.851 E24.32298
G1 X101.131 Y98.147 E24.34326
G1 X101.078 Y98.34 E24.35408
G1 X101.122 Y98.705 E24.37394
G1 X101.357 Y99.014 E24.39492
G1 X101.528 Y99.115 E24.40565
G1 X102.625 Y99.491 E24.4683
G1 X103.825 Y100.058 E24.54001
G1 X104.91 Y100.74 E24.60926
G1 X105.914 Y101.545 E24.67879
G1 X106.809 Y102.457 E24.74783
G1 X107.587 Y103.455 E24.8162
G1 X108.251 Y104.544 E24.88512
G1 X108.802 Y105.749 E24.95671
G1 X109.191 Y106.95 E25.02492
G1 X109.443 Y108.207 E25.09419
G1 X109.547 Y109.474 E25.16287
G1 X109.507 Y110.749 E25.2318
G1 X109.288 Y112.168 E25.30938
G1 X108.885 Y113.594 E25.38944
G1 X108.344 Y114.883 E25.46497
G1 X107.619 Y116.151 E25.54389
G1 X106.737 Y117.325 E25.62323
G1 X105.768 Y118.332 E25.69874
G1 X104.653 Y119.244 E25.77657
G1 X103.418 Y120.022 E25.85544
G1 X102.104 Y120.637 E25.93382
G1 X100.761 Y121.079 E26.01022
G1 X99.299 Y121.365 E26.09071
G1 X98.245 Y121.442 E26.14781
G1 X98.209 Y122.36 E26.19745
M205 X5 Y5
G0 F7500 X98.409 Y122.36
G0 X98.701 Y121.885
M205 X8 Y8
;TYPE:WALL-INNER
G1 F1459.1 X99.062 Y121.871 E26.21974
G1 F1381.2 X99.423 Y121.856 E26.2433
M205 X5 Y5
G0 F7500 X100.506 Y121.752
G0 X100.917 Y121.699
G0 X102.381 Y121.215
G0 X103.755 Y120.565
G0 X105.04 Y119.753
G0 X106.211 Y118.792
G0 X107.261 Y117.696
G0 X108.17 Y116.476
G0 X108.926 Y115.146
G0 X109.508 Y113.752
G0 X109.916 Y112.288
G0 X110.145 Y110.791
G0 X110.183 Y109.417
G0 X110.073 Y108.093
G0 X109.802 Y106.759
G0 X109.37 Y105.45
G0 X108.816 Y104.245
G0 X108.237 Y103.298
G0 X107.269 Y102.029
G0 X107.474 Y101.836
M205 X8 Y8
;TYPE:SKIN
G1 F1225 X107.405 Y101.909 E26.24995
G1 F1500 X108.239 Y102.973 E26.32299
G1 X108.99 Y104.216 E26.40146
G1 X109.526 Y105.389 E26.47114
G1 X109.974 Y106.744 E26.54825
G1 X110.236 Y108.053 E26.62038
G1 X110.354 Y109.5 E26.69882
G1 X110.313 Y110.797 E26.76893
G1 X110.068 Y112.375 E26.85522
G1 X109.673 Y113.78 E26.93407
G1 X109.075 Y115.226 E27.01862
G1 X108.291 Y116.603 E27.10423
G1 X107.318 Y117.886 E27.19124
G1 X106.259 Y118.976 E27.27335
G1 X105.127 Y119.899 E27.35227
G1 X103.803 Y120.734 E27.43684
G1 X102.48 Y121.356 E27.51583
G1 X101.892 Y121.552 E27.54932
G1 X108.207 Y121.553 E27.89053
G1 X117.697 Y114.932 E28.51574
G1 X118.115 Y114.787 E28.53965
G1 X120.997 Y114.787 E28.69537
G1 X120.997 Y108.559 E29.03187
G1 X112.575 Y105.009 E29.5257
G1 X111.546 Y104.441 E29.5892
G1 X111.46 Y104.433 E29.59387
G1 X110.985 Y104.184 E29.62285
G1 X110.262 Y103.337 E29.68302
G1 X109.692 Y102.739 E29.72765
G1 X109.018 Y102.109 E29.7775
G1 X108.357 Y101.558 E29.824
G1 X107.971 Y101.271 E29.84999
G1 F1225 X107.902 Y101.346 E29.85673
G1 F1058 X107.606 Y101.108 E29.88582
G1 F1110.2 X107.369 Y100.934 E29.90729
G1 F1169.8 X107.132 Y100.76 E29.92766
G1 F1236.3 X106.895 Y100.586 E29.94693
G1 F1303.1 X106.648 Y100.429 E29.96513
G1 F1366.4 X106.401 Y100.271 E29.98253
G1 F1436.2 X106.154 Y100.113 E29.99907
G1 F1473.8 X105.804 Y99.937 E30.02062
G1 X105.479 Y99.944 E30.03849
G1 X105.601 Y100.252 E30.05671
G1 X105.901 Y100.492 E30.07784
G1 F1430.1 X106.192 Y100.708 E30.09838
G1 F1347.3 X106.484 Y100.924 E30.12022
G1 F1276 X106.681 Y101.106 E30.13726
G1 F1211.8 X106.879 Y101.288 E30.15525
G1 F1155.8 X107.077 Y101.47 E30.1741
G1 F1104.7 X107.275 Y101.653 E30.19388
G1 F1056.3 X107.473 Y101.835 E30.21452
M205 X5 Y5
G0 F7500 X107.269 Y102.029
G0 X105.81 Y100.583
G0 X105.498 Y100.33
G0 X105.282 Y99.839
G0 X105.832 Y99.81
G0 X107.71 Y100.926
G0 X109.304 Y102.208
G0 X110.407 Y103.316
G0 X110.896 Y103.928
G0 X111.669 Y104.378
G0 X115.534 Y106.126
G0 X121.112 Y108.483
G0 X121.179 Y109.316
G0 X120.771 Y109.316
M205 X8 Y8
G1 F1500 X119.72 Y108.265 E30.29483
M205 X5 Y5
G0 F7500 X119.877 Y107.891
G0 X118.776 Y107.428
G0 X118.619 Y107.801
M205 X8 Y8
G1 F1500 X120.771 Y109.952 E30.45923
M205 X5 Y5
G0 F7500 X120.771 Y110.589
M205 X8 Y8
G1 F1500 X117.519 Y107.337 E30.70772
M205 X5 Y5
G0 F7500 X117.679 Y106.963
G0 X116.576 Y106.5
G0 X116.419 Y106.873
M205 X8 Y8
G1 F1500 X120.771 Y111.225 E31.04026
M205 X5 Y5
G0 F7500 X120.771 Y111.862
M205 X8 Y8
G1 F1500 X115.319 Y106.409 E31.45689
M205 X5 Y5
G0 F7500 X115.476 Y106.036
G0 X114.375 Y105.572
G0 X114.218 Y105.945
M205 X8 Y8
G1 F1500 X120.771 Y112.498 E31.95762
M205 X5 Y5
G0 F7500 X120.771 Y113.134
M205 X8 Y8
G1 F1500 X113.118 Y105.481 E32.54239
M205 X5 Y5
G0 F7500 X113.275 Y105.108
G0 X112.897 Y104.956
G0 X112.086 Y104.535
G0 X111.889 Y104.888
M205 X8 Y8
G1 F1500 X120.771 Y113.771 E33.22112
M205 X5 Y5
G0 F7500 X120.771 Y114.407
M205 X8 Y8
G1 F1500 X107.825 Y101.461 E34.21034
M205 X5 Y5
G0 F7500 X107.885 Y102.157
M205 X8 Y8
G1 F1500 X120.289 Y114.561 E35.15815
M205 X5 Y5
G0 F7500 X119.653 Y114.561
M205 X8 Y8
G1 F1500 X109.172 Y104.081 E35.95898
M205 X5 Y5
G0 F7500 X108.813 Y104.273
G0 X109.34 Y105.418
G0 X109.706 Y105.252
M205 X8 Y8
G1 F1500 X119.016 Y114.561 E36.67033
M205 X5 Y5
G0 F7500 X118.38 Y114.561
M205 X8 Y8
G1 F1500 X110.038 Y106.22 E37.30772
M205 X5 Y5
G0 F7500 X110.269 Y107.087
M205 X8 Y8
G1 F1500 X117.83 Y114.648 E37.88547
M205 X5 Y5
G0 F7500 X117.407 Y114.861
M205 X8 Y8
G1 F1500 X110.432 Y107.886 E38.41844
M205 X5 Y5
G0 F7500 X110.502 Y108.593
M205 X8 Y8
G1 F1500 X117.031 Y115.122 E38.91733
M205 X5 Y5
G0 F7500 X116.657 Y115.384
M205 X8 Y8
G1 F1500 X110.56 Y109.287 E39.38321
M205 X5 Y5
G0 F7500 X110.563 Y109.926
M205 X8 Y8
G1 F1500 X116.282 Y115.645 E39.82021
M205 X5 Y5
G0 F7500 X115.907 Y115.907
M205 X8 Y8
G1 F1500 X110.545 Y110.545 E40.22993
M205 X5 Y5
G0 F7500 X110.488 Y111.125
M205 X8 Y8
G1 F1500 X115.532 Y116.169 E40.61535
M205 X5 Y5
G0 F7500 X115.157 Y116.43
M205 X8 Y8
G1 F1500 X110.401 Y111.674 E40.97876
M205 X5 Y5
G0 F7500 X110.315 Y112.224
M205 X8 Y8
G1 F1500 X114.782 Y116.691 E41.32009
M205 X5 Y5
G0 F7500 X114.407 Y116.953
M205 X8 Y8
G1 F1500 X110.199 Y112.744 E41.64167
M205 X5 Y5
G0 F7500 X110.059 Y113.241
M205 X8 Y8
G1 F1500 X114.032 Y117.214 E41.94525
M205 X5 Y5
G0 F7500 X113.657 Y117.475
M205 X8 Y8
G1 F1500 X109.918 Y113.736 E42.23095
M205 X5 Y5
G0 F7500 X109.741 Y114.196
M205 X8 Y8
G1 F1500 X113.282 Y117.737 E42.50153
M205 X5 Y5
G0 F7500 X112.907 Y117.999
M205 X8 Y8
G1 F1500 X109.555 Y114.646 E42.75769
M205 X5 Y5
G0 F7500 X109.368 Y115.096
M205 X8 Y8
G1 F1500 X112.533 Y118.26 E42.9995
M205 X5 Y5
G0 F7500 X112.157 Y118.521
M205 X8 Y8
G1 F1500 X109.161 Y115.525 E43.22843
M205 X5 Y5
G0 F7500 X108.931 Y115.931
M205 X8 Y8
G1 F1500 X111.782 Y118.783 E43.44632
M205 X5 Y5
G0 F7500 X111.408 Y119.044
M205 X8 Y8
G1 F1500 X108.7 Y116.337 E43.6532
M205 X5 Y5
G0 F7500 X108.466 Y116.739
M205 X8 Y8
G1 F1500 X111.033 Y119.306 E43.84935
M205 X5 Y5
G0 F7500 X110.657 Y119.567
M205 X8 Y8
G1 F1500 X108.192 Y117.102 E44.0377
M205 X5 Y5
G0 F7500 X107.918 Y117.464
M205 X8 Y8
G1 F1500 X110.283 Y119.829 E44.21842
M205 X5 Y5
G0 F7500 X109.908 Y120.09
M205 X8 Y8
G1 F1500 X107.644 Y117.827 E44.39137
M205 X5 Y5
G0 F7500 X107.35 Y118.169
M205 X8 Y8
G1 F1500 X109.533 Y120.352 E44.55818
M205 X5 Y5
G0 F7500 X109.158 Y120.613
M205 X8 Y8
G1 F1500 X107.038 Y118.493 E44.72017
M205 X5 Y5
G0 F7500 X106.725 Y118.817
M205 X8 Y8
G1 F1500 X108.783 Y120.874 E44.87739
M205 X5 Y5
G0 F7500 X108.408 Y121.136
M205 X8 Y8
G1 F1500 X106.411 Y119.139 E45.02998
M205 X5 Y5
G0 F7500 X106.061 Y119.425
M205 X8 Y8
G1 F1500 X107.962 Y121.326 E45.17524
M205 X5 Y5
G0 F7500 X107.326 Y121.326
M205 X8 Y8
G1 F1500 X105.71 Y119.711 E45.29868
M205 X5 Y5
G0 F7500 X105.36 Y119.997
M205 X8 Y8
G1 F1500 X106.689 Y121.326 E45.40023
M205 X5 Y5
G0 F7500 X106.053 Y121.326
M205 X8 Y8
G1 F1500 X104.981 Y120.254 E45.48215
M205 X5 Y5
G0 F7500 X104.591 Y120.501
M205 X8 Y8
G1 F1500 X105.416 Y121.326 E45.54519
M205 X5 Y5
G0 F7500 X104.779 Y121.326
M205 X8 Y8
G1 F1500 X104.202 Y120.748 E45.58931
M205 X5 Y5
G0 F7500 X103.8 Y120.983
M205 X8 Y8
G1 F1500 X104.143 Y121.326 E45.61552
M205 X5 Y5
G0 F7500 X103.506 Y121.326
M104 S210
M205 X8 Y8
G1 F1500 X103.367 Y121.186 E45.62618
M205 X5 Y5
;MESH:NONMESH
G0 F600 X103.367 Y121.186 Z0.6
G0 F7500 X103.197 Y120.819
G0 X98.519 Y122.067
G0 X98.512 Y122.067
;TIME_ELAPSED:46.783058
;LAYER:1
M140 S40
M106 S85
M205 X14 Y14
;TYPE:WALL-INNER
;MESH:trigger.stl
G1 F3068.2 X98.769 Y122.064 E45.63869
G1 F3020.1 X99.026 Y122.06 E45.6514
G1 F2973.6 X99.283 Y122.057 E45.6643
G1 F2928.4 X99.54 Y122.053 E45.6774
G1 F2884.6 X99.797 Y122.05 E45.69071
G1 F2842.1 X100.054 Y122.046 E45.70421
G1 F2800.8 X100.311 Y122.043 E45.71791
G1 F2760.7 X100.568 Y122.039 E45.73181
G1 F2721.8 X100.825 Y122.036 E45.74591
G1 F2700 X108.361 Y122.036 E46.16261
G1 X117.929 Y115.359 E46.80776
G1 X118.171 Y115.269 E46.82204
G1 X121.479 Y115.269 E47.00495
G1 X121.479 Y108.239 E47.39367
G1 X112.731 Y104.549 E47.91867
G1 X111.383 Y103.799 E48.00397
G1 X110.7 Y102.996 E48.06226
G1 X110.067 Y102.333 E48.11294
G1 X109.397 Y101.707 E48.16364
G1 X108.694 Y101.12 E48.21429
G1 X107.957 Y100.574 E48.265
G1 X107.194 Y100.072 E48.31551
G1 X106.381 Y99.605 E48.36735
G1 X105.562 Y99.191 E48.41809
G1 X104.726 Y98.828 E48.46849
G1 X103.867 Y98.514 E48.51906
G1 X102.989 Y98.247 E48.56981
G1 X102.724 Y98.184 E48.58487
G1 F2184.5 X102.259 Y98.192 E48.61665
G1 F1849.3 X101.849 Y98.078 E48.65101
G1 F1864.6 X101.665 Y98.102 E48.66587
G1 X101.52 Y98.212 E48.68044
G1 X101.444 Y98.39 E48.69593
G1 X101.467 Y98.571 E48.71054
G1 F1856.9 X101.608 Y98.756 E48.72924
G1 F1841.7 X102.053 Y98.899 E48.76713
G1 F2184.5 X102.439 Y99.157 E48.79887
G1 F2700 X102.809 Y99.289 E48.82059
G1 X103.965 Y99.84 E48.8914
G1 X105.076 Y100.544 E48.96413
G1 X106.061 Y101.336 E49.03401
G1 X106.983 Y102.268 E49.10651
G1 X107.79 Y103.298 E49.17886
G1 X108.467 Y104.408 E49.25075
G1 X109.045 Y105.671 E49.32755
G1 X109.447 Y106.92 E49.40011
G1 X109.688 Y108.125 E49.46806
G1 X109.8 Y109.431 E49.54054
G1 X109.76 Y110.769 E49.61456
G1 X109.523 Y112.282 E49.69924
G1 X109.118 Y113.695 E49.78051
G1 X108.543 Y115.052 E49.86201
G1 X107.852 Y116.256 E49.93877
G1 X106.946 Y117.475 E50.02275
G1 X105.894 Y118.563 E50.10644
G1 X104.817 Y119.439 E50.1832
G1 X103.495 Y120.27 E50.26954
G1 X102.243 Y120.857 E50.346
G1 X100.801 Y121.335 E50.43001
G1 F2721.8 X100.517 Y121.386 E50.44583
G1 F2760.7 X100.233 Y121.438 E50.46145
G1 F2795 X99.948 Y121.49 E50.47692
G1 F2836.1 X99.664 Y121.542 E50.49212
G1 F2878.5 X99.379 Y121.594 E50.50715
G1 F2928.4 X99.095 Y121.611 E50.52165
G1 F2993.3 X98.811 Y121.627 E50.53584
G1 F3061.2 X98.527 Y121.643 E50.54971
G1 F3089.2 X98.512 Y122.067 E50.57021
M205 X12.5 Y12.5
G0 F8250 X98.053 Y122.51
M205 X14 Y14
;TYPE:WALL-OUTER
G1 F2250 X108.511 Y122.511 E51.09066
G1 X118.203 Y115.749 E51.67878
G1 X121.954 Y115.744 E51.86545
G1 X121.954 Y107.924 E52.25461
G1 X112.983 Y104.144 E52.73907
G1 X111.695 Y103.43 E52.81236
G1 X111.053 Y102.677 E52.86161
G1 X110.401 Y101.995 E52.90856
G1 X109.711 Y101.35 E52.95557
G1 X108.988 Y100.746 E53.00245
G1 X108.229 Y100.184 E53.04945
G1 X107.443 Y99.667 E53.09627
G1 X106.596 Y99.181 E53.14487
G1 X105.783 Y98.769 E53.19022
G1 X104.903 Y98.387 E53.23797
G1 X104.033 Y98.068 E53.28408
G1 X103.129 Y97.793 E53.3311
G1 X102.837 Y97.722 E53.34606
G1 X102.245 Y97.577 E53.37639
G1 X101.929 Y97.491 E53.39269
G1 X101.687 Y97.49 E53.40473
G1 X101.441 Y97.554 E53.41738
G1 X101.227 Y97.676 E53.42964
G1 X101.051 Y97.849 E53.44192
G1 X100.924 Y98.069 E53.45456
G1 X100.857 Y98.309 E53.46696
G1 X100.856 Y98.551 E53.47901
G1 X100.918 Y98.793 E53.49144
G1 X101.04 Y99.008 E53.50374
G1 X101.218 Y99.189 E53.51638
G1 X101.437 Y99.317 E53.529
G1 X102.604 Y99.718 E53.59041
G1 X103.726 Y100.254 E53.65229
G1 X104.791 Y100.926 E53.71496
G1 X105.756 Y101.701 E53.77655
G1 X106.638 Y102.596 E53.83909
G1 X107.41 Y103.585 E53.90152
G1 X108.072 Y104.674 E53.96495
G1 X108.584 Y105.795 E54.02628
G1 X108.981 Y107.013 E54.09003
G1 X109.226 Y108.244 E54.15249
G1 X109.327 Y109.47 E54.21371
G1 X109.286 Y110.734 E54.27665
G1 X109.072 Y112.126 E54.34673
G1 X108.68 Y113.512 E54.41842
G1 X108.143 Y114.791 E54.48745
G1 X107.44 Y116.02 E54.55791
G1 X106.592 Y117.155 E54.62842
G1 X105.615 Y118.175 E54.69871
G1 X104.495 Y119.086 E54.77055
G1 X103.318 Y119.826 E54.83974
G1 X102.016 Y120.436 E54.9113
G1 X100.671 Y120.875 E54.98171
G1 X99.278 Y121.146 E55.05233
G1 X98.245 Y121.22 E55.10387
G1 X98.093 Y121.35 E55.11382
G1 X98.053 Y122.51 E55.17158
M205 X12.5 Y12.5
G0 F8250 X98.253 Y122.51
G0 X98.745 Y121.842
G0 X99.338 Y121.829
G0 X99.437 Y121.82
M205 X14 Y14
;TYPE:SKIN
G1 F2662 X99.72 Y121.793 E55.18274
G1 F2454.5 X100.004 Y121.766 E55.19489
G1 F2277.1 X100.288 Y121.738 E55.20799
G1 F2123.6 X100.572 Y121.711 E55.22203
G1 F1989.5 X100.856 Y121.684 E55.23701
M205 X12.5 Y12.5
G0 F8250 X100.858 Y121.683
M205 X14 Y14
G1 F1944.4 X101.112 Y121.686 E55.25067
G1 F1968.8 X101.366 Y121.689 E55.26415
G1 F1997.9 X101.62 Y121.693 E55.27744
G1 F2027.9 X101.874 Y121.696 E55.29053
G1 F2054.3 X102.128 Y121.699 E55.30345
G1 F2086.1 X102.382 Y121.703 E55.31618
G1 F2100 X108.258 Y121.703 E55.6086
G1 X117.771 Y115.064 E56.18591
G1 X118.116 Y114.937 E56.2042
G1 X121.147 Y114.937 E56.35504
G1 X121.147 Y108.459 E56.67742
G1 X112.669 Y104.888 E57.13523
G1 X111.263 Y104.11 E57.2152
G1 X111.067 Y103.936 E57.22825
G1 X110.434 Y103.195 E57.27675
G1 X109.816 Y102.552 E57.32113
G1 X109.176 Y101.955 E57.36468
G1 X108.472 Y101.368 E57.4103
G1 X107.785 Y100.86 E57.45282
G1 X106.978 Y100.329 E57.5009
G1 X106.228 Y99.9 E57.54389
G1 F1928.6 X105.937 Y99.798 E57.5606
G1 F1657.9 X105.646 Y99.695 E57.58006
G1 F1567.2 X105.394 Y99.561 E57.5991
G1 F1615.4 X105.125 Y99.432 E57.6184
G1 F1678.5 X104.855 Y99.302 E57.63705
G1 F1750 X104.585 Y99.173 E57.65492
G1 F1838.5 X104.319 Y99.06 E57.67135
G1 F1916.8 X104.045 Y98.953 E57.68739
G1 F1968.8 X103.77 Y98.845 E57.70307
G1 F2036.6 X103.489 Y98.75 E57.71829
G1 F2128.4 X103.208 Y98.654 E57.73287
G1 F2228.8 X102.926 Y98.558 E57.74684
G1 F2310.5 X102.667 Y98.489 E57.75897
G1 F2344.9 X102.286 Y98.584 E57.77647
G1 X102.556 Y98.87 E57.79399
G1 F2293.7 X102.953 Y99.006 E57.81312
G1 F2177.4 X103.276 Y99.145 E57.82999
G1 F2054.3 X103.599 Y99.284 E57.84788
G1 F1964.7 X103.875 Y99.408 E57.86398
G1 F1901.4 X104.152 Y99.533 E57.88068
G1 F1835 X104.386 Y99.669 E57.89609
G1 F1763.1 X104.621 Y99.805 E57.91219
G1 F1696.6 X104.855 Y99.941 E57.92886
G1 F1634.9 X105.09 Y100.077 E57.94622
G1 F1577.6 X105.325 Y100.213 E57.9642
G1 F1657.9 X105.534 Y100.432 E57.98328
G1 F1928.6 X105.743 Y100.652 E57.99973
G1 F2100 X106.283 Y101.086 E58.03421
G1 X107.228 Y102.042 E58.1011
G1 X108.06 Y103.102 E58.16816
G1 X108.789 Y104.304 E58.23812
G1 X109.322 Y105.467 E58.30179
G1 X109.75 Y106.762 E58.36966
G1 X110.03 Y108.165 E58.44086
G1 X110.132 Y109.403 E58.50268
G1 X110.091 Y110.793 E58.57188
G1 X109.852 Y112.333 E58.64944
G1 X109.468 Y113.698 E58.72001
G1 X108.887 Y115.108 E58.7959
G1 X108.104 Y116.484 E58.87469
G1 X107.184 Y117.708 E58.95089
G1 X106.157 Y118.777 E59.02466
G1 X104.964 Y119.745 E59.10111
G1 X103.703 Y120.538 E59.17525
G1 X102.324 Y121.185 E59.25105
G1 F2086.1 X102.08 Y121.268 E59.26396
G1 F2054.3 X101.836 Y121.351 E59.27707
G1 F2027.9 X101.591 Y121.434 E59.2904
G1 F1997.9 X101.347 Y121.517 E59.30389
G1 F1968.8 X101.103 Y121.6 E59.31757
G1 F1944.4 X100.858 Y121.683 E59.33147
M205 X12.5 Y12.5
G0 F8250 X100.858 Y121.885
G0 X108.295 Y121.824
G0 X118.008 Y115.106
G0 X120.754 Y115.119
G0 X120.754 Y114.711
M205 X14 Y14
G1 F2100 X120.921 Y114.544 E59.34322
M205 X12.5 Y12.5
G0 F8250 X120.921 Y113.908
M205 X14 Y14
G1 F2100 X120.118 Y114.711 E59.39974
M205 X12.5 Y12.5
G0 F8250 X119.481 Y114.711
M205 X14 Y14
G1 F2100 X120.921 Y113.272 E59.50105
M205 X12.5 Y12.5
G0 F8250 X120.921 Y112.635
M205 X14 Y14
G1 F2100 X118.845 Y114.711 E59.64716
M205 X12.5 Y12.5
G0 F8250 X118.209 Y114.711
M205 X14 Y14
G1 F2100 X120.921 Y111.999 E59.83802
M205 X12.5 Y12.5
G0 F8250 X120.921 Y111.362
M205 X14 Y14
G1 F2100 X116.86 Y115.424 E60.12387
M205 X12.5 Y12.5
G0 F8250 X117.093 Y115.759
G0 X114.986 Y117.23
G0 X114.753 Y116.894
M205 X14 Y14
G1 F2100 X120.921 Y110.726 E60.55797
M205 X12.5 Y12.5
G0 F8250 X120.921 Y110.09
M205 X14 Y14
G1 F2100 X112.647 Y118.364 E61.14028
M205 X12.5 Y12.5
G0 F8250 X112.88 Y118.699
G0 X110.773 Y120.169
G0 X110.54 Y119.834
M205 X14 Y14
G1 F2100 X120.921 Y109.453 E61.87089
M205 X12.5 Y12.5
G0 F8250 X120.921 Y108.817
M205 X14 Y14
G1 F2100 X108.434 Y121.304 E62.74971
M205 X12.5 Y12.5
G0 F8250 X107.625 Y121.477
M205 X14 Y14
G1 F2100 X120.621 Y108.48 E63.66439
M205 X12.5 Y12.5
G0 F8250 X120.173 Y108.292
M205 X14 Y14
G1 F2100 X106.988 Y121.477 E64.59234
M205 X12.5 Y12.5
G0 F8250 X106.352 Y121.477
M205 X14 Y14
G1 F2100 X119.725 Y108.103 E65.53355
M205 X12.5 Y12.5
G0 F8250 X119.278 Y107.915
M205 X14 Y14
G1 F2100 X105.715 Y121.477 E66.48807
M205 X12.5 Y12.5
G0 F8250 X105.079 Y121.477
M205 X14 Y14
G1 F2100 X118.83 Y107.726 E67.45585
M205 X12.5 Y12.5
G0 F8250 X118.382 Y107.538
M205 X14 Y14
G1 F2100 X104.443 Y121.477 E68.43686
M205 X12.5 Y12.5
G0 F8250 X103.806 Y121.477
M205 X14 Y14
G1 F2100 X117.934 Y107.349 E69.43118
M205 X12.5 Y12.5
G0 F8250 X117.487 Y107.16
M205 X14 Y14
G1 F2100 X108.627 Y116.02 E70.05473
M205 X12.5 Y12.5
G0 F8250 X108.277 Y115.819
G0 X108.522 Y115.405
G0 X108.916 Y114.566
G0 X109.289 Y114.722
M205 X14 Y14
G1 F2100 X117.039 Y106.971 E70.60021
M205 X12.5 Y12.5
G0 F8250 X116.591 Y106.783
M205 X14 Y14
G1 F2100 X109.711 Y113.663 E71.08441
M205 X12.5 Y12.5
G0 F8250 X109.962 Y112.776
M205 X14 Y14
G1 F2100 X116.143 Y106.594 E71.51946
M205 X12.5 Y12.5
G0 F8250 X115.696 Y106.406
M205 X14 Y14
G1 F2100 X110.134 Y111.968 E71.91091
M205 X12.5 Y12.5
G0 F8250 X110.252 Y111.213
M205 X14 Y14
G1 F2100 X115.248 Y106.217 E72.26252
M205 X12.5 Y12.5
G0 F8250 X114.8 Y106.028
M205 X14 Y14
G1 F2100 X110.324 Y110.504 E72.57754
M205 X12.5 Y12.5
G0 F8250 X110.343 Y109.849
M205 X14 Y14
G1 F2100 X114.352 Y105.84 E72.85969
M205 X12.5 Y12.5
G0 F8250 X113.905 Y105.651
M205 X14 Y14
G1 F2100 X110.341 Y109.215 E73.11052
M205 X12.5 Y12.5
G0 F8250 X110.291 Y108.628
M205 X14 Y14
G1 F2100 X113.457 Y105.462 E73.33334
M205 X12.5 Y12.5
G0 F8250 X113.009 Y105.274
M205 X14 Y14
G1 F2100 X110.237 Y108.046 E73.52843
M205 X12.5 Y12.5
G0 F8250 X110.129 Y107.517
M205 X14 Y14
G1 F2100 X112.563 Y105.083 E73.69973
M205 X12.5 Y12.5
G0 F8250 X112.152 Y104.858
M205 X14 Y14
G1 F2100 X110.022 Y106.988 E73.84964
M205 X12.5 Y12.5
G0 F8250 X109.895 Y106.479
M205 X14 Y14
G1 F2100 X111.741 Y104.632 E73.9796
M205 X12.5 Y12.5
G0 F8250 X111.331 Y104.407
M205 X14 Y14
G1 F2100 X109.735 Y106.002 E74.09189
M205 X12.5 Y12.5
G0 F8250 X109.577 Y105.524
M205 X14 Y14
G1 F2100 X110.962 Y104.139 E74.18936
M205 X12.5 Y12.5
G0 F8250 X110.658 Y103.806
M205 X14 Y14
G1 F2100 X109.389 Y105.076 E74.27871
M205 X12.5 Y12.5
G0 F8250 X109.189 Y104.639
M205 X14 Y14
G1 F2100 X110.366 Y103.462 E74.36154
M205 X12.5 Y12.5
G0 F8250 X110.059 Y103.132
M205 X14 Y14
G1 F2100 X108.989 Y104.203 E74.43688
M205 X12.5 Y12.5
G0 F8250 X108.75 Y103.806
M205 X14 Y14
G1 F2100 X109.748 Y102.807 E74.50716
M205 X12.5 Y12.5
G0 F8250 X109.424 Y102.495
M205 X14 Y14
G1 F2100 X108.509 Y103.41 E74.57155
M205 X12.5 Y12.5
G0 F8250 X108.269 Y103.014
M205 X14 Y14
G1 F2100 X109.095 Y102.187 E74.62972
M205 X12.5 Y12.5
G0 F8250 X108.752 Y101.894
M205 X14 Y14
G1 F2100 X107.994 Y102.652 E74.68307
M205 X12.5 Y12.5
G0 F8250 X107.713 Y102.297
M205 X14 Y14
G1 F2100 X108.405 Y101.605 E74.73177
M205 X12.5 Y12.5
G0 F8250 X108.043 Y101.331
M205 X14 Y14
G1 F2100 X107.433 Y101.94 E74.77467
M205 X12.5 Y12.5
G0 F8250 X107.122 Y101.615
M205 X14 Y14
G1 F2100 X107.677 Y101.06 E74.81373
M205 X12.5 Y12.5
G0 F8250 X107.294 Y100.807
M205 X14 Y14
G1 F2100 X106.806 Y101.295 E74.84807
M205 X12.5 Y12.5
G0 F8250 X106.489 Y100.975
M205 X14 Y14
G1 F2100 X106.91 Y100.554 E74.8777
M205 X12.5 Y12.5
G0 F8250 X106.508 Y100.32
M205 X14 Y14
G1 F2100 X106.143 Y100.685 E74.90339
M205 X12.5 Y12.5
G0 F8250 X105.812 Y100.379
M205 X14 Y14
G1 F2100 X106.097 Y100.094 E74.92345
M205 X12.5 Y12.5
G1 F2400 E72.92345
G0 F8250 X106.285 Y99.725
G0 X103.804 Y98.716
G0 X102.665 Y98.387
G0 X102.134 Y98.539
G0 X102.5 Y98.953
G0 X104.262 Y99.78
G0 X106.121 Y101.108
G0 X107.127 Y102.181
G0 X107.942 Y103.231
G0 X108.633 Y104.368
G0 X109.187 Y105.576
G0 X109.598 Y106.841
G0 X109.858 Y108.145
G0 X109.967 Y109.47
G0 X109.923 Y110.798
G0 X109.696 Y112.274
G0 X109.289 Y113.711
G0 X108.71 Y115.087
G0 X107.968 Y116.383
G0 X107.073 Y117.579
G0 X106.039 Y118.657
G0 X105.1 Y119.42
G0 X103.866 Y120.221
G1 F1200 E74.92345
G0 F8250 X104.082 Y120.565
M205 X14 Y14
G1 F2100 X103.17 Y121.477 E74.98763
M205 X12.5 Y12.5
G0 F8250 X102.804 Y121.207
M205 X14 Y14
G1 F2100 X102.534 Y121.477 E75.00664
M205 X12.5 Y12.5
;MESH:NONMESH
G0 F600 X102.534 Y121.477 Z0.88
G0 F8250 X102.534 Y121.886
G0 X98.745 Y121.842
G0 X98.512 Y122.067
;TIME_ELAPSED:69.489479
;LAYER:2
M106 S170
M205 X20 Y20
;TYPE:WALL-INNER
;MESH:trigger.stl
G1 F4431.8 X98.769 Y122.064 E75.01914
G1 F4362.4 X99.026 Y122.06 E75.03185
G1 F4295.2 X99.283 Y122.057 E75.04475
G1 F4229.9 X99.54 Y122.053 E75.05786
G1 F4166.7 X99.797 Y122.05 E75.07116
G1 F4105.3 X100.054 Y122.046 E75.08466
G1 F4045.6 X100.311 Y122.043 E75.09836
G1 F3987.7 X100.568 Y122.039 E75.11226
G1 F3931.5 X100.825 Y122.036 E75.12636
G1 F3900 X108.361 Y122.036 E75.54306
G1 X117.929 Y115.359 E76.18821
G1 X118.171 Y115.269 E76.20249
G1 X121.479 Y115.269 E76.3854
G1 X121.479 Y108.239 E76.77413
G1 X112.731 Y104.549 E77.29912
G1 X111.383 Y103.799 E77.38442
G1 X110.7 Y102.996 E77.44271
G1 X110.067 Y102.333 E77.4934
G1 X109.397 Y101.707 E77.5441
G1 X108.694 Y101.12 E77.59474
G1 X107.957 Y100.574 E77.64546
G1 X107.194 Y100.072 E77.69596
G1 X106.381 Y99.605 E77.7478
G1 X105.562 Y99.191 E77.79855
G1 X104.726 Y98.828 E77.84894
G1 X103.867 Y98.514 E77.89952
G1 X102.99 Y98.248 E77.95019
G1 X102.722 Y98.184 E77.96543
G1 F3150.2 X102.259 Y98.192 E77.99713
G1 F2667.6 X101.848 Y98.078 E78.03161
G1 F2693.4 X101.665 Y98.102 E78.04638
G1 X101.52 Y98.212 E78.06096
G1 X101.444 Y98.39 E78.07645
G1 X101.467 Y98.571 E78.09106
G1 F2682.3 X101.608 Y98.756 E78.10976
G1 F2656.7 X102.052 Y98.899 E78.14763
G1 F3150.2 X102.437 Y99.156 E78.17932
G1 F3900 X102.809 Y99.289 E78.20116
G1 X103.965 Y99.84 E78.27197
G1 X105.076 Y100.544 E78.3447
G1 X106.061 Y101.336 E78.41459
G1 X106.983 Y102.268 E78.48708
G1 X107.79 Y103.298 E78.55943
G1 X108.467 Y104.408 E78.63132
G1 X109.045 Y105.671 E78.70813
G1 X109.447 Y106.92 E78.78068
G1 X109.688 Y108.125 E78.84863
G1 X109.8 Y109.431 E78.92111
G1 X109.76 Y110.769 E78.99513
G1 X109.523 Y112.282 E79.07981
G1 X109.118 Y113.695 E79.16109
G1 X108.543 Y115.052 E79.24258
G1 X107.852 Y116.256 E79.31934
G1 X106.946 Y117.475 E79.40332
G1 X105.894 Y118.563 E79.48701
G1 X104.817 Y119.439 E79.56377
G1 X103.495 Y120.27 E79.65012
G1 X102.243 Y120.857 E79.72658
G1 X100.801 Y121.335 E79.81058
G1 F3931.5 X100.517 Y121.386 E79.82641
G1 F3987.7 X100.233 Y121.438 E79.84202
G1 F4037.3 X99.948 Y121.49 E79.85749
G1 F4096.6 X99.664 Y121.542 E79.87269
G1 F4157.8 X99.379 Y121.594 E79.88772
G1 F4229.9 X99.095 Y121.611 E79.90222
G1 F4323.7 X98.811 Y121.627 E79.91641
G1 F4421.8 X98.527 Y121.643 E79.93028
G1 F4462.2 X98.512 Y122.067 E79.95079
G0 F9000 X98.053 Y122.51
;TYPE:WALL-OUTER
G1 F3000 X108.511 Y122.511 E80.47123
G1 X118.203 Y115.749 E81.05935
G1 X121.954 Y115.744 E81.24602
G1 X121.954 Y107.924 E81.63519
G1 X112.983 Y104.144 E82.11965
G1 X111.695 Y103.43 E82.19293
G1 X111.053 Y102.677 E82.24218
G1 X110.401 Y101.995 E82.28913
G1 X109.711 Y101.35 E82.33614
G1 X108.988 Y100.746 E82.38302
G1 X108.229 Y100.184 E82.43002
G1 X107.443 Y99.667 E82.47684
G1 X106.596 Y99.181 E82.52544
G1 X105.783 Y98.769 E82.5708
G1 X104.903 Y98.387 E82.61854
G1 X104.033 Y98.068 E82.66465
G1 X103.129 Y97.793 E82.71168
G1 X102.836 Y97.722 E82.72668
G1 X102.2 Y97.566 E82.75927
G1 X101.929 Y97.491 E82.77326
G1 X101.687 Y97.49 E82.7853
G1 X101.441 Y97.554 E82.79795
G1 X101.227 Y97.676 E82.81021
G1 X101.051 Y97.849 E82.8225
G1 X100.924 Y98.069 E82.83514
G1 X100.857 Y98.309 E82.84754
G1 X100.856 Y98.551 E82.85958
G1 X100.918 Y98.793 E82.87201
G1 X101.04 Y99.008 E82.88431
G1 X101.218 Y99.189 E82.89695
G1 X101.437 Y99.317 E82.90957
G1 X102.604 Y99.718 E82.97098
G1 X103.726 Y100.254 E83.03286
G1 X104.791 Y100.926 E83.09553
G1 X105.756 Y101.701 E83.15713
G1 X106.638 Y102.596 E83.21966
G1 X107.41 Y103.585 E83.2821
G1 X108.072 Y104.674 E83.34552
G1 X108.584 Y105.795 E83.40685
G1 X108.981 Y107.013 E83.4706
G1 X109.226 Y108.244 E83.53306
G1 X109.327 Y109.47 E83.59428
G1 X109.286 Y110.734 E83.65722
G1 X109.072 Y112.126 E83.72731
G1 X108.68 Y113.512 E83.79899
G1 X108.143 Y114.791 E83.86802
G1 X107.44 Y116.02 E83.93848
G1 X106.592 Y117.155 E84.00899
G1 X105.615 Y118.175 E84.07928
G1 X104.495 Y119.086 E84.15113
G1 X103.318 Y119.826 E84.22032
G1 X102.016 Y120.436 E84.29187
G1 X100.671 Y120.875 E84.36228
G1 X99.278 Y121.146 E84.4329
G1 X98.245 Y121.22 E84.48444
G1 X98.093 Y121.35 E84.4944
G1 X98.053 Y122.51 E84.55216
G0 F9000 X98.253 Y122.51
G0 X98.745 Y121.842
G0 X99.338 Y121.829
G0 X99.437 Y121.82
;TYPE:SKIN
G1 F3422.5 X99.72 Y121.793 E84.56332
G1 F3155.8 X100.004 Y121.766 E84.57546
G1 F2927.7 X100.288 Y121.738 E84.58856
G1 F2730.3 X100.572 Y121.711 E84.6026
G1 F2557.9 X100.856 Y121.684 E84.61759
G0 F9000 X100.858 Y121.683
G1 F2500 X101.112 Y121.686 E84.63124
G1 F2531.2 X101.366 Y121.689 E84.64472
G1 F2568.7 X101.62 Y121.693 E84.65801
G1 F2607.3 X101.874 Y121.696 E84.6711
G1 F2641.3 X102.128 Y121.699 E84.68402
G1 F2682.1 X102.382 Y121.703 E84.69675
G1 F2700 X108.258 Y121.703 E84.98917
G1 X117.771 Y115.064 E85.56648
G1 X118.116 Y114.937 E85.58478
G1 X121.147 Y114.937 E85.73562
G1 X121.147 Y108.459 E86.058
G1 X112.669 Y104.888 E86.51581
G1 X111.263 Y104.11 E86.59578
G1 X111.067 Y103.936 E86.60882
G1 X110.434 Y103.195 E86.65732
G1 X109.816 Y102.552 E86.7017
G1 X109.176 Y101.955 E86.74526
G1 X108.472 Y101.368 E86.79087
G1 X107.785 Y100.86 E86.83339
G1 X106.978 Y100.329 E86.88147
G1 X106.228 Y99.9 E86.92447
G1 F2479.6 X105.937 Y99.798 E86.94118
G1 F2131.6 X105.646 Y99.695 E86.96064
G1 F2014.9 X105.394 Y99.561 E86.97967
G1 F2076.9 X105.125 Y99.432 E86.99897
G1 F2158.1 X104.855 Y99.302 E87.01763
G1 F2250 X104.585 Y99.173 E87.0355
G1 F2363.8 X104.319 Y99.06 E87.05193
G1 F2464.5 X104.045 Y98.953 E87.06796
G1 F2531.2 X103.77 Y98.845 E87.08365
G1 F2590.6 X103.502 Y98.755 E87.09831
G1 F2641.3 X103.234 Y98.664 E87.11271
G1 F2694 X102.966 Y98.573 E87.12682
G1 F2748.9 X102.698 Y98.482 E87.14066
G1 F2892.9 X102.284 Y98.584 E87.16046
G1 F3014.9 X102.554 Y98.87 E87.17799
G1 F2949 X102.953 Y99.006 E87.1972
G1 F2799.5 X103.276 Y99.145 E87.21408
G1 F2641.3 X103.599 Y99.284 E87.23196
G1 F2526 X103.875 Y99.408 E87.24806
G1 F2444.7 X104.152 Y99.533 E87.26476
G1 F2359.2 X104.386 Y99.669 E87.28018
G1 F2266.8 X104.621 Y99.805 E87.29627
G1 F2181.3 X104.855 Y99.941 E87.31294
G1 F2102.1 X105.09 Y100.077 E87.3303
G1 F2028.4 X105.325 Y100.213 E87.34828
G1 F2131.6 X105.534 Y100.432 E87.36737
G1 F2479.6 X105.743 Y100.652 E87.38381
G1 F2700 X106.283 Y101.086 E87.41829
G1 X107.228 Y102.042 E87.48518
G1 X108.06 Y103.102 E87.55224
G1 X108.789 Y104.304 E87.6222
G1 X109.322 Y105.467 E87.68587
G1 X109.75 Y106.762 E87.75375
G1 X110.03 Y108.165 E87.82494
G1 X110.132 Y109.403 E87.88676
G1 X110.091 Y110.793 E87.95597
G1 X109.852 Y112.333 E88.03352
G1 X109.468 Y113.698 E88.10409
G1 X108.887 Y115.108 E88.17998
G1 X108.104 Y116.484 E88.25877
G1 X107.184 Y117.708 E88.33497
G1 X106.157 Y118.777 E88.40874
G1 X104.964 Y119.745 E88.4852
G1 X103.703 Y120.538 E88.55933
G1 X102.324 Y121.185 E88.63513
G1 F2682.1 X102.08 Y121.268 E88.64805
G1 F2641.3 X101.836 Y121.351 E88.66116
G1 F2607.3 X101.591 Y121.434 E88.67449
G1 F2568.7 X101.347 Y121.517 E88.68797
G1 F2531.2 X101.103 Y121.6 E88.70165
G1 F2500 X100.858 Y121.683 E88.71555
G0 F9000 X100.858 Y121.885
G0 X99.398 Y121.823
G0 X101.546 Y121.301
G0 X102.597 Y120.857
G0 X102.768 Y121.224
G1 F2700 X103.021 Y121.477 E88.73336
G0 F9000 X103.202 Y121.021
G1 F2700 X103.658 Y121.477 E88.76545
G0 F9000 X104.294 Y121.477
G1 F2700 X103.634 Y120.817 E88.8119
G0 F9000 X104.043 Y120.589
G1 F2700 X104.931 Y121.477 E88.8744
G0 F9000 X105.567 Y121.477
G1 F2700 X104.434 Y120.344 E88.95414
G0 F9000 X104.825 Y120.098
G1 F2700 X106.203 Y121.477 E89.05116
G0 F9000 X106.84 Y121.477
G1 F2700 X105.202 Y119.839 E89.16644
G0 F9000 X105.554 Y119.554
G1 F2700 X107.476 Y121.477 E89.30174
G0 F9000 X108.113 Y121.477
G1 F2700 X105.904 Y119.269 E89.45717
G0 F9000 X106.256 Y118.984
G1 F2700 X108.517 Y121.245 E89.6163
G0 F9000 X108.892 Y120.983
G1 F2700 X106.574 Y118.665 E89.77944
G0 F9000 X106.886 Y118.341
G1 F2700 X109.267 Y120.722 E89.94701
G0 F9000 X109.642 Y120.461
G1 F2700 X107.198 Y118.016 E90.11905
G0 F9000 X107.489 Y117.671
G1 F2700 X110.017 Y120.199 E90.29697
G0 F9000 X110.392 Y119.938
G1 F2700 X107.762 Y117.308 E90.48207
G0 F9000 X108.034 Y116.944
G1 F2700 X110.766 Y119.676 E90.67434
G0 F9000 X111.141 Y119.414
G1 F2700 X108.307 Y116.58 E90.8738
G0 F9000 X108.538 Y116.175
G1 F2700 X111.516 Y119.153 E91.08338
G0 F9000 X111.891 Y118.891
G1 F2700 X108.768 Y115.768 E91.30318
G0 F9000 X108.999 Y115.363
G1 F2700 X112.265 Y118.629 E91.53304
G0 F9000 X112.64 Y118.368
G1 F2700 X109.202 Y114.93 E91.775
G0 F9000 X109.388 Y114.479
G1 F2700 X113.015 Y118.106 E92.03026
G0 F9000 X113.39 Y117.845
G1 F2700 X109.573 Y114.028 E92.2989
G0 F9000 X109.74 Y113.559
G1 F2700 X113.764 Y117.583 E92.58211
G0 F9000 X114.139 Y117.321
G1 F2700 X109.88 Y113.062 E92.88185
G0 F9000 X110.02 Y112.566
G1 F2700 X114.515 Y117.06 E93.19817
G0 F9000 X114.89 Y116.799
G1 F2700 X110.123 Y112.032 E93.53367
G0 F9000 X110.209 Y111.482
G1 F2700 X115.264 Y116.537 E93.88943
G0 F9000 X115.639 Y116.275
G1 F2700 X110.295 Y110.932 E94.2655
G0 F9000 X110.329 Y110.329
G1 F2700 X116.014 Y116.014 E94.66561
G0 F9000 X116.389 Y115.752
G1 F2700 X110.346 Y109.709 E95.09091
G0 F9000 X110.327 Y109.054
G1 F2700 X116.763 Y115.491 E95.5439
G0 F9000 X117.138 Y115.229
G1 F2700 X110.268 Y108.359 E96.0274
G0 F9000 X110.145 Y107.599
G1 F2700 X117.513 Y114.967 E96.54596
G0 F9000 X117.943 Y114.761
G1 F2700 X109.983 Y106.801 E97.10617
G0 F9000 X109.692 Y105.874
G1 F2700 X118.53 Y114.711 E97.72815
G0 F9000 X119.166 Y114.711
G1 F2700 X109.269 Y104.814 E98.42469
G0 F9000 X108.9 Y104.982
G0 X108.749 Y104.635
G0 X108.176 Y103.638
G0 X108.521 Y103.43
G1 F2700 X119.802 Y114.711 E99.21864
G0 F9000 X120.439 Y114.711
G1 F2700 X105.746 Y100.018 E100.25271
G0 F9000 X105.975 Y99.568
G0 X107.161 Y100.231
G0 X106.936 Y100.572
G1 F2700 X120.921 Y114.557 E101.23697
G0 F9000 X120.921 Y113.921
G1 F2700 X111.502 Y104.501 E101.8999
G0 F9000 X111.698 Y104.148
G0 X111.98 Y104.308
G0 X112.998 Y104.829
G0 X112.84 Y105.204
G1 F2700 X120.921 Y113.284 E102.4686
G0 F9000 X120.921 Y112.648
G1 F2700 X113.94 Y105.667 E102.95991
G0 F9000 X114.097 Y105.293
G0 X115.196 Y105.756
G0 X115.039 Y106.13
G1 F2700 X120.921 Y112.012 E103.37388
G0 F9000 X120.921 Y111.375
G1 F2700 X116.139 Y106.593 E103.71044
G0 F9000 X116.296 Y106.22
G0 X117.396 Y106.683
G0 X117.239 Y107.056
G1 F2700 X120.921 Y110.739 E103.96961
G0 F9000 X120.921 Y110.102
G1 F2700 X118.339 Y107.52 E104.15132
G0 F9000 X118.496 Y107.147
G0 X119.595 Y107.609
G0 X119.438 Y107.983
G1 F2700 X120.921 Y109.466 E104.2557
G0 F9000 X120.921 Y108.83
G1 F2700 X120.538 Y108.446 E104.28269
G1 F2400 E102.28269
;MESH:NONMESH
G0 F600 X120.538 Y108.446 Z1.16
G0 F9000 X120.695 Y108.073
G0 X112.314 Y104.559
G0 X111.146 Y103.844
G0 X109.898 Y102.463
G0 X108.281 Y101.076
G0 X106.884 Y100.138
G0 X105.478 Y99.384
G0 X103.804 Y98.716
G0 X102.663 Y98.387
G0 X102.133 Y98.539
G0 X102.498 Y98.952
G0 X104.262 Y99.78
G0 X106.284 Y101.257
G0 X108.009 Y103.248
G0 X109.246 Y105.607
G0 X109.91 Y108.188
G0 X109.961 Y110.857
G0 X109.726 Y112.341
G0 X109.311 Y113.778
G0 X108.381 Y115.795
G0 X107.073 Y117.579
G0 X106.039 Y118.657
G0 X104.879 Y119.6
G0 X103.615 Y120.394
G0 X102.262 Y121.028
G0 X100.843 Y121.492
G0 X100.428 Y121.573
G0 X98.745 Y121.842
G1 F1200 E104.28269
G0 F9000 X98.512 Y122.067
;TIME_ELAPSED:88.299024
;LAYER:3
M106 S255
;TYPE:WALL-INNER
;MESH:trigger.stl
G1 F1903.3 X98.769 Y122.064 E104.29519
G1 F1873.4 X99.026 Y122.06 E104.3079
G1 F1844.6 X99.283 Y122.057 E104.3208
G1 F1816.6 X99.54 Y122.053 E104.33391
G1 F1789.4 X99.797 Y122.05 E104.34721
G1 F1763 X100.054 Y122.046 E104.36071
G1 F1737.4 X100.311 Y122.043 E104.37441
G1 F1712.5 X100.568 Y122.039 E104.38831
G1 F1688.4 X100.825 Y122.036 E104.40241
G1 F1674.9 X108.361 Y122.036 E104.81911
G1 X117.929 Y115.359 E105.46426
G1 X118.171 Y115.269 E105.47854
G1 X121.479 Y115.269 E105.66146
G1 X121.479 Y108.239 E106.05018
G1 X112.731 Y104.549 E106.57517
G1 X111.383 Y103.799 E106.66047
G1 X110.7 Y102.996 E106.71876
G1 X110.067 Y102.333 E106.76945
G1 X109.397 Y101.707 E106.82015
G1 X108.694 Y101.12 E106.87079
G1 X107.957 Y100.574 E106.92151
G1 X107.194 Y100.072 E106.97201
G1 X106.381 Y99.605 E107.02385
G1 X105.562 Y99.191 E107.0746
G1 X104.726 Y98.828 E107.12499
G1 X103.867 Y98.514 E107.17557
G1 X102.99 Y98.248 E107.22624
G1 X102.722 Y98.184 E107.24148
G1 F1352.9 X102.259 Y98.192 E107.27318
G1 F1145.6 X101.848 Y98.078 E107.30766
G1 F1156.7 X101.665 Y98.102 E107.32244
G1 X101.52 Y98.212 E107.33701
G1 X101.444 Y98.39 E107.3525
G1 X101.467 Y98.571 E107.36711
G1 F1151.9 X101.608 Y98.756 E107.38581
G1 F1140.9 X102.052 Y98.899 E107.42368
G1 F1352.9 X102.437 Y99.156 E107.45537
G1 F1674.9 X102.809 Y99.289 E107.47721
G1 X103.965 Y99.84 E107.54802
G1 X105.076 Y100.544 E107.62075
G1 X106.061 Y101.336 E107.69064
G1 X106.983 Y102.268 E107.76313
G1 X107.79 Y103.298 E107.83548
G1 X108.467 Y104.408 E107.90738
G1 X109.045 Y105.671 E107.98418
G1 X109.447 Y106.92 E108.05673
G1 X109.688 Y108.125 E108.12468
G1 X109.8 Y109.431 E108.19716
G1 X109.76 Y110.769 E108.27118
G1 X109.523 Y112.282 E108.35586
G1 X109.118 Y113.695 E108.43714
G1 X108.543 Y115.052 E108.51863
G1 X107.852 Y116.256 E108.59539
G1 X106.946 Y117.475 E108.67938
G1 X105.894 Y118.563 E108.76306
G1 X104.817 Y119.439 E108.83982
G1 X103.495 Y120.27 E108.92617
G1 X102.243 Y120.857 E109.00263
G1 X100.801 Y121.335 E109.08663
G1 F1688.4 X100.517 Y121.386 E109.10246
G1 F1712.5 X100.233 Y121.438 E109.11807
G1 F1733.8 X99.948 Y121.49 E109.13354
G1 F1759.3 X99.664 Y121.542 E109.14874
G1 F1785.6 X99.379 Y121.594 E109.16377
G1 F1816.6 X99.095 Y121.611 E109.17827
G1 F1856.8 X98.811 Y121.627 E109.19246
G1 F1898.9 X98.527 Y121.643 E109.20633
G1 F1916.3 X98.512 Y122.067 E109.22684
G0 F9000 X98.053 Y122.51
;TYPE:WALL-OUTER
G1 F1288.4 X108.511 Y122.511 E109.74729
G1 X118.203 Y115.749 E110.3354
G1 X121.954 Y115.744 E110.52207
G1 X121.954 Y107.924 E110.91124
G1 X112.983 Y104.144 E111.3957
G1 X111.695 Y103.43 E111.46899
G1 X111.053 Y102.677 E111.51823
G1 X110.401 Y101.995 E111.56518
G1 X109.711 Y101.35 E111.61219
G1 X108.988 Y100.746 E111.65907
G1 X108.229 Y100.184 E111.70607
G1 X107.443 Y99.667 E111.75289
G1 X106.596 Y99.181 E111.80149
G1 X105.783 Y98.769 E111.84685
G1 X104.903 Y98.387 E111.89459
G1 X104.033 Y98.068 E111.9407
G1 X103.129 Y97.793 E111.98773
G1 X102.836 Y97.722 E112.00273
G1 X102.2 Y97.566 E112.03532
G1 X101.929 Y97.491 E112.04931
G1 X101.687 Y97.49 E112.06136
G1 X101.441 Y97.554 E112.07401
G1 X101.227 Y97.676 E112.08626
G1 X101.051 Y97.849 E112.09855
G1 X100.924 Y98.069 E112.11119
G1 X100.857 Y98.309 E112.12359
G1 X100.856 Y98.551 E112.13563
G1 X100.918 Y98.793 E112.14806
G1 X101.04 Y99.008 E112.16037
G1 X101.218 Y99.189 E112.173
G1 X101.437 Y99.317 E112.18562
G1 X102.604 Y99.718 E112.24703
G1 X103.726 Y100.254 E112.30891
G1 X104.791 Y100.926 E112.37158
G1 X105.756 Y101.701 E112.43318
G1 X106.638 Y102.596 E112.49571
G1 X107.41 Y103.585 E112.55815
G1 X108.072 Y104.674 E112.62157
G1 X108.584 Y105.795 E112.6829
G1 X108.981 Y107.013 E112.74665
G1 X109.226 Y108.244 E112.80912
G1 X109.327 Y109.47 E112.87034
G1 X109.286 Y110.734 E112.93327
G1 X109.072 Y112.126 E113.00336
G1 X108.68 Y113.512 E113.07504
G1 X108.143 Y114.791 E113.14407
G1 X107.44 Y116.02 E113.21453
G1 X106.592 Y117.155 E113.28504
G1 X105.615 Y118.175 E113.35533
G1 X104.495 Y119.086 E113.42718
G1 X103.318 Y119.826 E113.49637
G1 X102.016 Y120.436 E113.56792
G1 X100.671 Y120.875 E113.63833
G1 X99.278 Y121.146 E113.70895
G1 X98.245 Y121.22 E113.76049
G1 X98.093 Y121.35 E113.77045
G1 X98.053 Y122.51 E113.82821
G0 F9000 X98.253 Y122.51
G0 X98.745 Y121.842
G0 X102.218 Y121.784
;TYPE:FILL
G1 F1546 X112.062 Y119.146 E114.47063
G0 F9000 X109.796 Y120.728
G1 F1546 X106.925 Y117.857 E114.72657
G1 X107.091 Y117.683
G1 X105.992 Y121.785 E114.99427
G0 F9000 X109.289 Y113.711
G0 X109.519 Y112.897
G0 X109.998 Y110.848
G1 F1546 X120.408 Y108.058 E115.67363
G0 F9000 X118.713 Y107.344
G1 F1546 X116.352 Y116.153 E116.24852
G0 F9000 X116.917 Y115.758
G1 F1546 X110.002 Y108.842 E116.86501
G0 F9000 X109.819 Y107.503
G1 F1546 X110.87 Y103.58 E117.12103
G0 F9000 X109.487 Y102.133
G1 F1546 X107.591 Y102.641 E117.24476
G0 F9000 X106.193 Y101.234
G0 X105.356 Y100.56
G0 X103.193 Y99.194
G1 F1546 X103.348 Y98.616 E117.28248
G0 F9000 X103.305 Y98.835
G1 F2400 E115.28248
;MESH:NONMESH
G0 F600 X103.305 Y98.835 Z1.44
G0 F9000 X106.193 Y101.234
G0 X107.127 Y102.181
G0 X107.942 Y103.231
G0 X108.633 Y104.368
G0 X109.187 Y105.576
G0 X109.598 Y106.841
G0 X109.858 Y108.145
G0 X109.967 Y109.47
G0 X109.923 Y110.798
G0 X109.696 Y112.274
G0 X109.289 Y113.711
G0 X108.71 Y115.087
G0 X107.968 Y116.383
G0 X107.073 Y117.579
G0 X106.039 Y118.657
G0 X104.879 Y119.6
G0 X103.615 Y120.394
G0 X102.262 Y121.028
G0 X100.843 Y121.492
G0 X100.428 Y121.573
G0 X98.745 Y121.842
G1 F1200 E117.28248
G0 F9000 X98.512 Y122.067
;TIME_ELAPSED:100.118418
;LAYER:4
;TYPE:WALL-INNER
;MESH:trigger.stl
G1 F1893.1 X98.769 Y122.064 E117.29499
G1 F1863.4 X99.026 Y122.06 E117.30769
G1 F1834.7 X99.283 Y122.057 E117.3206
G1 F1806.8 X99.54 Y122.053 E117.3337
G1 F1779.8 X99.797 Y122.05 E117.347
G1 F1753.6 X100.054 Y122.046 E117.3605
G1 F1728.1 X100.311 Y122.043 E117.3742
G1 F1703.4 X100.568 Y122.039 E117.3881
G1 F1679.3 X100.825 Y122.036 E117.4022
G1 F1665.9 X108.361 Y122.036 E117.81891
G1 X117.929 Y115.359 E118.46406
G1 X118.171 Y115.269 E118.47833
G1 X121.479 Y115.269 E118.66125
G1 X121.479 Y108.239 E119.04997
G1 X112.731 Y104.549 E119.57496
G1 X111.383 Y103.799 E119.66026
G1 X110.7 Y102.996 E119.71855
G1 X110.067 Y102.333 E119.76924
G1 X109.397 Y101.707 E119.81994
G1 X108.694 Y101.12 E119.87058
G1 X107.957 Y100.574 E119.9213
G1 X107.194 Y100.072 E119.9718
G1 X106.381 Y99.605 E120.02365
G1 X105.562 Y99.191 E120.07439
G1 X104.726 Y98.828 E120.12479
G1 X103.867 Y98.514 E120.17536
G1 X102.99 Y98.248 E120.22603
G1 X102.722 Y98.184 E120.24127
G1 F1345.6 X102.259 Y98.192 E120.27297
G1 F1139.5 X101.848 Y98.078 E120.30745
G1 F1150.5 X101.665 Y98.102 E120.32223
G1 X101.52 Y98.212 E120.3368
G1 X101.444 Y98.39 E120.3523
G1 X101.467 Y98.571 E120.36691
G1 F1145.7 X101.608 Y98.756 E120.38561
G1 F1134.8 X102.052 Y98.899 E120.42347
G1 F1345.6 X102.437 Y99.156 E120.45516
G1 F1665.9 X102.809 Y99.289 E120.477
G1 X103.965 Y99.84 E120.54781
G1 X105.076 Y100.544 E120.62054
G1 X106.061 Y101.336 E120.69043
G1 X106.983 Y102.268 E120.76292
G1 X107.79 Y103.298 E120.83528
G1 X108.467 Y104.408 E120.90717
G1 X109.045 Y105.671 E120.98397
G1 X109.447 Y106.92 E121.05652
G1 X109.688 Y108.125 E121.12447
G1 X109.8 Y109.431 E121.19695
G1 X109.76 Y110.769 E121.27097
G1 X109.523 Y112.282 E121.35565
G1 X109.118 Y113.695 E121.43693
G1 X108.543 Y115.052 E121.51842
G1 X107.852 Y116.256 E121.59518
G1 X106.946 Y117.475 E121.67917
G1 X105.894 Y118.563 E121.76285
G1 X104.817 Y119.439 E121.83962
G1 X103.495 Y120.27 E121.92596
G1 X102.243 Y120.857 E122.00242
G1 X100.801 Y121.335 E122.08642
G1 F1679.3 X100.517 Y121.386 E122.10225
G1 F1703.4 X100.233 Y121.438 E122.11786
G1 F1724.5 X99.948 Y121.49 E122.13334
G1 F1749.9 X99.664 Y121.542 E122.14854
G1 F1776 X99.379 Y121.594 E122.16356
G1 F1806.8 X99.095 Y121.611 E122.17807
G1 F1846.9 X98.811 Y121.627 E122.19225
G1 F1888.8 X98.527 Y121.643 E122.20613
G1 F1906.1 X98.512 Y122.067 E122.22663
G0 F9000 X98.053 Y122.51
;TYPE:WALL-OUTER
G1 F1281.5 X108.511 Y122.511 E122.74708
G1 X118.203 Y115.749 E123.33519
G1 X121.954 Y115.744 E123.52186
G1 X121.954 Y107.924 E123.91103
G1 X112.983 Y104.144 E124.39549
G1 X111.695 Y103.43 E124.46878
G1 X111.053 Y102.677 E124.51802
G1 X110.401 Y101.995 E124.56498
G1 X109.711 Y101.35 E124.61198
G1 X108.988 Y100.746 E124.65887
G1 X108.229 Y100.184 E124.70587
G1 X107.443 Y99.667 E124.75268
G1 X106.596 Y99.181 E124.80128
G1 X105.783 Y98.769 E124.84664
G1 X104.903 Y98.387 E124.89438
G1 X104.033 Y98.068 E124.9405
G1 X103.129 Y97.793 E124.98752
G1 X102.836 Y97.722 E125.00252
G1 X102.2 Y97.566 E125.03511
G1 X101.929 Y97.491 E125.04911
G1 X101.687 Y97.49 E125.06115
G1 X101.441 Y97.554 E125.0738
G1 X101.227 Y97.676 E125.08606
G1 X101.051 Y97.849 E125.09834
G1 X100.924 Y98.069 E125.11098
G1 X100.857 Y98.309 E125.12338
G1 X100.856 Y98.551 E125.13542
G1 X100.918 Y98.793 E125.14786
G1 X101.04 Y99.008 E125.16016
G1 X101.218 Y99.189 E125.17279
G1 X101.437 Y99.317 E125.18542
G1 X102.604 Y99.718 E125.24682
G1 X103.726 Y100.254 E125.30871
G1 X104.791 Y100.926 E125.37138
G1 X105.756 Y101.701 E125.43297
G1 X106.638 Y102.596 E125.4955
G1 X107.41 Y103.585 E125.55794
G1 X108.072 Y104.674 E125.62136
G1 X108.584 Y105.795 E125.68269
G1 X108.981 Y107.013 E125.74645
G1 X109.226 Y108.244 E125.80891
G1 X109.327 Y109.47 E125.87013
G1 X109.286 Y110.734 E125.93306
G1 X109.072 Y112.126 E126.00315
G1 X108.68 Y113.512 E126.07483
G1 X108.143 Y114.791 E126.14386
G1 X107.44 Y116.02 E126.21433
G1 X106.592 Y117.155 E126.28483
G1 X105.615 Y118.175 E126.35512
G1 X104.495 Y119.086 E126.42697
G1 X103.318 Y119.826 E126.49616
G1 X102.016 Y120.436 E126.56771
G1 X100.671 Y120.875 E126.63812
G1 X99.278 Y121.146 E126.70875
G1 X98.245 Y121.22 E126.76028
G1 X98.093 Y121.35 E126.77024
G1 X98.053 Y122.51 E126.828
G0 F9000 X98.253 Y122.51
G0 X98.745 Y121.842
G0 X102.983 Y121.784
;TYPE:FILL
G1 F1537.8 X111.585 Y119.479 E127.38937
G0 F9000 X109.961 Y120.613
G1 F1537.8 X107.062 Y117.714 E127.6478
G0 F9000 X106.806 Y117.979
G1 F1537.8 X105.787 Y121.785 E127.89617
G0 F9000 X109.289 Y113.711
G0 X109.966 Y111.061
G1 F1537.8 X120.706 Y108.184 E128.59705
G0 F9000 X118.529 Y107.266
G1 F1537.8 X116.1 Y116.328 E129.18845
G0 F9000 X117.082 Y115.643
G1 F1537.8 X109.977 Y108.537 E129.82188
G0 F9000 X109.731 Y107.064
G1 F1537.8 X110.714 Y103.398 E130.06114
G0 F9000 X109.658 Y102.292
G1 F1537.8 X107.725 Y102.81 E130.18728
G0 F9000 X106.193 Y101.234
G0 X105.262 Y100.485
G0 X103.011 Y99.108
G1 F1537.8 X103.159 Y98.558 E130.22319
G0 F9000 X103.129 Y98.751
G1 F2400 E128.22319
;MESH:NONMESH
G0 F600 X103.129 Y98.751 Z1.72
G0 F9000 X106.193 Y101.234
G0 X107.127 Y102.181
G0 X107.942 Y103.231
G0 X108.633 Y104.368
G0 X109.187 Y105.576
G0 X109.598 Y106.841
G0 X109.858 Y108.145
G0 X109.967 Y109.47
G0 X109.923 Y110.798
G0 X109.696 Y112.274
G0 X109.289 Y113.711
G0 X108.71 Y115.087
G0 X107.968 Y116.383
G0 X107.073 Y117.579
G0 X106.039 Y118.657
G0 X104.879 Y119.6
G0 X103.615 Y120.394
G0 X102.262 Y121.028
G0 X100.843 Y121.492
G0 X100.428 Y121.573
G0 X98.745 Y121.842
G1 F1200 E130.22319
G0 F9000 X98.512 Y122.067
;TIME_ELAPSED:111.996815
;LAYER:5
;TYPE:WALL-INNER
;MESH:trigger.stl
G1 F1888.4 X98.769 Y122.064 E130.23569
G1 F1858.8 X99.026 Y122.06 E130.2484
G1 F1830.2 X99.283 Y122.057 E130.2613
G1 F1802.4 X99.54 Y122.053 E130.27441
G1 F1775.4 X99.797 Y122.05 E130.28771
G1 F1749.3 X100.054 Y122.046 E130.30121
G1 F1723.9 X100.311 Y122.043 E130.31491
G1 F1699.2 X100.568 Y122.039 E130.32881
G1 F1675.2 X100.825 Y122.036 E130.34291
G1 F1661.8 X108.361 Y122.036 E130.75961
G1 X117.929 Y115.359 E131.40476
G1 X118.171 Y115.269 E131.41904
G1 X121.479 Y115.269 E131.60196
G1 X121.479 Y108.239 E131.99068
G1 X112.731 Y104.549 E132.51567
G1 X111.383 Y103.799 E132.60097
G1 X110.7 Y102.996 E132.65926
G1 X110.067 Y102.333 E132.70995
G1 X109.397 Y101.707 E132.76065
G1 X108.694 Y101.12 E132.81129
G1 X107.957 Y100.574 E132.86201
G1 X107.194 Y100.072 E132.91251
G1 X106.381 Y99.605 E132.96436
G1 X105.562 Y99.191 E133.0151
G1 X104.726 Y98.828 E133.0655
G1 X103.867 Y98.514 E133.11607
G1 X102.99 Y98.248 E133.16674
G1 X102.722 Y98.184 E133.18198
G1 F1342.3 X102.259 Y98.192 E133.21368
G1 F1136.7 X101.848 Y98.078 E133.24816
G1 F1147.7 X101.665 Y98.102 E133.26294
G1 X101.52 Y98.212 E133.27751
G1 X101.444 Y98.39 E133.29301
G1 X101.467 Y98.571 E133.30761
G1 F1142.9 X101.608 Y98.756 E133.32632
G1 F1132 X102.052 Y98.899 E133.36418
G1 F1342.3 X102.437 Y99.156 E133.39587
G1 F1661.8 X102.809 Y99.289 E133.41771
G1 X103.965 Y99.84 E133.48852
G1 X105.076 Y100.544 E133.56125
G1 X106.061 Y101.336 E133.63114
G1 X106.983 Y102.268 E133.70363
G1 X107.79 Y103.298 E133.77598
G1 X108.467 Y104.408 E133.84788
G1 X109.045 Y105.671 E133.92468
G1 X109.447 Y106.92 E133.99723
G1 X109.688 Y108.125 E134.06518
G1 X109.8 Y109.431 E134.13766
G1 X109.76 Y110.769 E134.21168
G1 X109.523 Y112.282 E134.29636
G1 X109.118 Y113.695 E134.37764
G1 X108.543 Y115.052 E134.45913
G1 X107.852 Y116.256 E134.53589
G1 X106.946 Y117.475 E134.61988
G1 X105.894 Y118.563 E134.70356
G1 X104.817 Y119.439 E134.78032
G1 X103.495 Y120.27 E134.86667
G1 X102.243 Y120.857 E134.94313
G1 X100.801 Y121.335 E135.02713
G1 F1675.2 X100.517 Y121.386 E135.04296
G1 F1699.2 X100.233 Y121.438 E135.05857
G1 F1720.3 X99.948 Y121.49 E135.07405
G1 F1745.6 X99.664 Y121.542 E135.08924
G1 F1771.6 X99.379 Y121.594 E135.10427
G1 F1802.4 X99.095 Y121.611 E135.11877
G1 F1842.4 X98.811 Y121.627 E135.13296
G1 F1884.1 X98.527 Y121.643 E135.14683
G1 F1901.4 X98.512 Y122.067 E135.16734
G0 F9000 X98.053 Y122.51
;TYPE:WALL-OUTER
G1 F1278.3 X108.511 Y122.511 E135.68779
G1 X118.203 Y115.749 E136.2759
G1 X121.954 Y115.744 E136.46257
G1 X121.954 Y107.924 E136.85174
G1 X112.983 Y104.144 E137.3362
G1 X111.695 Y103.43 E137.40949
G1 X111.053 Y102.677 E137.45873
G1 X110.401 Y101.995 E137.50569
G1 X109.711 Y101.35 E137.55269
G1 X108.988 Y100.746 E137.59957
G1 X108.229 Y100.184 E137.64657
G1 X107.443 Y99.667 E137.69339
G1 X106.596 Y99.181 E137.74199
G1 X105.783 Y98.769 E137.78735
G1 X104.903 Y98.387 E137.83509
G1 X104.033 Y98.068 E137.8812
G1 X103.129 Y97.793 E137.92823
G1 X102.836 Y97.722 E137.94323
G1 X102.2 Y97.566 E137.97582
G1 X101.929 Y97.491 E137.98981
G1 X101.687 Y97.49 E138.00186
G1 X101.441 Y97.554 E138.01451
G1 X101.227 Y97.676 E138.02677
G1 X101.051 Y97.849 E138.03905
G1 X100.924 Y98.069 E138.05169
G1 X100.857 Y98.309 E138.06409
G1 X100.856 Y98.551 E138.07613
G1 X100.918 Y98.793 E138.08856
G1 X101.04 Y99.008 E138.10087
G1 X101.218 Y99.189 E138.1135
G1 X101.437 Y99.317 E138.12612
G1 X102.604 Y99.718 E138.18753
G1 X103.726 Y100.254 E138.24941
G1 X104.791 Y100.926 E138.31208
G1 X105.756 Y101.701 E138.37368
G1 X106.638 Y102.596 E138.43621
G1 X107.41 Y103.585 E138.49865
G1 X108.072 Y104.674 E138.56207
G1 X108.584 Y105.795 E138.6234
G1 X108.981 Y107.013 E138.68715
G1 X109.226 Y108.244 E138.74962
G1 X109.327 Y109.47 E138.81084
G1 X109.286 Y110.734 E138.87377
G1 X109.072 Y112.126 E138.94386
G1 X108.68 Y113.512 E139.01554
G1 X108.143 Y114.791 E139.08457
G1 X107.44 Y116.02 E139.15503
G1 X106.592 Y117.155 E139.22554
G1 X105.615 Y118.175 E139.29583
G1 X104.495 Y119.086 E139.36768
G1 X103.318 Y119.826 E139.43687
G1 X102.016 Y120.436 E139.50842
G1 X100.671 Y120.875 E139.57883
G1 X99.278 Y121.146 E139.64945
G1 X98.245 Y121.22 E139.70099
G1 X98.093 Y121.35 E139.71095
G1 X98.053 Y122.51 E139.76871
G0 F9000 X98.253 Y122.51
G0 X98.745 Y121.842
G0 X103.747 Y121.784
;TYPE:FILL
G1 F1534 X111.108 Y119.812 E140.24908
G0 F9000 X110.126 Y120.498
G1 F1534 X107.191 Y117.563 E140.51073
G0 F9000 X106.522 Y118.275
G1 F1534 X105.582 Y121.785 E140.73978
G0 F9000 X108.71 Y115.087
G0 X109.231 Y113.849
G0 X109.934 Y111.275
G1 F1534 X121.002 Y108.309 E141.46208
G0 F9000 X118.344 Y107.189
G1 F1534 X115.848 Y116.504 E142.06998
G0 F9000 X117.248 Y115.528
G1 F1534 X109.952 Y108.232 E142.7204
G0 F9000 X109.633 Y106.666
G1 F1534 X110.558 Y103.214 E142.94567
G0 F9000 X109.829 Y102.451
G1 F1534 X107.857 Y102.98 E143.07438
G0 F9000 X106.193 Y101.234
G0 X105.158 Y100.401
G0 X104.84 Y100.201
G0 X102.827 Y99.03
G1 F1534 X102.969 Y98.5 E143.10896
G0 F9000 X102.927 Y98.665
G1 F2400 E141.10896
;MESH:NONMESH
G0 F600 X102.927 Y98.665 Z2
G0 F9000 X106.193 Y101.234
G0 X107.127 Y102.181
G0 X107.942 Y103.231
G0 X108.633 Y104.368
G0 X109.187 Y105.576
G0 X109.598 Y106.841
G0 X109.858 Y108.145
G0 X109.967 Y109.47
G0 X109.923 Y110.798
G0 X109.696 Y112.274
G0 X109.289 Y113.711
G0 X108.71 Y115.087
G0 X107.968 Y116.383
G0 X107.073 Y117.579
G0 X106.039 Y118.657
G0 X104.879 Y119.6
G0 X103.615 Y120.394
G0 X102.262 Y121.028
G0 X100.843 Y121.492
G0 X100.428 Y121.573
G0 X98.745 Y121.842
G1 F1200 E143.10896
G0 F9000 X98.512 Y122.067
;TIME_ELAPSED:123.903744
;LAYER:6
;TYPE:WALL-INNER
;MESH:trigger.stl
G1 F4431.8 X98.769 Y122.064 E143.12147
G1 F4362.4 X99.026 Y122.06 E143.13418
G1 F4295.2 X99.283 Y122.057 E143.14708
G1 F4229.9 X99.54 Y122.053 E143.16018
G1 F4166.7 X99.797 Y122.05 E143.17349
G1 F4105.3 X100.054 Y122.046 E143.18699
G1 F4045.6 X100.311 Y122.043 E143.20069
G1 F3987.7 X100.568 Y122.039 E143.21459
G1 F3931.5 X100.825 Y122.036 E143.22869
G1 F3900 X108.361 Y122.036 E143.64539
G1 X117.929 Y115.359 E144.29054
G1 X118.171 Y115.269 E144.30482
G1 X121.479 Y115.269 E144.48773
G1 X121.479 Y108.239 E144.87646
G1 X112.731 Y104.549 E145.40145
G1 X111.383 Y103.799 E145.48675
G1 X110.7 Y102.996 E145.54504
G1 X110.067 Y102.333 E145.59572
G1 X109.397 Y101.707 E145.64643
G1 X108.694 Y101.12 E145.69707
G1 X107.957 Y100.574 E145.74779
G1 X107.194 Y100.072 E145.79829
G1 X106.381 Y99.605 E145.85013
G1 X105.562 Y99.191 E145.90088
G1 X104.726 Y98.828 E145.95127
G1 X103.867 Y98.514 E146.00184
G1 X102.99 Y98.248 E146.05252
G1 X102.722 Y98.184 E146.06775
G1 F3150.2 X102.259 Y98.192 E146.09945
G1 F2667.6 X101.848 Y98.078 E146.13393
G1 F2693.4 X101.665 Y98.102 E146.14871
G1 X101.52 Y98.212 E146.16328
G1 X101.444 Y98.39 E146.17878
G1 X101.467 Y98.571 E146.19339
G1 F2682.3 X101.608 Y98.756 E146.21209
G1 F2656.7 X102.052 Y98.899 E146.24996
G1 F3150.2 X102.437 Y99.156 E146.28164
G1 F3900 X102.809 Y99.289 E146.30349
G1 X103.965 Y99.84 E146.3743
G1 X105.076 Y100.544 E146.44703
G1 X106.061 Y101.336 E146.51691
G1 X106.983 Y102.268 E146.58941
G1 X107.79 Y103.298 E146.66176
G1 X108.467 Y104.408 E146.73365
G1 X109.045 Y105.671 E146.81046
G1 X109.447 Y106.92 E146.88301
G1 X109.688 Y108.125 E146.95096
G1 X109.8 Y109.431 E147.02344
G1 X109.76 Y110.769 E147.09746
G1 X109.523 Y112.282 E147.18214
G1 X109.118 Y113.695 E147.26341
G1 X108.543 Y115.052 E147.34491
G1 X107.852 Y116.256 E147.42167
G1 X106.946 Y117.475 E147.50565
G1 X105.894 Y118.563 E147.58934
G1 X104.817 Y119.439 E147.6661
G1 X103.495 Y120.27 E147.75244
G1 X102.243 Y120.857 E147.8289
G1 X100.801 Y121.335 E147.91291
G1 F3931.5 X100.517 Y121.386 E147.92873
G1 F3987.7 X100.233 Y121.438 E147.94435
G1 F4037.3 X99.948 Y121.49 E147.95982
G1 F4096.6 X99.664 Y121.542 E147.97502
G1 F4157.8 X99.379 Y121.594 E147.99005
G1 F4229.9 X99.095 Y121.611 E148.00455
G1 F4323.7 X98.811 Y121.627 E148.01874
G1 F4421.8 X98.527 Y121.643 E148.03261
G1 F4462.2 X98.512 Y122.067 E148.05311
G0 F9000 X98.053 Y122.51
;TYPE:WALL-OUTER
G1 F3000 X108.511 Y122.511 E148.57356
G1 X118.203 Y115.749 E149.16168
G1 X121.954 Y115.744 E149.34835
G1 X121.954 Y107.924 E149.73752
G1 X112.983 Y104.144 E150.22197
G1 X111.695 Y103.43 E150.29526
G1 X111.053 Y102.677 E150.34451
G1 X110.401 Y101.995 E150.39146
G1 X109.711 Y101.35 E150.43847
G1 X108.988 Y100.746 E150.48535
G1 X108.229 Y100.184 E150.53235
G1 X107.443 Y99.667 E150.57917
G1 X106.596 Y99.181 E150.62777
G1 X105.783 Y98.769 E150.67312
G1 X104.903 Y98.387 E150.72087
G1 X104.033 Y98.068 E150.76698
G1 X103.129 Y97.793 E150.814
G1 X102.836 Y97.722 E150.82901
G1 X102.2 Y97.566 E150.8616
G1 X101.929 Y97.491 E150.87559
G1 X101.687 Y97.49 E150.88763
G1 X101.441 Y97.554 E150.90028
G1 X101.227 Y97.676 E150.91254
G1 X101.051 Y97.849 E150.92482
G1 X100.924 Y98.069 E150.93746
G1 X100.857 Y98.309 E150.94986
G1 X100.856 Y98.551 E150.96191
G1 X100.918 Y98.793 E150.97434
G1 X101.04 Y99.008 E150.98664
G1 X101.218 Y99.189 E150.99928
G1 X101.437 Y99.317 E151.0119
G1 X102.604 Y99.718 E151.07331
G1 X103.726 Y100.254 E151.13519
G1 X104.791 Y100.926 E151.19786
G1 X105.756 Y101.701 E151.25945
G1 X106.638 Y102.596 E151.32199
G1 X107.41 Y103.585 E151.38442
G1 X108.072 Y104.674 E151.44785
G1 X108.584 Y105.795 E151.50918
G1 X108.981 Y107.013 E151.57293
G1 X109.226 Y108.244 E151.63539
G1 X109.327 Y109.47 E151.69661
G1 X109.286 Y110.734 E151.75955
G1 X109.072 Y112.126 E151.82964
G1 X108.68 Y113.512 E151.90132
G1 X108.143 Y114.791 E151.97035
G1 X107.44 Y116.02 E152.04081
G1 X106.592 Y117.155 E152.11132
G1 X105.615 Y118.175 E152.18161
G1 X104.495 Y119.086 E152.25345
G1 X103.318 Y119.826 E152.32264
G1 X102.016 Y120.436 E152.3942
G1 X100.671 Y120.875 E152.46461
G1 X99.278 Y121.146 E152.53523
G1 X98.245 Y121.22 E152.58677
G1 X98.093 Y121.35 E152.59672
G1 X98.053 Y122.51 E152.65448
G0 F9000 X98.253 Y122.51
G0 X98.745 Y121.842
G0 X99.338 Y121.829
G0 X99.437 Y121.82
;TYPE:SKIN
G1 F3422.5 X99.72 Y121.793 E152.66565
G1 F3155.8 X100.004 Y121.766 E152.67779
G1 F2927.7 X100.288 Y121.738 E152.69089
G1 F2730.3 X100.572 Y121.711 E152.70493
G1 F2557.9 X100.856 Y121.684 E152.71991
G0 F9000 X100.858 Y121.683
G1 F2500 X101.112 Y121.686 E152.73357
G1 F2531.2 X101.366 Y121.689 E152.74705
G1 F2568.7 X101.62 Y121.693 E152.76034
G1 F2607.3 X101.874 Y121.696 E152.77343
G1 F2641.3 X102.128 Y121.699 E152.78635
G1 F2682.1 X102.382 Y121.703 E152.79908
G1 F2700 X108.258 Y121.703 E153.0915
G1 X117.771 Y115.064 E153.66881
G1 X118.116 Y114.937 E153.6871
G1 X121.147 Y114.937 E153.83794
G1 X121.147 Y108.459 E154.16032
G1 X112.669 Y104.888 E154.61814
G1 X111.263 Y104.11 E154.6981
G1 X111.067 Y103.936 E154.71115
G1 X110.434 Y103.195 E154.75965
G1 X109.816 Y102.552 E154.80403
G1 X109.176 Y101.955 E154.84759
G1 X108.472 Y101.368 E154.8932
G1 X107.785 Y100.86 E154.93572
G1 X106.978 Y100.329 E154.9838
G1 X106.228 Y99.9 E155.0268
G1 F2479.6 X105.937 Y99.798 E155.0435
G1 F2131.6 X105.646 Y99.695 E155.06296
G1 F2014.9 X105.394 Y99.561 E155.082
G1 F2076.9 X105.125 Y99.432 E155.1013
G1 F2158.1 X104.855 Y99.302 E155.11995
G1 F2250 X104.585 Y99.173 E155.13782
G1 F2363.8 X104.319 Y99.06 E155.15425
G1 F2464.5 X104.045 Y98.953 E155.17029
G1 F2531.2 X103.77 Y98.845 E155.18597
G1 F2590.6 X103.502 Y98.755 E155.20064
G1 F2641.3 X103.234 Y98.664 E155.21503
G1 F2694 X102.966 Y98.573 E155.22915
G1 F2748.9 X102.698 Y98.482 E155.24299
G1 F2892.9 X102.284 Y98.584 E155.26279
G1 F3014.9 X102.554 Y98.87 E155.28032
G1 F2949 X102.953 Y99.006 E155.29953
G1 F2799.5 X103.276 Y99.145 E155.3164
G1 F2641.3 X103.599 Y99.284 E155.33429
G1 F2526 X103.875 Y99.408 E155.35039
G1 F2444.7 X104.152 Y99.533 E155.36709
G1 F2359.2 X104.386 Y99.669 E155.3825
G1 F2266.8 X104.621 Y99.805 E155.3986
G1 F2181.3 X104.855 Y99.941 E155.41527
G1 F2102.1 X105.09 Y100.077 E155.43263
G1 F2028.4 X105.325 Y100.213 E155.45061
G1 F2131.6 X105.534 Y100.432 E155.46969
G1 F2479.6 X105.743 Y100.652 E155.48614
G1 F2700 X106.283 Y101.086 E155.52062
G1 X107.228 Y102.042 E155.58751
G1 X108.06 Y103.102 E155.65457
G1 X108.789 Y104.304 E155.72453
G1 X109.322 Y105.467 E155.7882
G1 X109.75 Y106.762 E155.85607
G1 X110.03 Y108.165 E155.92727
G1 X110.132 Y109.403 E155.98909
G1 X110.091 Y110.793 E156.05829
G1 X109.852 Y112.333 E156.13585
G1 X109.468 Y113.698 E156.20642
G1 X108.887 Y115.108 E156.28231
G1 X108.104 Y116.484 E156.3611
G1 X107.184 Y117.708 E156.4373
G1 X106.157 Y118.777 E156.51107
G1 X104.964 Y119.745 E156.58753
G1 X103.703 Y120.538 E156.66166
G1 X102.324 Y121.185 E156.73746
G1 F2682.1 X102.08 Y121.268 E156.75037
G1 F2641.3 X101.836 Y121.351 E156.76348
G1 F2607.3 X101.591 Y121.434 E156.77682
G1 F2568.7 X101.347 Y121.517 E156.7903
G1 F2531.2 X101.103 Y121.6 E156.80398
G1 F2500 X100.858 Y121.683 E156.81788
G0 F9000 X100.858 Y121.885
G0 X99.398 Y121.823
G0 X101.546 Y121.301
G0 X102.597 Y120.857
G0 X102.768 Y121.224
G1 F2700 X103.021 Y121.477 E156.83569
G0 F9000 X103.202 Y121.021
G1 F2700 X103.658 Y121.477 E156.86778
G0 F9000 X104.294 Y121.477
G1 F2700 X103.634 Y120.817 E156.91423
G0 F9000 X104.043 Y120.589
G1 F2700 X104.931 Y121.477 E156.97673
G0 F9000 X105.567 Y121.477
G1 F2700 X104.434 Y120.344 E157.05647
G0 F9000 X104.825 Y120.098
G1 F2700 X106.203 Y121.477 E157.15348
G0 F9000 X106.84 Y121.477
G1 F2700 X105.202 Y119.839 E157.26876
G0 F9000 X105.554 Y119.554
G1 F2700 X107.476 Y121.477 E157.40407
G0 F9000 X108.113 Y121.477
G1 F2700 X105.904 Y119.269 E157.5595
G0 F9000 X106.256 Y118.984
G1 F2700 X108.517 Y121.245 E157.71863
G0 F9000 X108.892 Y120.983
G1 F2700 X106.574 Y118.665 E157.88177
G0 F9000 X106.886 Y118.341
G1 F2700 X109.267 Y120.722 E158.04934
G0 F9000 X109.642 Y120.461
G1 F2700 X107.198 Y118.016 E158.22138
G0 F9000 X107.489 Y117.671
G1 F2700 X110.017 Y120.199 E158.3993
G0 F9000 X110.392 Y119.938
G1 F2700 X107.762 Y117.308 E158.58439
G0 F9000 X108.034 Y116.944
G1 F2700 X110.766 Y119.676 E158.77667
G0 F9000 X111.141 Y119.414
G1 F2700 X108.307 Y116.58 E158.97612
G0 F9000 X108.538 Y116.175
G1 F2700 X111.516 Y119.153 E159.18571
G0 F9000 X111.891 Y118.891
G1 F2700 X108.768 Y115.768 E159.40551
G0 F9000 X108.999 Y115.363
G1 F2700 X112.265 Y118.629 E159.63536
G0 F9000 X112.64 Y118.368
G1 F2700 X109.202 Y114.93 E159.87733
G0 F9000 X109.388 Y114.479
G1 F2700 X113.015 Y118.106 E160.13259
G0 F9000 X113.39 Y117.845
G1 F2700 X109.573 Y114.028 E160.40123
G0 F9000 X109.74 Y113.559
G1 F2700 X113.764 Y117.583 E160.68443
G0 F9000 X114.139 Y117.321
G1 F2700 X109.88 Y113.062 E160.98418
G0 F9000 X110.02 Y112.566
G1 F2700 X114.515 Y117.06 E161.3005
G0 F9000 X114.89 Y116.799
G1 F2700 X110.123 Y112.032 E161.63599
G0 F9000 X110.209 Y111.482
G1 F2700 X115.264 Y116.537 E161.99176
G0 F9000 X115.639 Y116.275
G1 F2700 X110.295 Y110.932 E162.36783
G0 F9000 X110.329 Y110.329
G1 F2700 X116.014 Y116.014 E162.76793
G0 F9000 X116.389 Y115.752
G1 F2700 X110.346 Y109.709 E163.19323
G0 F9000 X110.327 Y109.054
G1 F2700 X116.763 Y115.491 E163.64623
G0 F9000 X117.138 Y115.229
G1 F2700 X110.268 Y108.359 E164.12973
G0 F9000 X110.145 Y107.599
G1 F2700 X117.513 Y114.967 E164.64829
G0 F9000 X117.943 Y114.761
G1 F2700 X109.983 Y106.801 E165.2085
G0 F9000 X109.692 Y105.874
G1 F2700 X118.53 Y114.711 E165.83048
G0 F9000 X119.166 Y114.711
G1 F2700 X109.269 Y104.814 E166.52702
G0 F9000 X108.9 Y104.982
G0 X108.749 Y104.635
G0 X108.176 Y103.638
G0 X108.521 Y103.43
G1 F2700 X119.802 Y114.711 E167.32096
G0 F9000 X120.439 Y114.711
G1 F2700 X105.746 Y100.018 E168.35504
G0 F9000 X105.975 Y99.568
G0 X107.161 Y100.231
G0 X106.936 Y100.572
G1 F2700 X120.921 Y114.557 E169.33929
G0 F9000 X120.921 Y113.921
G1 F2700 X111.502 Y104.501 E170.00223
G0 F9000 X111.698 Y104.148
G0 X111.98 Y104.308
G0 X112.998 Y104.829
G0 X112.84 Y105.204
G1 F2700 X120.921 Y113.284 E170.57093
G0 F9000 X120.921 Y112.648
G1 F2700 X113.94 Y105.667 E171.06224
G0 F9000 X114.097 Y105.293
G0 X115.196 Y105.756
G0 X115.039 Y106.13
G1 F2700 X120.921 Y112.012 E171.47621
G0 F9000 X120.921 Y111.375
G1 F2700 X116.139 Y106.593 E171.81276
G0 F9000 X116.296 Y106.22
G0 X117.396 Y106.683
G0 X117.239 Y107.056
G1 F2700 X120.921 Y110.739 E172.07193
G0 F9000 X120.921 Y110.102
G1 F2700 X118.339 Y107.52 E172.25365
G0 F9000 X118.496 Y107.147
G0 X119.595 Y107.609
G0 X119.438 Y107.983
G1 F2700 X120.921 Y109.466 E172.35802
G0 F9000 X120.921 Y108.83
G1 F2700 X120.538 Y108.446 E172.38501
;MESH:NONMESH
G0 F600 X120.538 Y108.446 Z2.28
G0 F9000 X120.695 Y108.073
G0 X112.694 Y104.714
G0 X111.285 Y103.932
G0 X109.276 Y101.882
G0 X107.82 Y100.736
G0 X106.284 Y99.792
G0 X104.407 Y98.935
G0 X102.995 Y98.492
G0 X101.709 Y98.204
G0 X101.665 Y98.102
;TIME_ELAPSED:141.978891
;LAYER:7
;TYPE:WALL-INNER
;MESH:trigger.stl
G1 F2693.4 X101.52 Y98.212 E172.39959
G1 X101.469 Y98.299 E172.40766
G1 X101.444 Y98.48 E172.42229
G1 X101.512 Y98.651 E172.43703
G1 X101.683 Y98.78 E172.45418
G1 F2667.6 X102.052 Y98.899 E172.48552
G1 F3150.2 X102.437 Y99.156 E172.51721
G1 F3900 X102.809 Y99.289 E172.53905
G1 X103.965 Y99.84 E172.60986
G1 X105.076 Y100.544 E172.68259
G1 X106.061 Y101.336 E172.75248
G1 X106.983 Y102.268 E172.82497
G1 X107.79 Y103.298 E172.89732
G1 X108.467 Y104.408 E172.96922
G1 X109.045 Y105.671 E173.04602
G1 X109.447 Y106.92 E173.11857
G1 X109.688 Y108.125 E173.18652
G1 X109.8 Y109.431 E173.259
G1 X109.76 Y110.769 E173.33302
G1 X109.523 Y112.282 E173.4177
G1 X109.118 Y113.695 E173.49898
G1 X108.543 Y115.052 E173.58047
G1 X107.852 Y116.256 E173.65723
G1 X106.946 Y117.475 E173.74122
G1 X105.894 Y118.563 E173.8249
G1 X104.817 Y119.439 E173.90167
G1 X103.495 Y120.27 E173.98801
G1 X102.243 Y120.857 E174.06447
G1 X100.801 Y121.335 E174.14847
G1 F3931.5 X100.517 Y121.386 E174.1643
G1 F3987.7 X100.233 Y121.438 E174.17991
G1 F4037.3 X99.948 Y121.49 E174.19539
G1 F4096.6 X99.664 Y121.542 E174.21058
G1 F4157.8 X99.379 Y121.594 E174.22561
G1 F4229.9 X99.095 Y121.611 E174.24012
G1 F4323.7 X98.811 Y121.627 E174.2543
G1 F4421.8 X98.527 Y121.643 E174.26818
G1 F4462.2 X98.512 Y122.067 E174.28868
G1 F4431.8 X98.769 Y122.064 E174.30119
G1 F4362.4 X99.026 Y122.06 E174.31389
G1 F4295.2 X99.283 Y122.057 E174.3268
G1 F4229.9 X99.54 Y122.053 E174.3399
G1 F4166.7 X99.797 Y122.05 E174.3532
G1 F4105.3 X100.054 Y122.046 E174.3667
G1 F4045.6 X100.311 Y122.043 E174.3804
G1 F3987.7 X100.568 Y122.039 E174.3943
G1 F3931.5 X100.825 Y122.036 E174.4084
G1 F3900 X108.361 Y122.036 E174.8251
G1 X117.929 Y115.359 E175.47026
G1 X118.171 Y115.269 E175.48453
G1 X121.479 Y115.269 E175.66745
G1 X121.479 Y108.239 E176.05617
G1 X112.731 Y104.549 E176.58116
G1 X111.383 Y103.799 E176.66646
G1 X110.7 Y102.996 E176.72475
G1 X110.067 Y102.333 E176.77544
G1 X109.397 Y101.707 E176.82614
G1 X108.694 Y101.12 E176.87678
G1 X107.957 Y100.574 E176.9275
G1 X107.194 Y100.072 E176.978
G1 X106.381 Y99.605 E177.02985
G1 X105.562 Y99.191 E177.08059
G1 X104.726 Y98.828 E177.13099
G1 X103.867 Y98.514 E177.18156
G1 X102.99 Y98.248 E177.23223
G1 X102.722 Y98.184 E177.24747
G1 F3150.2 X102.259 Y98.192 E177.27917
G1 F2667.6 X101.848 Y98.078 E177.31365
G1 F2693.4 X101.665 Y98.102 E177.32843
G1 F2400 E175.32843
G0 F9000 X101.709 Y98.204
G0 X101.704 Y98.733
G0 X102.833 Y99.119
G0 X104.033 Y99.692
G0 X105.158 Y100.401
G0 X106.193 Y101.234
G0 X107.127 Y102.181
G0 X107.942 Y103.231
G0 X108.633 Y104.368
G0 X109.187 Y105.576
G0 X109.598 Y106.841
G0 X109.858 Y108.145
G0 X109.967 Y109.47
G0 X109.923 Y110.798
G0 X109.696 Y112.274
G0 X109.289 Y113.711
G0 X108.71 Y115.087
G0 X107.968 Y116.383
G0 X107.073 Y117.579
G0 X106.039 Y118.657
G0 X104.879 Y119.6
G0 X103.615 Y120.394
G0 X102.262 Y121.028
G0 X100.843 Y121.492
G0 X100.428 Y121.573
G0 X98.745 Y121.842
G1 F1200 E177.32843
G0 F9000 X98.053 Y122.51
;TYPE:WALL-OUTER
G1 F3000 X108.511 Y122.511 E177.84887
G1 X118.203 Y115.749 E178.43699
G1 X121.954 Y115.744 E178.62366
G1 X121.954 Y107.924 E179.01283
G1 X112.983 Y104.144 E179.49729
G1 X111.695 Y103.43 E179.57057
G1 X111.053 Y102.677 E179.61982
G1 X110.401 Y101.995 E179.66677
G1 X109.711 Y101.35 E179.71378
G1 X108.988 Y100.746 E179.76066
G1 X108.229 Y100.184 E179.80766
G1 X107.443 Y99.667 E179.85448
G1 X106.596 Y99.181 E179.90308
G1 X105.783 Y98.769 E179.94844
G1 X104.903 Y98.387 E179.99618
G1 X104.033 Y98.068 E180.04229
G1 X103.129 Y97.793 E180.08932
G1 X102.2 Y97.566 E180.13691
G1 X101.929 Y97.491 E180.1509
G1 X101.687 Y97.49 E180.16295
G1 X101.441 Y97.554 E180.17559
G1 X101.227 Y97.676 E180.18785
G1 X101.051 Y97.849 E180.20014
G1 X100.924 Y98.069 E180.21278
G1 X100.858 Y98.304 E180.22492
G1 X100.856 Y98.551 E180.23722
G1 X100.918 Y98.793 E180.24965
G1 X101.04 Y99.008 E180.26195
G1 X101.219 Y99.189 E180.27462
G1 X101.437 Y99.317 E180.2872
G1 X102.283 Y99.605 E180.33167
G1 X102.604 Y99.718 E180.34861
G1 X103.726 Y100.254 E180.41049
G1 X104.791 Y100.926 E180.47316
G1 X105.756 Y101.701 E180.53475
G1 X106.638 Y102.596 E180.59729
G1 X107.41 Y103.585 E180.65973
G1 X108.072 Y104.674 E180.72315
G1 X108.584 Y105.795 E180.78448
G1 X108.981 Y107.013 E180.84823
G1 X109.226 Y108.244 E180.91069
G1 X109.327 Y109.47 E180.97191
G1 X109.286 Y110.734 E181.03485
G1 X109.072 Y112.126 E181.10494
G1 X108.68 Y113.512 E181.17662
G1 X108.143 Y114.791 E181.24565
G1 X107.44 Y116.02 E181.31611
G1 X106.592 Y117.155 E181.38662
G1 X105.615 Y118.175 E181.45691
G1 X104.495 Y119.086 E181.52876
G1 X103.318 Y119.826 E181.59794
G1 X102.016 Y120.436 E181.6695
G1 X100.671 Y120.875 E181.73991
G1 X99.278 Y121.146 E181.81053
G1 X98.245 Y121.22 E181.86207
G1 X98.093 Y121.35 E181.87202
G1 X98.053 Y122.51 E181.92979
G0 F9000 X98.253 Y122.51
G0 X98.745 Y121.842
G0 X99.338 Y121.829
G0 X99.437 Y121.82
;TYPE:SKIN
G1 F3422.5 X99.72 Y121.793 E181.94095
G1 F3155.8 X100.004 Y121.766 E181.95309
G1 F2927.7 X100.288 Y121.738 E181.96619
G1 F2730.3 X100.572 Y121.711 E181.98023
G1 F2557.9 X100.856 Y121.684 E181.99522
G0 F9000 X100.858 Y121.683
G1 F2500 X101.112 Y121.686 E182.00887
G1 F2531.2 X101.366 Y121.689 E182.02235
G1 F2568.7 X101.62 Y121.693 E182.03564
G1 F2607.3 X101.874 Y121.696 E182.04873
G1 F2641.3 X102.128 Y121.699 E182.06165
G1 F2682.1 X102.382 Y121.703 E182.07438
G1 F2700 X108.258 Y121.703 E182.3668
G1 X117.771 Y115.064 E182.94411
G1 X118.116 Y114.937 E182.96241
G1 X121.147 Y114.937 E183.11325
G1 X121.147 Y108.459 E183.43563
G1 X112.669 Y104.888 E183.89344
G1 X111.263 Y104.11 E183.97341
G1 X111.067 Y103.936 E183.98645
G1 X110.434 Y103.195 E184.03495
G1 X109.816 Y102.552 E184.07933
G1 X109.176 Y101.955 E184.12289
G1 X108.472 Y101.368 E184.1685
G1 X107.785 Y100.86 E184.21102
G1 X106.978 Y100.329 E184.2591
G1 X106.228 Y99.9 E184.3021
G1 F2479.6 X105.937 Y99.798 E184.31881
G1 F2131.6 X105.646 Y99.695 E184.33826
G1 F2014.9 X105.394 Y99.561 E184.3573
G1 F2076.9 X105.125 Y99.432 E184.3766
G1 F2158.1 X104.855 Y99.302 E184.39526
G1 F2250 X104.585 Y99.173 E184.41313
G1 F2363.8 X104.319 Y99.06 E184.42955
G1 F2464.5 X104.045 Y98.953 E184.44559
G1 F2531.2 X103.77 Y98.845 E184.46127
G1 F2590.6 X103.502 Y98.755 E184.47594
G1 F2641.3 X103.234 Y98.664 E184.49034
G1 F2694 X102.966 Y98.573 E184.50445
G1 F2748.9 X102.698 Y98.482 E184.51829
G1 F2892.9 X102.284 Y98.584 E184.53809
G1 F3014.9 X102.554 Y98.87 E184.55562
G1 F2949 X102.953 Y99.006 E184.57483
G1 F2799.5 X103.276 Y99.145 E184.5917
G1 F2641.3 X103.599 Y99.284 E184.60959
G1 F2526 X103.875 Y99.408 E184.62569
G1 F2444.7 X104.152 Y99.533 E184.64239
G1 F2359.2 X104.386 Y99.669 E184.65781
G1 F2266.8 X104.621 Y99.805 E184.6739
G1 F2181.3 X104.855 Y99.941 E184.69057
G1 F2102.1 X105.09 Y100.077 E184.70793
G1 F2028.4 X105.325 Y100.213 E184.72591
G1 F2131.6 X105.534 Y100.432 E184.745
G1 F2479.6 X105.743 Y100.652 E184.76144
G1 F2700 X106.283 Y101.086 E184.79592
G1 X107.228 Y102.042 E184.86281
G1 X108.06 Y103.102 E184.92987
G1 X108.789 Y104.304 E184.99983
G1 X109.322 Y105.467 E185.0635
G1 X109.75 Y106.762 E185.13137
G1 X110.03 Y108.165 E185.20257
G1 X110.132 Y109.403 E185.26439
G1 X110.091 Y110.793 E185.33359
G1 X109.852 Y112.333 E185.41115
G1 X109.468 Y113.698 E185.48172
G1 X108.887 Y115.108 E185.55761
G1 X108.104 Y116.484 E185.6364
G1 X107.184 Y117.708 E185.7126
G1 X106.157 Y118.777 E185.78637
G1 X104.964 Y119.745 E185.86283
G1 X103.703 Y120.538 E185.93696
G1 X102.324 Y121.185 E186.01276
G1 F2682.1 X102.08 Y121.268 E186.02567
G1 F2641.3 X101.836 Y121.351 E186.03879
G1 F2607.3 X101.591 Y121.434 E186.05212
G1 F2568.7 X101.347 Y121.517 E186.0656
G1 F2531.2 X101.103 Y121.6 E186.07928
G1 F2500 X100.858 Y121.683 E186.09318
G0 F9000 X100.858 Y121.885
G0 X108.295 Y121.824
G0 X118.008 Y115.106
G0 X120.754 Y115.119
G0 X120.754 Y114.711
G1 F2700 X120.921 Y114.544 E186.10494
G0 F9000 X120.921 Y113.908
G1 F2700 X120.118 Y114.711 E186.16145
G0 F9000 X119.481 Y114.711
G1 F2700 X120.921 Y113.272 E186.26276
G0 F9000 X120.921 Y112.635
G1 F2700 X118.845 Y114.711 E186.40887
G0 F9000 X118.209 Y114.711
G1 F2700 X120.921 Y111.999 E186.59974
G0 F9000 X120.921 Y111.362
G1 F2700 X116.86 Y115.424 E186.88558
G0 F9000 X117.093 Y115.759
G0 X114.986 Y117.23
G0 X114.753 Y116.894
G1 F2700 X120.921 Y110.726 E187.31968
G0 F9000 X120.921 Y110.09
G1 F2700 X112.647 Y118.364 E187.90199
G0 F9000 X112.88 Y118.699
G0 X110.773 Y120.169
G0 X110.54 Y119.834
G1 F2700 X120.921 Y109.453 E188.6326
G0 F9000 X120.921 Y108.817
G1 F2700 X108.434 Y121.304 E189.51142
G0 F9000 X107.625 Y121.477
G1 F2700 X120.621 Y108.48 E190.4261
G0 F9000 X120.173 Y108.292
G1 F2700 X106.988 Y121.477 E191.35405
G0 F9000 X106.352 Y121.477
G1 F2700 X119.725 Y108.103 E192.29526
G0 F9000 X119.278 Y107.915
G1 F2700 X105.715 Y121.477 E193.24978
G0 F9000 X105.079 Y121.477
G1 F2700 X118.83 Y107.726 E194.21756
G0 F9000 X118.382 Y107.538
G1 F2700 X104.443 Y121.477 E195.19857
G0 F9000 X103.806 Y121.477
G1 F2700 X117.934 Y107.349 E196.19289
G0 F9000 X117.487 Y107.16
G1 F2700 X108.627 Y116.02 E196.81645
G0 F9000 X108.277 Y115.819
G0 X108.522 Y115.405
G0 X108.916 Y114.566
G0 X109.289 Y114.722
G1 F2700 X117.039 Y106.971 E197.36192
G0 F9000 X116.591 Y106.783
G1 F2700 X109.711 Y113.663 E197.84613
G0 F9000 X109.962 Y112.776
G1 F2700 X116.143 Y106.594 E198.28117
G0 F9000 X115.696 Y106.406
G1 F2700 X110.134 Y111.968 E198.67262
G0 F9000 X110.252 Y111.213
G1 F2700 X115.248 Y106.217 E199.02423
G0 F9000 X114.8 Y106.028
G1 F2700 X110.324 Y110.504 E199.33925
G0 F9000 X110.343 Y109.849
G1 F2700 X114.352 Y105.84 E199.6214
G0 F9000 X113.905 Y105.651
G1 F2700 X110.341 Y109.215 E199.87223
G0 F9000 X110.291 Y108.628
G1 F2700 X113.457 Y105.462 E200.09505
G0 F9000 X113.009 Y105.274
G1 F2700 X110.237 Y108.046 E200.29014
G0 F9000 X110.129 Y107.517
G1 F2700 X112.563 Y105.083 E200.46144
G0 F9000 X112.152 Y104.858
G1 F2700 X110.022 Y106.988 E200.61135
G0 F9000 X109.895 Y106.479
G1 F2700 X111.741 Y104.632 E200.74131
G0 F9000 X111.331 Y104.407
G1 F2700 X109.735 Y106.002 E200.8536
G0 F9000 X109.577 Y105.524
G1 F2700 X110.962 Y104.139 E200.95107
G0 F9000 X110.658 Y103.806
G1 F2700 X109.389 Y105.076 E201.04042
G0 F9000 X109.189 Y104.639
G1 F2700 X110.366 Y103.462 E201.12325
G0 F9000 X110.059 Y103.132
G1 F2700 X108.989 Y104.203 E201.19859
G0 F9000 X108.75 Y103.806
G1 F2700 X109.748 Y102.807 E201.26887
G0 F9000 X109.424 Y102.495
G1 F2700 X108.509 Y103.41 E201.33326
G0 F9000 X108.269 Y103.014
G1 F2700 X109.095 Y102.187 E201.39143
G0 F9000 X108.752 Y101.894
G1 F2700 X107.994 Y102.652 E201.44478
G0 F9000 X107.713 Y102.297
G1 F2700 X108.405 Y101.605 E201.49348
G0 F9000 X108.043 Y101.331
G1 F2700 X107.433 Y101.94 E201.53638
G0 F9000 X107.122 Y101.615
G1 F2700 X107.677 Y101.06 E201.57544
G0 F9000 X107.294 Y100.807
G1 F2700 X106.806 Y101.295 E201.60978
G0 F9000 X106.489 Y100.975
G1 F2700 X106.91 Y100.554 E201.63941
G0 F9000 X106.508 Y100.32
G1 F2700 X106.143 Y100.685 E201.6651
G0 F9000 X105.812 Y100.379
G1 F2700 X106.097 Y100.094 E201.68516
G1 F2400 E199.68516
G0 F9000 X106.285 Y99.725
G0 X103.804 Y98.716
G0 X102.663 Y98.387
G0 X102.133 Y98.539
G0 X102.498 Y98.952
G0 X104.262 Y99.78
G0 X106.121 Y101.108
G0 X107.127 Y102.181
G0 X107.942 Y103.231
G0 X108.633 Y104.368
G0 X109.187 Y105.576
G0 X109.598 Y106.841
G0 X109.858 Y108.145
G0 X109.967 Y109.47
G0 X109.923 Y110.798
G0 X109.696 Y112.274
G0 X109.289 Y113.711
G0 X108.71 Y115.087
G0 X107.968 Y116.383
G0 X107.073 Y117.579
G0 X106.039 Y118.657
G0 X105.1 Y119.42
G0 X103.866 Y120.221
G1 F1200 E201.68516
G0 F9000 X104.082 Y120.565
G1 F2700 X103.17 Y121.477 E201.74935
G0 F9000 X102.804 Y121.207
G1 F2700 X102.534 Y121.477 E201.76835
G1 F2400 E199.76835
;MESH:NONMESH
G0 F600 X102.534 Y121.477 Z2.56
G0 F9000 X102.534 Y121.886
G0 X99.398 Y121.823
G0 X100.913 Y121.519
G0 X102.5 Y120.913
G0 X103.615 Y120.394
G0 X104.879 Y119.6
G0 X106.039 Y118.657
G0 X107.073 Y117.579
G0 X107.968 Y116.383
G0 X108.71 Y115.087
G0 X109.289 Y113.711
G0 X109.696 Y112.274
G0 X109.923 Y110.798
G0 X109.967 Y109.47
G0 X109.858 Y108.145
G0 X109.598 Y106.841
G0 X109.187 Y105.576
G0 X108.633 Y104.368
G0 X107.942 Y103.231
G0 X107.127 Y102.181
G0 X106.193 Y101.234
G0 X105.158 Y100.401
G0 X104.033 Y99.692
G0 X102.833 Y99.119
G0 X102.522 Y99.013
G0 X101.715 Y98.203
G1 F1200 E201.76835
G0 F9000 X101.68 Y98.142
;TIME_ELAPSED:162.095849
;LAYER:8
;TYPE:WALL-INNER
;MESH:trigger.stl
G1 F3070.9 X101.552 Y98.24 E201.77967
G1 X101.487 Y98.397 E201.7916
G1 X101.507 Y98.552 E201.80258
G1 F3042.1 X101.636 Y98.719 E201.81754
G1 F3000 X102.034 Y98.845 E201.84754
G1 F2977.1 X102.433 Y98.972 E201.87788
G1 F2959 X102.832 Y99.099 E201.90839
G1 F2867.6 X103.138 Y99.231 E201.93345
G1 F2723.5 X103.444 Y99.364 E201.95987
G1 F3160.5 X103.8 Y99.664 E201.99164
G1 F3900 X104.008 Y99.764 E202.0044
G1 X105.128 Y100.473 E202.0777
G1 X106.122 Y101.268 E202.14808
G1 X107.05 Y102.209 E202.22116
G1 X107.861 Y103.25 E202.29412
G1 X108.544 Y104.366 E202.36647
G1 X109.127 Y105.64 E202.44394
G1 X109.532 Y106.898 E202.51702
G1 X109.775 Y108.113 E202.58553
G1 X109.888 Y109.429 E202.65857
G1 X109.847 Y110.784 E202.73353
G1 X109.61 Y112.301 E202.81843
G1 X109.201 Y113.725 E202.90035
G1 X108.622 Y115.092 E202.98244
G1 X107.927 Y116.305 E203.05974
G1 X107.04 Y117.496 E203.14186
G1 X106.018 Y118.569 E203.2238
G1 X104.838 Y119.536 E203.30815
G1 X103.538 Y120.348 E203.39291
G1 X102.197 Y120.97 E203.47465
G1 X100.785 Y121.428 E203.55673
G1 F3963.4 X100.506 Y121.474 E203.57211
G1 F4096.6 X100.227 Y121.52 E203.587
G1 F4239.1 X99.947 Y121.566 E203.60143
G1 F4391.9 X99.668 Y121.612 E203.61532
G1 F4556.1 X99.388 Y121.659 E203.62876
G1 F4687.5 X99.093 Y121.676 E203.64235
G1 F4803 X98.797 Y121.694 E203.65566
G1 F4924.2 X98.502 Y121.712 E203.66861
G1 F4974.5 X98.489 Y122.09 E203.685
G1 F4936.7 X98.771 Y122.087 E203.69732
G1 F4838.7 X99.053 Y122.083 E203.70989
G1 F4744.5 X99.335 Y122.08 E203.72271
G1 F4620.9 X99.587 Y122.072 E203.73448
G1 F4472.5 X99.838 Y122.065 E203.74659
G1 F4333.3 X100.089 Y122.058 E203.75908
G1 F4202.6 X100.34 Y122.051 E203.77197
G1 F4079.5 X100.591 Y122.044 E203.78524
G1 F3963.4 X100.842 Y122.037 E203.7989
G1 F3900 X108.361 Y122.036 E204.21466
G1 X117.984 Y115.32 E204.86354
G1 X118.279 Y115.269 E204.8801
G1 X121.479 Y115.269 E205.05704
G1 X121.479 Y108.239 E205.44576
G1 X112.799 Y104.582 E205.96658
G1 X112.145 Y104.231 E206.00763
G1 X111.861 Y104.101 E206.0249
G1 X111.512 Y103.961 E206.04569
G1 X111.301 Y103.836 E206.05925
G1 X110.634 Y103.056 E206.116
G1 X110.005 Y102.394 E206.16649
G1 X109.338 Y101.772 E206.21692
G1 X108.64 Y101.19 E206.26718
G1 X107.887 Y100.634 E206.31893
G1 X107.148 Y100.148 E206.36784
G1 X106.355 Y99.692 E206.41842
G1 X105.526 Y99.273 E206.46978
G1 X104.679 Y98.905 E206.52085
G1 X104.194 Y98.728 E206.5494
G1 F3160.5 X103.709 Y98.682 E206.58264
G1 F2704.6 X103.359 Y98.561 E206.61217
G1 F2805.8 X103.008 Y98.44 E206.6407
G1 F2880.4 X102.716 Y98.361 E206.66335
G1 F2932.3 X102.424 Y98.281 E206.68562
G1 F2986.2 X102.131 Y98.201 E206.70755
G1 F3042.1 X101.839 Y98.121 E206.72901
G1 F3070.9 X101.68 Y98.142 E206.74027
G0 F9000 X101.281 Y97.745
;TYPE:WALL-OUTER
G1 F3000 X101.12 Y97.905 E206.75157
G1 X101.007 Y98.1 E206.76279
G1 X100.945 Y98.322 E206.77426
G1 X100.944 Y98.54 E206.78511
G1 X101 Y98.759 E206.79636
G1 X101.111 Y98.952 E206.80744
G1 X101.274 Y99.118 E206.81901
G1 X101.475 Y99.236 E206.83061
G1 X102.615 Y99.626 E206.89057
G1 X103.769 Y100.176 E206.95419
G1 X104.843 Y100.854 E207.0174
G1 X105.816 Y101.635 E207.07949
G1 X106.704 Y102.538 E207.14252
G1 X107.494 Y103.555 E207.2066
G1 X108.138 Y104.613 E207.26824
G1 X108.666 Y105.764 E207.33126
G1 X109.059 Y106.966 E207.3942
G1 X109.313 Y108.232 E207.45845
G1 X109.415 Y109.468 E207.52017
G1 X109.374 Y110.746 E207.58381
G1 X109.159 Y112.145 E207.65425
G1 X108.763 Y113.542 E207.72651
G1 X108.222 Y114.831 E207.79608
G1 X107.515 Y116.068 E207.86698
G1 X106.66 Y117.211 E207.93802
G1 X105.655 Y118.259 E208.01028
G1 X104.57 Y119.142 E208.07989
G1 X103.361 Y119.904 E208.15101
G1 X102.049 Y120.518 E208.2231
G1 X100.721 Y120.954 E208.29266
G1 X99.291 Y121.233 E208.36517
G1 X98.125 Y121.317 E208.42334
G1 X98.09 Y121.429 E208.42918
G1 X98.053 Y122.511 E208.48306
G1 X108.511 Y122.511 E209.00351
G1 X118.208 Y115.744 E209.59197
G1 X121.954 Y115.744 E209.77839
G1 X121.954 Y107.924 E210.16756
G1 X112.983 Y104.144 E210.65202
G1 X112.357 Y103.805 E210.68745
G1 X112.048 Y103.664 E210.70435
G1 X111.644 Y103.502 E210.72601
G1 X110.987 Y102.737 E210.77619
G1 X110.339 Y102.057 E210.82294
G1 X109.653 Y101.415 E210.8697
G1 X108.933 Y100.816 E210.91631
G1 X108.178 Y100.257 E210.96306
G1 X107.397 Y99.743 E211.00959
G1 X106.555 Y99.26 E211.05789
G1 X105.745 Y98.849 E211.1031
G1 X104.87 Y98.469 E211.15057
G1 F3006.7 X104.004 Y98.151 E211.19638
G1 X103.883 Y98.116 E211.20263
G1 F3000 X103.105 Y97.878 E211.24312
G1 X102.178 Y97.651 E211.29062
G1 X101.915 Y97.579 E211.30419
G1 X101.698 Y97.578 E211.31499
G1 X101.475 Y97.636 E211.32645
G1 X101.281 Y97.745 E211.33753
G0 F9000 X101.139 Y97.886
G0 X101.677 Y98.334
G0 X104.207 Y98.893
G0 X104.08 Y99.23
;TYPE:SKIN
G1 F2275.3 X104.277 Y99.315 E211.3502
G1 F2131.6 X104.527 Y99.444 E211.36793
G1 F1962.8 X104.778 Y99.573 E211.38725
G1 F2400 E209.38725
G0 F9000 X104.552 Y99.93
G0 X105.21 Y100.329
G0 X106.254 Y101.168
G0 X107.193 Y102.124
G0 X108.015 Y103.182
G0 X108.71 Y104.327
G0 X109.269 Y105.545
G0 X109.683 Y106.819
G0 X109.945 Y108.133
G0 X110.055 Y109.468
G0 X110.011 Y110.808
G0 X109.783 Y112.293
G0 X109.372 Y113.741
G0 X108.789 Y115.127
G0 X108.043 Y116.432
G0 X107.139 Y117.636
G0 X106.099 Y118.722
G0 X104.932 Y119.672
G0 X103.658 Y120.473
G0 X101.997 Y121.259
G0 X100.826 Y121.635
G0 X99.402 Y121.867
G0 X101.923 Y121.885
G1 F1200 E211.38725
G0 F9000 X101.924 Y121.56
G1 F2700 X108.213 Y121.561 E211.70023
G1 X117.708 Y114.934 E212.27646
G1 X118.097 Y114.794 E212.29703
G1 X121.004 Y114.794 E212.4417
G1 X121.004 Y108.554 E212.75224
G1 X112.593 Y105.011 E213.20643
G1 X111.932 Y104.657 E213.24375
G1 X111.673 Y104.539 E213.25791
G1 X111.177 Y104.339 E213.28453
G1 X110.878 Y104.075 E213.30438
G1 X110.281 Y103.375 E213.35016
G1 X109.668 Y102.732 E213.39437
G1 X109.023 Y102.127 E213.43838
G1 X108.335 Y101.558 E213.48281
G1 F2449.6 X108.106 Y101.446 E213.4968
G1 F2062.8 X107.876 Y101.334 E213.51346
G1 F1953.4 X107.587 Y101.102 E213.53895
G1 F2045.5 X107.357 Y100.933 E213.5577
G1 F2150.4 X107.127 Y100.763 E213.57557
G1 F2271 X106.896 Y100.593 E213.59254
G1 F2391.7 X106.644 Y100.434 E213.60928
G1 F2520.7 X106.391 Y100.274 E213.62524
G1 F2664.5 X106.138 Y100.114 E213.64033
G1 F2845.4 X105.865 Y99.956 E213.65523
G1 F3091.6 X105.592 Y99.798 E213.66894
G1 F3310.6 X105.246 Y99.62 E213.68473
G1 F2430 X104.778 Y99.573 E213.71074
G1 X105.079 Y99.935 E213.73677
G1 F3310.6 X105.393 Y100.119 E213.75154
G1 F3123.4 X105.606 Y100.274 E213.76287
G1 F2934.8 X105.819 Y100.43 E213.77496
G1 F2767.7 X106.033 Y100.586 E213.78782
G1 F2624.2 X106.246 Y100.741 E213.80131
G1 F2489.8 X106.46 Y100.897 E213.8156
G1 F2405.9 X106.658 Y101.078 E213.83058
G1 F2368.4 X106.855 Y101.258 E213.84572
G1 F2327.6 X107.052 Y101.439 E213.86116
G1 F2292.5 X107.249 Y101.619 E213.87681
G1 F2258.4 X107.446 Y101.8 E213.89272
G1 F2449.6 X107.673 Y102.235 E213.91964
G1 F2700 X108.241 Y102.959 E213.96543
G1 X108.964 Y104.142 E214.03443
G1 X109.562 Y105.437 E214.10541
G1 X109.983 Y106.728 E214.17299
G1 X110.255 Y108.095 E214.24235
G1 X110.367 Y109.447 E214.30987
G1 X110.323 Y110.805 E214.37748
G1 X110.084 Y112.373 E214.45642
G1 X109.649 Y113.884 E214.53467
G1 X109.075 Y115.256 E214.60868
G1 X108.31 Y116.594 E214.68538
G1 X107.361 Y117.857 E214.764
G1 X106.312 Y118.949 E214.83936
G1 X105.123 Y119.917 E214.91566
G1 X103.791 Y120.756 E214.994
G1 X102.389 Y121.408 E215.07095
G1 X101.924 Y121.56 E215.09529
G0 F9000 X101.923 Y121.885
G0 X99.402 Y121.867
G0 X100.936 Y121.605
G0 X102.081 Y121.195
G0 X103.145 Y120.698
G0 X103.377 Y121.196
;TYPE:SKIN
G1 F3000 X103.515 Y121.334 E215.10501
G0 F9000 X103.811 Y120.994
G1 F3000 X104.151 Y121.334 E215.12893
G0 F9000 X104.209 Y120.756
G1 F3000 X104.788 Y121.334 E215.16965
G0 F9000 X105.424 Y121.334
G1 F3000 X104.6 Y120.51 E215.22764
G0 F9000 X104.991 Y120.264
G1 F3000 X106.061 Y121.334 E215.30295
G0 F9000 X106.697 Y121.334
G1 F3000 X105.369 Y120.006 E215.39641
G0 F9000 X105.72 Y119.72
G1 F3000 X107.333 Y121.334 E215.50997
G0 F9000 X107.97 Y121.334
G1 F3000 X106.07 Y119.434 E215.64369
G0 F9000 X106.42 Y119.148
G1 F3000 X108.415 Y121.143 E215.78409
G0 F9000 X108.79 Y120.882
G1 F3000 X106.737 Y118.828 E215.92862
G0 F9000 X107.048 Y118.503
G1 F3000 X109.165 Y120.62 E216.07761
G0 F9000 X109.54 Y120.358
G1 F3000 X107.359 Y118.178 E216.23107
G0 F9000 X107.656 Y117.838
G1 F3000 X109.914 Y120.097 E216.39002
G0 F9000 X110.289 Y119.835
G1 F3000 X107.928 Y117.474 E216.55619
G0 F9000 X108.201 Y117.111
G1 F3000 X110.664 Y119.573 E216.72949
G0 F9000 X111.039 Y119.312
G1 F3000 X108.473 Y116.746 E216.91009
G0 F9000 X108.709 Y116.346
G1 F3000 X111.413 Y119.05 E217.10039
G0 F9000 X111.788 Y118.788
G1 F3000 X108.941 Y115.942 E217.30072
G0 F9000 X109.173 Y115.537
G1 F3000 X112.163 Y118.527 E217.51116
G0 F9000 X112.538 Y118.265
G1 F3000 X109.378 Y115.105 E217.73356
G0 F9000 X109.566 Y114.658
G1 F3000 X112.912 Y118.004 E217.96904
G0 F9000 X113.287 Y117.742
G1 F3000 X109.756 Y114.211 E218.21755
G0 F9000 X109.921 Y113.739
G1 F3000 X113.662 Y117.48 E218.48084
G0 F9000 X114.037 Y117.219
G1 F3000 X110.063 Y113.245 E218.76053
G0 F9000 X110.207 Y112.753
G1 F3000 X114.411 Y116.957 E219.0564
G0 F9000 X114.786 Y116.695
G1 F3000 X110.329 Y112.239 E219.37004
G0 F9000 X110.414 Y111.686
G1 F3000 X115.16 Y116.433 E219.7041
G0 F9000 X115.535 Y116.171
G1 F3000 X110.498 Y111.135 E220.05856
G0 F9000 X110.555 Y110.555
G1 F3000 X115.91 Y115.91 E220.43544
G0 F9000 X116.285 Y115.648
G1 F3000 X110.573 Y109.937 E220.83741
G0 F9000 X110.579 Y109.306
G1 F3000 X116.659 Y115.387 E221.26535
G0 F9000 X117.034 Y115.125
G1 F3000 X110.52 Y108.611 E221.7238
G0 F9000 X110.445 Y107.9
G1 F3000 X117.409 Y114.863 E222.21388
G0 F9000 X117.83 Y114.648
G1 F3000 X110.285 Y107.103 E222.74489
G0 F9000 X110.059 Y106.241
G1 F3000 X118.387 Y114.568 E223.33097
G0 F9000 X119.023 Y114.568
G1 F3000 X109.736 Y105.281 E223.98458
G0 F9000 X109.234 Y105.501
G0 X108.702 Y104.344
G0 X109.184 Y104.093
G1 F3000 X119.66 Y114.568 E224.72184
G0 F9000 X120.296 Y114.568
G1 F3000 X107.944 Y102.216 E225.59116
G0 F9000 X108.064 Y101.7
G1 F3000 X120.778 Y114.414 E226.48596
G0 F9000 X120.778 Y113.778
G1 F3000 X111.891 Y104.891 E227.11142
G0 F9000 X112.154 Y104.407
G0 X113.324 Y104.967
G0 X113.11 Y105.474
G1 F3000 X120.778 Y113.142 E227.65108
G0 F9000 X120.778 Y112.505
G1 F3000 X114.209 Y105.936 E228.1134
G0 F9000 X114.423 Y105.429
G0 X115.523 Y105.894
G0 X115.309 Y106.399
G1 F3000 X120.778 Y111.869 E228.49834
G0 F9000 X120.778 Y111.232
G1 F3000 X116.408 Y106.862 E228.8059
G0 F9000 X116.621 Y106.356
G0 X117.72 Y106.819
G0 X117.507 Y107.325
G1 F3000 X120.778 Y110.596 E229.03611
G0 F9000 X120.778 Y109.96
G1 F3000 X118.607 Y107.788 E229.18894
G0 F9000 X118.82 Y107.283
G0 X119.919 Y107.746
G0 X119.706 Y108.251
G1 F3000 X120.778 Y109.323 E229.26438
;TIME_ELAPSED:179.351880
G1 F2400 E227.26438
M140 S0
M205 X10 Y10
M107
G91 ;Relative positioning
G1 E-2 F2700 ;Retract a bit
G1 E-2 Z0.2 F2400 ;Retract and raise Z
G1 X5 Y5 F3000 ;Wipe out
G1 Z10 ;Raise Z more
G90 ;Absolute positioning

G28 X0 Y0 ;Present print
M106 S0 ;Turn-off fan
M104 S0 ;Turn-off hotend
M140 S0 ;Turn-off bed

;*** Message and End Tones
M117 Print Completed
M300 S440 P200 ; Make Print Completed Tones
M300 S660 P250
M300 S880 P300
;*** End Message and End Tones

M84 X Y E ;Disable all steppers but Z
M82 ;absolute extrusion mode
M104 S0
;End of Gcode
;SETTING_3 {"global_quality": "[general]\\nversion = 4\\nname = FFV5.1_EF(.28)\\
;SETTING_3 ndefinition = creality_ender5\\n\\n[metadata]\\ntype = quality_change
;SETTING_3 s\\nquality_type = standard\\nsetting_version = 20\\n\\n[values]\\nac
;SETTING_3 celeration_enabled = True\\njerk_enabled = True\\nlayer_height = 0.28
;SETTING_3 \\nlayer_height_0 = 0.32\\nmaterial_bed_temperature = 40\\nmaterial_b
;SETTING_3 ed_temperature_layer_0 = 50\\n\\n", "extruder_quality": ["[general]\\
;SETTING_3 nversion = 4\\nname = FFV5.1_EF(.28)\\ndefinition = creality_ender5\\
;SETTING_3 n\\n[metadata]\\ntype = quality_changes\\nquality_type = standard\\ni
;SETTING_3 ntent_category = default\\nposition = 0\\nsetting_version = 20\\n\\n[
;SETTING_3 values]\\nacceleration_print = 500.0\\nacceleration_roofing = 500.0\\
;SETTING_3 nacceleration_topbottom = 500.0\\nacceleration_travel = 500.0\\naccel
;SETTING_3 eration_wall = 500.0\\nbottom_layers = 3\\ncoasting_enable = False\\n
;SETTING_3 fill_outline_gaps = True\\ninfill_line_distance = =0 if infill_sparse
;SETTING_3 _density == 0 else (infill_line_width * 100) / infill_sparse_density 
;SETTING_3 * (2 if infill_pattern == 'grid' else (3 if infill_pattern == 'triang
;SETTING_3 les' or infill_pattern == 'trihexagon' or infill_pattern == 'cubic' o
;SETTING_3 r infill_pattern == 'cubicsubdiv' else (2 if infill_pattern == 'tetra
;SETTING_3 hedral' or infill_pattern == 'quarter_cubic' else (1 if infill_patter
;SETTING_3 n == 'cross' or infill_pattern == 'cross_3d' else 1))))\\ninfill_line
;SETTING_3 _width = 0.57\\ninfill_overlap = 0\\ninfill_pattern = ='zigzag' if in
;SETTING_3 fill_sparse_density > 89 else 'lines' if infill_sparse_density > 31 e
;SETTING_3 lse 'cubic'\\ninfill_sparse_density = 20\\ninfill_sparse_thickness = 
;SETTING_3 0.3\\ninitial_layer_line_width_factor = 100.0\\ninset_direction = ins
;SETTING_3 ide_out\\njerk_layer_0 = 8\\njerk_print = 20\\njerk_travel_layer_0 = 
;SETTING_3 5\\nline_width = 0.45\\nmaterial_flow = 95\\nmaterial_flow_layer_0 = 
;SETTING_3 95\\nmaterial_print_temperature = 210\\nretraction_amount = 2\\nretra
;SETTING_3 ction_retract_speed = 40\\nretraction_speed = 20\\nroofing_layer_coun
;SETTING_3 t = 1\\nskin_angles = [45,135]\\nskin_line_width = 0.45\\nskin_overla
;SETTING_3 p = 30.0\\nskirt_brim_speed = 25.0\\nskirt_line_count = 1\\nspeed_lay
;SETTING_3 er_0 = 25\\nspeed_print = 60.0\\nspeed_roofing = 50\\nspeed_topbottom
;SETTING_3  = 45\\nspeed_travel_layer_0 = 125.0\\nspeed_wall_0 = 50\\nspeed_wall
;SETTING_3 _x = 65\\nspeed_z_hop = 10\\ntop_bottom_pattern = lines\\ntop_bottom_
;SETTING_3 thickness = =layer_height_0+layer_height*3\\ntop_layers = 3\\nwall_0_
;SETTING_3 material_flow = 95\\nwall_0_wipe_dist = 0.2\\nwall_line_count = 2\\nw
;SETTING_3 all_line_width_x = 0.5\\nwall_thickness = =line_width*2\\nxy_offset_l
;SETTING_3 ayer_0 = -0.15\\nz_seam_corner = z_seam_corner_weighted\\nz_seam_type
;SETTING_3  = sharpest_corner\\n\\n"]}
