;FLAVOR:Marlin
;TIME:90
;Filament used: 0.0458533m
;Layer height: 0.28
;MINX:94.216
;MINY:96.885
;MINZ:0.32
;MAXX:125.789
;MAXY:123.203
;MAXZ:3.12
;Generated with Cura_SteamEngine main
M82 ;absolute extrusion mode
M201 X500.00 Y500.00 Z100.00 E5000.00 ;Setup machine max acceleration
M203 X500.00 Y500.00 Z10.00 E50.00 ;Setup machine max feedrate
M204 P500.00 R1000.00 T500.00 ;Setup Print/Retract/Travel acceleration
M205 X8.00 Y8.00 Z0.40 E5.00 ;Setup Jerk
M220 S100 ;Reset Feedrate
M221 S100 ;Reset Flowrate

;*** Start Dual Nozzle/Bed Preheating ***
M140 S50 ; start preheating the bed
M104 S210 ?T0 ; start preheating hotend
M190 S50 ; heat to Cura Bed setting and WAIT
M109 S210 ?T0 ; heat to Cura Hotend and WAIT
;*** End Preheating ***


;*** Single Print Start Tone
M300 S1000 P500 ; chirp to indicate starting to print
;*** End Single Start Tone

G28 ;Home

G92 E0 ;Reset Extruder
G1 Z2.0 F3000 ;Move Z Axis up
G1 X10.1 Y20 Z0.28 F5000.0 ;Move to start position
G1 X10.1 Y200.0 Z0.28 F1500.0 E15 ;Draw the first line
G1 X10.4 Y200.0 Z0.28 F5000.0 ;Move to side a little
G1 X10.4 Y20 Z0.28 F1500.0 E30 ;Draw the second line
G92 E0 ;Reset Extruder
G1 Z2.0 F3000 ;Move Z Axis up
G92 E0
G92 E0
G1 F2400 E-2
;LAYER_COUNT:11
;LAYER:0
M107
M204 S500
M205 X5 Y5
G0 F7500 X98.405 Y100.429 Z0.32
G0 X94.216 Y110.401
M205 X8 Y8
;TYPE:SKIRT
G1 F1200 E0
G1 F1500 X94.249 Y109.158 E0.06718
G1 X94.281 Y108.773 E0.08806
G1 X94.399 Y107.837 E0.13903
G1 X94.647 Y106.722 E0.20075
G1 X94.749 Y106.354 E0.22138
G1 X95.039 Y105.457 E0.27232
G1 X95.508 Y104.374 E0.33608
G1 X95.678 Y104.032 E0.35672
G1 X96.133 Y103.206 E0.40767
G1 X96.764 Y102.277 E0.46835
G1 X96.999 Y101.966 E0.48941
G1 X97.599 Y101.238 E0.54039
G1 X98.405 Y100.429 E0.60209
G1 X98.703 Y100.159 E0.62381
G1 X99.428 Y99.556 E0.67477
G1 X100.566 Y98.794 E0.74876
G1 X100.907 Y98.595 E0.7701
G1 X101.741 Y98.155 E0.82105
G1 X102.827 Y97.708 E0.8845
G1 X103.143 Y97.597 E0.9026
G1 X104.287 Y97.263 E0.96699
G1 X104.632 Y97.182 E0.98614
G1 X105.559 Y97.005 E1.03713
G1 X106.497 Y96.908 E1.08808
G1 X107.31 Y96.888 E1.13202
G1 X109.941 Y96.92 E1.27419
G1 X111.569 Y96.89 E1.36216
G1 X112.306 Y96.885 E1.40198
G1 X113.169 Y96.902 E1.44862
G1 X114.11 Y96.966 E1.49958
G1 X115.042 Y97.11 E1.55054
G1 X115.807 Y97.287 E1.59296
G1 X116.556 Y97.499 E1.63502
G1 X116.855 Y97.595 E1.65199
G1 X117.74 Y97.921 E1.70295
G1 X118.594 Y98.321 E1.7539
G1 X119.013 Y98.55 E1.7797
G1 X119.384 Y98.764 E1.80284
G1 X120.18 Y99.27 E1.85381
G1 X120.931 Y99.841 E1.90478
G1 X121.578 Y100.414 E1.95148
G1 X122.248 Y101.078 E2.00244
G1 X122.818 Y101.744 E2.04981
G1 X123.086 Y102.083 E2.07316
G1 X123.639 Y102.847 E2.12412
G1 X124.332 Y104.052 E2.19922
G1 X124.505 Y104.402 E2.22032
G1 X124.887 Y105.265 E2.27131
G1 X125.262 Y106.395 E2.33564
G1 X125.363 Y106.764 E2.35631
G1 X125.574 Y107.683 E2.40726
G1 X125.72 Y108.782 E2.46716
G1 X125.751 Y109.156 E2.48744
G1 X125.789 Y110.098 E2.53837
G1 X125.709 Y111.407 E2.60923
G1 X125.661 Y111.805 E2.63089
G1 X125.508 Y112.736 E2.68187
G1 X125.222 Y113.832 E2.74307
G1 X125.133 Y114.113 E2.759
G1 X124.81 Y114.999 E2.80995
G1 X124.454 Y115.775 E2.85608
G1 X124.236 Y116.206 E2.88218
G1 X123.775 Y117.029 E2.93315
G1 X122.973 Y118.164 E3.00824
G1 X122.77 Y118.416 E3.02572
G1 X122.147 Y119.125 E3.07672
G1 X121.276 Y119.943 E3.14128
G1 X120.894 Y120.265 E3.16827
G1 X120.148 Y120.842 E3.21923
G1 X119.355 Y121.353 E3.2702
G1 X118.623 Y121.747 E3.31512
G1 X118.15 Y121.979 E3.34358
G1 X117.286 Y122.358 E3.39456
G1 X116.394 Y122.663 E3.44549
G1 X115.167 Y122.95 E3.51358
G1 X114.778 Y123.018 E3.53492
G1 X113.843 Y123.141 E3.58587
G1 X113.127 Y123.181 E3.62462
G1 X112.146 Y123.197 E3.67763
G1 X111.116 Y123.185 E3.73329
G1 X108.396 Y123.192 E3.88025
G1 X107.547 Y123.203 E3.92613
G1 X106.477 Y123.166 E3.98397
G1 X106.129 Y123.137 E4.00284
G1 X105.193 Y123.018 E4.05382
G1 X104.618 Y122.905 E4.08548
G1 X104.306 Y122.835 E4.10276
G1 X103.395 Y122.59 E4.15373
G1 X102.508 Y122.268 E4.20472
G1 X102 Y122.044 E4.23472
G1 X101.533 Y121.824 E4.26261
G1 X100.697 Y121.386 E4.3136
G1 X99.902 Y120.879 E4.36455
G1 X99.321 Y120.444 E4.40376
G1 X99.03 Y120.211 E4.42391
G1 X98.319 Y119.591 E4.47488
G1 X97.475 Y118.694 E4.54142
G1 X97.165 Y118.326 E4.56742
G1 X96.588 Y117.58 E4.61838
G1 X95.856 Y116.392 E4.69377
G1 X95.719 Y116.135 E4.70951
G1 X95.311 Y115.285 E4.76045
G1 X95.012 Y114.508 E4.80544
G1 X94.853 Y114.044 E4.83194
G1 X94.585 Y113.14 E4.88288
G1 X94.395 Y112.216 E4.93385
G1 X94.283 Y111.341 E4.98152
G1 X94.216 Y110.401 E5.03243
M205 X5 Y5
G0 F7500 X94.665 Y110.369
M205 X8 Y8
G1 F1500 X94.698 Y109.195 E5.09589
G1 X94.73 Y108.81 E5.11677
G1 X94.846 Y107.893 E5.16671
G1 X95.081 Y106.843 E5.22484
G1 X95.183 Y106.475 E5.24548
G1 X95.468 Y105.596 E5.2954
G1 X95.911 Y104.574 E5.35559
G1 X96.081 Y104.232 E5.37622
G1 X96.527 Y103.424 E5.42609
G1 X97.123 Y102.548 E5.48334
G1 X97.358 Y102.237 E5.5044
G1 X97.946 Y101.525 E5.55429
G1 X98.707 Y100.762 E5.61252
G1 X99.005 Y100.492 E5.63424
G1 X99.716 Y99.902 E5.68416
G1 X100.792 Y99.183 E5.75409
G1 X101.133 Y98.984 E5.77542
G1 X101.951 Y98.553 E5.82538
G1 X102.976 Y98.132 E5.88525
G1 X103.292 Y98.021 E5.90334
G1 X104.39 Y97.701 E5.96514
G1 X104.735 Y97.62 E5.98429
G1 X105.643 Y97.448 E6.03422
G1 X106.562 Y97.355 E6.08413
G1 X107.304 Y97.338 E6.12423
G1 X109.944 Y97.37 E6.26688
G1 X111.572 Y97.34 E6.35486
G1 X112.309 Y97.335 E6.39468
G1 X113.157 Y97.352 E6.44051
G1 X114.079 Y97.416 E6.49044
G1 X115.423 Y97.656 E6.56421
G1 X115.7 Y97.724 E6.57962
G1 X116.418 Y97.927 E6.61994
G1 X116.717 Y98.023 E6.6369
G1 X117.584 Y98.343 E6.68684
G1 X118.788 Y98.94 E6.75945
G1 X119.159 Y99.154 E6.78259
G1 X119.938 Y99.65 E6.83249
G1 X121.009 Y100.505 E6.90653
G1 X121.275 Y100.747 E6.92597
G1 X121.931 Y101.398 E6.9759
G1 X122.465 Y102.023 E7.02032
G1 X122.733 Y102.362 E7.04367
G1 X123.274 Y103.111 E7.09359
G1 X123.929 Y104.252 E7.16467
G1 X124.102 Y104.602 E7.18577
G1 X124.475 Y105.447 E7.23567
G1 X124.828 Y106.514 E7.2964
G1 X124.929 Y106.883 E7.31707
G1 X125.134 Y107.784 E7.367
G1 X125.272 Y108.819 E7.42341
G1 X125.303 Y109.193 E7.44369
G1 X125.339 Y110.116 E7.4936
G1 X125.262 Y111.353 E7.56056
G1 X125.214 Y111.751 E7.58222
G1 X125.064 Y112.663 E7.63216
G1 X124.793 Y113.696 E7.68987
G1 X124.704 Y113.977 E7.70579
G1 X124.387 Y114.845 E7.75572
G1 X124.053 Y115.572 E7.79895
G1 X123.835 Y116.003 E7.82505
G1 X123.383 Y116.809 E7.87497
G1 X122.622 Y117.882 E7.94605
G1 X122.419 Y118.134 E7.96354
G1 X121.809 Y118.827 E8.01342
G1 X120.986 Y119.599 E8.07439
G1 X120.604 Y119.921 E8.10138
G1 X119.873 Y120.485 E8.15127
G1 X119.095 Y120.984 E8.20121
G1 X118.425 Y121.343 E8.24228
G1 X117.952 Y121.575 E8.27074
G1 X117.106 Y121.946 E8.32066
G1 X116.23 Y122.242 E8.37062
G1 X115.089 Y122.507 E8.43391
G1 X114.7 Y122.575 E8.45524
G1 X113.784 Y122.694 E8.50515
G1 X113.116 Y122.731 E8.5413
G1 X112.151 Y122.747 E8.59345
G1 X111.12 Y122.735 E8.64916
G1 X108.389 Y122.742 E8.79672
G1 X107.541 Y122.753 E8.84254
G1 X106.514 Y122.717 E8.89806
G1 X106.166 Y122.688 E8.91693
G1 X105.25 Y122.572 E8.96682
G1 X104.404 Y122.396 E9.01351
G1 X103.512 Y122.155 E9.06343
G1 X102.644 Y121.838 E9.11336
G1 X102.192 Y121.637 E9.14009
G1 X101.725 Y121.417 E9.16798
G1 X100.907 Y120.988 E9.21789
G1 X100.129 Y120.489 E9.26783
G1 X99.602 Y120.093 E9.30344
G1 X99.311 Y119.86 E9.32359
G1 X98.615 Y119.252 E9.37352
G1 X97.819 Y118.405 E9.43632
G1 X97.509 Y118.037 E9.46232
G1 X96.945 Y117.305 E9.51225
G1 X96.253 Y116.181 E9.58357
G1 X96.116 Y115.924 E9.5993
G1 X95.717 Y115.09 E9.64926
G1 X95.437 Y114.362 E9.6914
G1 X95.278 Y113.898 E9.7179
G1 X95.017 Y113.012 E9.76781
G1 X94.771 Y111.649 E9.84264
G1 X94.73 Y111.29 E9.86216
G1 X94.665 Y110.369 E9.91205
M205 X5 Y5
G0 F7500 X95.114 Y110.337
M205 X8 Y8
G1 F1500 X95.146 Y109.232 E9.97178
G1 X95.178 Y108.847 E9.99265
G1 X95.293 Y107.95 E10.04152
G1 X95.514 Y106.963 E10.09616
G1 X95.616 Y106.595 E10.1168
G1 X95.896 Y105.735 E10.16567
G1 X96.314 Y104.775 E10.22224
G1 X96.484 Y104.433 E10.24287
G1 X96.922 Y103.642 E10.29173
G1 X97.482 Y102.82 E10.34547
G1 X97.717 Y102.509 E10.36653
G1 X98.294 Y101.812 E10.41542
G1 X99.01 Y101.096 E10.47013
G1 X99.308 Y100.826 E10.49186
G1 X100.004 Y100.249 E10.54071
G1 X101.019 Y99.572 E10.60663
G1 X101.36 Y99.373 E10.62796
G1 X102.161 Y98.952 E10.67685
G1 X103.125 Y98.557 E10.73314
G1 X103.441 Y98.446 E10.75124
G1 X104.493 Y98.139 E10.81045
G1 X104.838 Y98.058 E10.8296
G1 X105.726 Y97.89 E10.87843
G1 X106.626 Y97.802 E10.92729
G1 X107.299 Y97.788 E10.96366
G1 X109.947 Y97.82 E11.10674
G1 X111.575 Y97.79 E11.19472
G1 X112.312 Y97.785 E11.23454
G1 X113.145 Y97.801 E11.27956
G1 X114.047 Y97.865 E11.32842
G1 X115.316 Y98.093 E11.39808
G1 X115.593 Y98.161 E11.41349
G1 X116.281 Y98.355 E11.45211
G1 X116.58 Y98.451 E11.46908
G1 X117.428 Y98.766 E11.51796
G1 X118.563 Y99.33 E11.58644
G1 X118.934 Y99.544 E11.60958
G1 X119.696 Y100.03 E11.65841
G1 X120.706 Y100.838 E11.7283
G1 X120.972 Y101.08 E11.74773
G1 X121.613 Y101.717 E11.79656
G1 X122.112 Y102.302 E11.8381
G1 X122.38 Y102.641 E11.86145
G1 X122.909 Y103.374 E11.91029
G1 X123.525 Y104.451 E11.97733
G1 X123.698 Y104.801 E11.99842
G1 X124.063 Y105.629 E12.04732
G1 X124.394 Y106.633 E12.10443
G1 X124.495 Y107.002 E12.12511
G1 X124.695 Y107.883 E12.17392
G1 X124.823 Y108.856 E12.22694
G1 X124.854 Y109.23 E12.24722
G1 X124.889 Y110.134 E12.2961
G1 X124.815 Y111.299 E12.35917
G1 X124.767 Y111.697 E12.38083
G1 X124.62 Y112.589 E12.42968
G1 X124.364 Y113.56 E12.48394
G1 X124.275 Y113.841 E12.49986
G1 X123.964 Y114.69 E12.54872
G1 X123.651 Y115.369 E12.58911
G1 X123.433 Y115.8 E12.61521
G1 X122.99 Y116.588 E12.66405
G1 X122.272 Y117.599 E12.73105
G1 X122.069 Y117.851 E12.74854
G1 X121.471 Y118.53 E12.79742
G1 X120.696 Y119.255 E12.85476
G1 X120.314 Y119.577 E12.88176
G1 X119.598 Y120.129 E12.93061
G1 X118.835 Y120.615 E12.97949
G1 X118.227 Y120.939 E13.01671
G1 X117.754 Y121.171 E13.04518
G1 X116.925 Y121.533 E13.09405
G1 X116.068 Y121.82 E13.14288
G1 X115.012 Y122.063 E13.20143
G1 X114.623 Y122.131 E13.22277
G1 X113.726 Y122.247 E13.27164
G1 X113.105 Y122.281 E13.30524
G1 X112.156 Y122.297 E13.35652
G1 X111.124 Y122.285 E13.41229
G1 X108.382 Y122.292 E13.56044
G1 X107.535 Y122.303 E13.60621
G1 X106.552 Y122.269 E13.65935
G1 X106.204 Y122.24 E13.67822
G1 X105.307 Y122.125 E13.72708
G1 X104.503 Y121.957 E13.77146
G1 X103.63 Y121.72 E13.82034
G1 X102.383 Y121.23 E13.89273
G1 X101.916 Y121.01 E13.92062
G1 X101.116 Y120.589 E13.96947
G1 X100.356 Y120.099 E14.01833
G1 X99.883 Y119.742 E14.05035
G1 X99.592 Y119.509 E14.07049
G1 X98.912 Y118.913 E14.11934
G1 X98.163 Y118.115 E14.17848
G1 X97.853 Y117.747 E14.20448
G1 X97.301 Y117.03 E14.25337
G1 X96.65 Y115.969 E14.32063
G1 X96.513 Y115.712 E14.33636
G1 X96.123 Y114.896 E14.38523
G1 X95.863 Y114.217 E14.42451
G1 X95.704 Y113.753 E14.45101
G1 X95.449 Y112.885 E14.4999
G1 X95.218 Y111.598 E14.57054
G1 X95.177 Y111.239 E14.59007
G1 X95.114 Y110.337 E14.63892
M205 X5 Y5
G1 F2400 E12.63892
;MESH:GhostCatEyes.stl
G0 F7500 X104.672 Y110.206
G0 X105.772 Y110.076
G0 X106.905 Y108.948
G1 F1200 E14.63892
G0 F7500 X106.871 Y108.793
M205 X8 Y8
;TYPE:WALL-INNER
G1 F1500 X106.589 Y108.958 E14.65854
G1 X106.393 Y109.137 E14.67447
G1 X106.15 Y109.456 E14.69855
G1 X106.05 Y109.822 E14.72133
G1 X106.03 Y110.07 E14.73626
G1 X106.059 Y110.316 E14.75113
G1 X106.137 Y110.561 E14.76657
G1 X106.26 Y110.787 E14.78202
G1 X106.425 Y110.993 E14.79786
G1 X106.65 Y111.175 E14.81523
G1 X106.934 Y111.314 E14.83422
G1 X107.475 Y111.399 E14.86709
G1 X107.869 Y111.304 E14.89143
G1 X108.131 Y111.175 E14.90896
G1 X108.357 Y110.993 E14.92638
G1 X108.522 Y110.786 E14.94227
G1 X108.645 Y110.561 E14.95766
G1 X108.722 Y110.318 E14.97297
G1 X108.751 Y110.067 E14.98814
G1 X108.723 Y109.697 E15.01041
G1 X108.552 Y109.352 E15.03353
G1 X108.392 Y109.141 E15.04943
G1 X108.194 Y108.96 E15.06553
G1 X107.906 Y108.795 E15.08546
G1 X107.546 Y108.708 E15.10769
G1 X107.295 Y108.696 E15.12278
G1 X106.871 Y108.793 E15.14889
M205 X5 Y5
G1 F2400 E13.14889
G0 F7500 X106.944 Y109.017
G0 X106.549 Y109.279
G0 X106.286 Y109.762
G0 X106.265 Y110.271
G0 X106.474 Y110.699
G0 X106.769 Y110.986
G1 F1200 E15.14889
G0 F7500 X106.392 Y111.578
M205 X8 Y8
;TYPE:WALL-OUTER
G1 F1500 X106.773 Y111.765 E15.17182
G1 X107.089 Y111.837 E15.18933
G1 X107.392 Y111.863 E15.20577
G1 X107.675 Y111.84 E15.22111
G1 X108.031 Y111.754 E15.2409
G1 X108.388 Y111.578 E15.2624
G1 X108.695 Y111.331 E15.28369
G1 X108.919 Y111.051 E15.30307
G1 X109.084 Y110.749 E15.32166
G1 X109.189 Y110.417 E15.34047
G1 X109.228 Y110.075 E15.35907
G1 X109.202 Y109.735 E15.3775
G1 X109.11 Y109.409 E15.3958
G1 X108.958 Y109.101 E15.41436
G1 X108.744 Y108.819 E15.43348
G1 X108.475 Y108.573 E15.45318
G1 X108.082 Y108.349 E15.47762
G1 X107.613 Y108.235 E15.5037
G1 X107.253 Y108.219 E15.52317
G1 X106.694 Y108.346 E15.55414
G1 X106.306 Y108.573 E15.57843
G1 X106.04 Y108.815 E15.59786
G1 X105.821 Y109.104 E15.61745
G1 X105.671 Y109.408 E15.63577
G1 X105.58 Y109.74 E15.65437
G1 X105.553 Y110.079 E15.67274
G1 X105.592 Y110.416 E15.69107
G1 X105.698 Y110.749 E15.70995
G1 X105.863 Y111.052 E15.7286
G1 X106.087 Y111.331 E15.74793
G1 X106.392 Y111.578 E15.76913
M205 X5 Y5
G0 F7500 X106.571 Y111.666
G0 X106.833 Y110.894
M205 X8 Y8
;TYPE:SKIN
G1 F1500 X107.209 Y111.036 E15.79085
G1 X107.544 Y111.039 E15.80895
G1 X107.756 Y110.988 E15.82073
G1 X108.115 Y110.759 E15.84374
G1 X108.334 Y110.435 E15.86487
G1 X108.433 Y109.975 E15.89029
G1 X108.312 Y109.608 E15.91117
G1 X108.14 Y109.362 E15.92739
G1 X107.819 Y109.129 E15.94882
G1 X107.401 Y109.014 E15.97225
G1 X106.996 Y109.107 E15.9947
G1 X106.707 Y109.275 E16.01276
G1 X106.515 Y109.525 E16.02979
G1 X106.381 Y109.881 E16.05034
G1 X106.388 Y110.258 E16.07072
G1 X106.442 Y110.426 E16.08025
G1 X106.668 Y110.761 E16.10209
G1 X106.833 Y110.894 E16.11354
M205 X5 Y5
G0 F7500 X106.752 Y111.058
G0 X106.332 Y110.478
G0 X106.236 Y109.714
G0 X106.642 Y109.824
M205 X8 Y8
G1 F1500 X107.608 Y110.79 E16.18735
M205 X5 Y5
G0 F7500 X107.992 Y110.538
M205 X8 Y8
G1 F1500 X106.885 Y109.431 E16.27194
M205 X5 Y5
G0 F7500 X107.348 Y109.257
M205 X8 Y8
G1 F1500 X108.178 Y110.088 E16.3354
M205 X5 Y5
G1 F2400 E14.3354
G0 F7500 X108.593 Y110.135
G0 X109.008 Y110.076
G0 X110.992 Y110.076
G0 X111.402 Y110.066
G1 F1200 E16.3354
G0 F7500 X111.25 Y110.07
M205 X8 Y8
;TYPE:WALL-INNER
G1 F1500 X111.278 Y110.317 E16.35032
G1 X111.354 Y110.561 E16.36566
G1 X111.479 Y110.788 E16.38122
G1 X111.644 Y110.993 E16.39702
G1 X111.869 Y111.175 E16.41439
G1 X112.151 Y111.314 E16.43327
G1 X112.453 Y111.383 E16.45187
G1 X112.708 Y111.382 E16.46718
G1 X113.032 Y111.331 E16.48687
G1 X113.335 Y111.187 E16.50701
G1 X113.575 Y110.993 E16.52553
G1 X113.74 Y110.788 E16.54133
G1 X113.863 Y110.562 E16.55678
G1 X113.941 Y110.316 E16.57227
G1 X113.984 Y109.947 E16.59457
G1 X113.849 Y109.454 E16.62526
G1 X113.609 Y109.14 E16.64899
G1 X113.418 Y108.964 E16.66458
G1 X113.125 Y108.796 E16.68486
G1 X112.764 Y108.708 E16.70716
G1 X112.514 Y108.696 E16.72219
G1 X112.09 Y108.793 E16.7483
G1 X111.808 Y108.958 E16.76792
G1 X111.608 Y109.139 E16.78411
G1 X111.448 Y109.352 E16.8001
G1 X111.278 Y109.695 E16.82309
G1 X111.25 Y110.07 E16.84566
M205 X5 Y5
G1 F2400 E14.84566
G0 F7500 X111.474 Y110.065
G0 X111.549 Y110.477
G0 X111.888 Y110.92
G0 X112.353 Y111.144
G0 X112.85 Y111.132
G0 X113.218 Y110.995
G1 F1200 E16.84566
G0 F7500 X113.59 Y111.592
M205 X8 Y8
;TYPE:WALL-OUTER
G1 F1500 X113.913 Y111.331 E16.8681
G1 X114.137 Y111.051 E16.88747
G1 X114.302 Y110.749 E16.90607
G1 X114.407 Y110.416 E16.92493
G1 X114.447 Y110.076 E16.94343
G1 X114.42 Y109.74 E16.96164
G1 X114.327 Y109.404 E16.98048
G1 X114.178 Y109.101 E16.99872
G1 X113.962 Y108.819 E17.01792
G1 X113.701 Y108.579 E17.03707
G1 X113.303 Y108.35 E17.06188
G1 X112.832 Y108.235 E17.08808
G1 X112.471 Y108.219 E17.1076
G1 X111.913 Y108.346 E17.13853
G1 X111.525 Y108.573 E17.16281
G1 X111.256 Y108.817 E17.18244
G1 X111.042 Y109.101 E17.20165
G1 X110.888 Y109.413 E17.22045
G1 X110.798 Y109.734 E17.23846
G1 X110.773 Y110.079 E17.25715
G1 X110.811 Y110.417 E17.27553
G1 X110.915 Y110.749 E17.29433
G1 X111.082 Y111.052 E17.31302
G1 X111.305 Y111.331 E17.33232
G1 X111.611 Y111.578 E17.35357
G1 X111.99 Y111.765 E17.3764
G1 X112.4 Y111.858 E17.39912
G1 X112.746 Y111.857 E17.41781
G1 X113.174 Y111.789 E17.44123
G1 X113.59 Y111.592 E17.4661
M205 X5 Y5
G0 F7500 X113.745 Y111.467
G0 X113.333 Y110.761
M205 X8 Y8
;TYPE:SKIN
G1 F1500 X113.553 Y110.435 E17.48735
G1 X113.633 Y110.06 E17.50806
G1 X113.565 Y109.689 E17.52844
G1 X113.405 Y109.407 E17.54596
G1 X113.22 Y109.235 E17.55961
G1 X113.04 Y109.13 E17.57087
G1 X112.62 Y109.014 E17.59441
G1 X112.214 Y109.106 E17.61691
G1 X112.008 Y109.224 E17.62973
G1 X111.737 Y109.522 E17.6515
G1 X111.6 Y109.877 E17.67206
G1 X111.607 Y110.26 E17.69275
G1 X111.658 Y110.425 E17.70208
G1 X111.886 Y110.76 E17.72398
G1 X112.051 Y110.894 E17.73546
G1 X112.264 Y110.998 E17.74827
G1 X112.569 Y111.067 E17.76517
G1 X112.932 Y111.009 E17.78503
G1 X113.154 Y110.904 E17.7983
G1 X113.333 Y110.761 E17.81068
M205 X5 Y5
G0 F7500 X113.374 Y110.192
M205 X8 Y8
G1 F1500 X112.462 Y109.28 E17.88036
M205 X5 Y5
G0 F7500 X112.05 Y109.505
M205 X8 Y8
G1 F1500 X113.156 Y110.611 E17.96488
M205 X5 Y5
G0 F7500 X112.723 Y110.814
M104 S210
M205 X8 Y8
G1 F1500 X111.824 Y109.915 E18.03357
M205 X5 Y5
G1 F2400 E16.03357
;MESH:NONMESH
G0 F600 X111.824 Y109.915 Z0.6
G0 F7500 X111.414 Y109.886
G0 X111.015 Y109.768
G0 X108.985 Y109.768
G0 X107.974 Y109.088
G0 X107.388 Y108.851
G1 F1200 E18.03357
G0 F7500 X107.356 Y108.435
;TIME_ELAPSED:21.871649
;LAYER:1
M140 S40
M106 S85
M205 X14 Y14
;TYPE:WALL-INNER
;MESH:GhostCatEyes.stl
G1 F771.4 X106.964 Y108.489 E18.05545
G1 X106.628 Y108.628 E18.07556
G1 X106.383 Y108.789 E18.09177
G1 X106.173 Y108.994 E18.10799
G1 X106.007 Y109.226 E18.12377
G1 X105.884 Y109.488 E18.13977
G1 X105.811 Y109.764 E18.15556
G1 X105.788 Y110.045 E18.17115
G1 X105.803 Y110.188 E18.1791
G1 X105.817 Y110.326 E18.18677
G1 X105.897 Y110.604 E18.20276
G1 X106.026 Y110.864 E18.21881
G1 X106.2 Y111.1 E18.23503
G1 X106.421 Y111.299 E18.25147
G1 X106.697 Y111.466 E18.26931
G1 X106.968 Y111.568 E18.28532
G1 X107.385 Y111.624 E18.30858
G1 X107.725 Y111.591 E18.32747
G1 X108.085 Y111.466 E18.34855
G1 X108.36 Y111.298 E18.36636
G1 X108.582 Y111.099 E18.38285
G1 X108.756 Y110.863 E18.39906
G1 X108.884 Y110.604 E18.41504
G1 X108.964 Y110.327 E18.43098
G1 X108.994 Y110.043 E18.44677
G1 X108.971 Y109.764 E18.46225
G1 X108.897 Y109.484 E18.47827
G1 X108.775 Y109.227 E18.494
G1 X108.607 Y108.994 E18.50988
G1 X108.397 Y108.791 E18.52603
G1 X108.15 Y108.627 E18.54242
G1 X107.859 Y108.508 E18.55981
G1 X107.608 Y108.459 E18.57395
G1 X107.356 Y108.435 E18.58795
M205 X12.5 Y12.5
G1 F2400 E16.58795
G0 F8250 X107.355 Y108.659
G0 X107.929 Y108.764
G0 X108.446 Y109.132
G0 X108.731 Y109.68
G0 X108.756 Y110.287
G0 X108.536 Y110.782
G0 X108.226 Y111.118
G1 F1200 E18.58795
G0 F8250 X108.645 Y111.681
M205 X14 Y14
;TYPE:WALL-OUTER
G1 F642.9 X108.936 Y111.419 E18.60743
G1 X109.163 Y111.112 E18.62643
G1 X109.33 Y110.776 E18.64511
G1 X109.433 Y110.418 E18.66365
G1 X109.471 Y110.048 E18.68216
G1 X109.441 Y109.683 E18.70038
G1 X109.344 Y109.32 E18.71908
G1 X109.186 Y108.985 E18.73751
G1 X108.969 Y108.683 E18.75602
G1 X108.696 Y108.419 E18.77492
G1 X108.373 Y108.205 E18.7942
G1 X107.996 Y108.051 E18.81447
G1 X107.676 Y107.988 E18.8307
G1 X107.345 Y107.957 E18.84724
G1 X106.844 Y108.025 E18.8724
G1 X106.404 Y108.206 E18.89608
G1 X106.084 Y108.418 E18.91518
G1 X105.812 Y108.683 E18.93408
G1 X105.595 Y108.985 E18.95259
G1 X105.436 Y109.324 E18.97122
G1 X105.34 Y109.683 E18.98972
G1 X105.311 Y110.052 E19.00814
G1 X105.33 Y110.238 E19.01744
G1 X105.349 Y110.417 E19.0264
G1 X105.452 Y110.776 E19.04499
G1 X105.618 Y111.112 E19.06364
G1 X105.846 Y111.421 E19.08275
G1 X106.136 Y111.682 E19.10216
G1 X106.488 Y111.895 E19.12264
G1 X106.851 Y112.032 E19.14195
G1 X107.377 Y112.102 E19.16835
G1 X107.822 Y112.059 E19.1906
G1 X108.254 Y111.92 E19.21319
G1 X108.645 Y111.681 E19.23599
M205 X12.5 Y12.5
G0 F8250 X108.793 Y111.547
G0 X108.328 Y111.026
G0 X107.814 Y111.341
G0 X107.207 Y111.387
G0 X106.651 Y111.192
G0 X106.275 Y110.846
G0 X106.025 Y110.285
G0 X106.021 Y109.559
G0 X106.197 Y109.605
M205 X14 Y14
;TYPE:SKIN
G1 F600 X106.122 Y110.043 E19.25811
G1 X106.208 Y110.482 E19.28037
G1 X106.45 Y110.877 E19.30342
G1 X106.62 Y111.03 E19.3148
G1 X106.944 Y111.228 E19.3337
G1 X107.392 Y111.289 E19.3562
G1 X107.656 Y111.264 E19.3694
G1 X107.941 Y111.165 E19.38441
G1 X108.161 Y111.031 E19.39723
G1 X108.332 Y110.876 E19.40872
G1 X108.574 Y110.482 E19.43173
G1 X108.661 Y110.036 E19.45434
G1 X108.582 Y109.597 E19.47654
G1 X108.487 Y109.396 E19.4876
G1 X108.186 Y109.051 E19.51039
G1 X107.769 Y108.831 E19.53385
G1 X107.355 Y108.771 E19.55467
G1 X107.053 Y108.812 E19.56984
G1 X106.784 Y108.923 E19.58432
G1 X106.596 Y109.048 E19.59555
G1 X106.296 Y109.395 E19.61838
G1 X106.197 Y109.605 E19.62994
M205 X12.5 Y12.5
G0 F8250 X106.35 Y110.023
M205 X14 Y14
G1 F600 X107.374 Y108.999 E19.702
M205 X12.5 Y12.5
G0 F8250 X107.874 Y109.136
M205 X14 Y14
G1 F600 X106.492 Y110.518 E19.79927
M205 X12.5 Y12.5
G0 F8250 X106.784 Y110.863
M205 X14 Y14
G1 F600 X108.219 Y109.427 E19.9003
M205 X12.5 Y12.5
G0 F8250 X108.407 Y109.876
M205 X14 Y14
G1 F600 X107.242 Y111.041 E19.98229
M205 X12.5 Y12.5
G1 F2400 E17.98229
G0 F8250 X107.184 Y111.445
G0 X107.882 Y111.318
G0 X108.425 Y110.956
G0 X108.665 Y110.509
G0 X109.174 Y109.455
G0 X110.776 Y109.716
G0 X112.189 Y108.651
G1 F1200 E19.98229
G0 F8250 X112.144 Y108.506
M205 X14 Y14
;TYPE:WALL-INNER
G1 F771.4 X111.846 Y108.628 E20.00009
G1 X111.603 Y108.789 E20.01621
G1 X111.392 Y108.994 E20.03248
G1 X111.226 Y109.227 E20.0483
G1 X111.102 Y109.488 E20.06428
G1 X111.03 Y109.763 E20.08
G1 X111.007 Y110.046 E20.0957
G1 X111.036 Y110.327 E20.11132
G1 X111.115 Y110.603 E20.12719
G1 X111.244 Y110.864 E20.14329
G1 X111.418 Y111.099 E20.15946
G1 X111.641 Y111.299 E20.17602
G1 X111.915 Y111.466 E20.19376
G1 X112.184 Y111.567 E20.20965
G1 X112.617 Y111.626 E20.23382
G1 X113.017 Y111.574 E20.25612
G1 X113.304 Y111.465 E20.2731
G1 X113.58 Y111.298 E20.29093
G1 X113.801 Y111.099 E20.30738
G1 X113.974 Y110.864 E20.32351
G1 X114.103 Y110.603 E20.33961
G1 X114.182 Y110.326 E20.35554
G1 X114.213 Y110.042 E20.37134
G1 X114.19 Y109.765 E20.38671
G1 X114.114 Y109.485 E20.40275
G1 X113.993 Y109.226 E20.41856
G1 X113.827 Y108.994 E20.43433
G1 X113.617 Y108.791 E20.45048
G1 X113.368 Y108.627 E20.46697
G1 X113.078 Y108.508 E20.4843
G1 X112.698 Y108.434 E20.50571
G1 X112.407 Y108.451 E20.52182
G1 X112.144 Y108.506 E20.53668
M205 X12.5 Y12.5
G0 F8250 X112.004 Y108.05
M205 X14 Y14
;TYPE:WALL-OUTER
G1 F642.9 X111.622 Y108.206 E20.55722
G1 X111.303 Y108.417 E20.57625
G1 X111.031 Y108.683 E20.59518
G1 X110.814 Y108.985 E20.61369
G1 X110.654 Y109.324 E20.63235
G1 X110.559 Y109.683 E20.65083
G1 X110.529 Y110.052 E20.66925
G1 X110.567 Y110.418 E20.68756
G1 X110.67 Y110.776 E20.7061
G1 X110.837 Y111.113 E20.72482
G1 X111.065 Y111.42 E20.74385
G1 X111.356 Y111.682 E20.76334
G1 X111.706 Y111.895 E20.78373
G1 X112.068 Y112.031 E20.80297
G1 X112.618 Y112.105 E20.83059
G1 X113.133 Y112.038 E20.85643
G1 X113.513 Y111.894 E20.87666
G1 X113.865 Y111.681 E20.89713
G1 X114.155 Y111.42 E20.91655
G1 X114.382 Y111.112 E20.93559
G1 X114.548 Y110.776 E20.95424
G1 X114.651 Y110.417 E20.97282
G1 X114.69 Y110.048 E20.99129
G1 X114.66 Y109.683 E21.00952
G1 X114.562 Y109.321 E21.02818
G1 X114.405 Y108.985 E21.04664
G1 X114.188 Y108.683 E21.06514
G1 X113.915 Y108.419 E21.08404
G1 X113.591 Y108.205 E21.10337
G1 X113.215 Y108.051 E21.12359
G1 X112.895 Y107.988 E21.13982
G1 X112.619 Y107.962 E21.15361
G1 X112.344 Y107.978 E21.16732
G1 X112.004 Y108.05 E21.18462
M205 X12.5 Y12.5
G0 F8250 X111.819 Y108.125
G0 X112.086 Y108.772
G0 X111.639 Y109.047
G0 X111.366 Y109.462
G0 X111.171 Y110.173
G0 X111.351 Y110.155
M205 X14 Y14
;TYPE:SKIN
G1 F600 X111.427 Y110.484 E21.20142
G1 X111.668 Y110.875 E21.22428
G1 X111.84 Y111.03 E21.2358
G1 X112.163 Y111.228 E21.25466
G1 X112.619 Y111.29 E21.27756
G1 X113.047 Y111.234 E21.29904
G1 X113.38 Y111.031 E21.31845
G1 X113.552 Y110.875 E21.33
G1 X113.791 Y110.485 E21.35277
G1 X113.879 Y110.035 E21.37558
G1 X113.862 Y109.826 E21.38602
G1 X113.704 Y109.394 E21.40891
G1 X113.575 Y109.213 E21.41997
G1 X113.211 Y108.922 E21.44316
G1 X112.989 Y108.831 E21.4551
G1 X112.534 Y108.764 E21.47799
G1 X112.241 Y108.827 E21.49291
G1 X112 Y108.924 E21.50583
G1 X111.815 Y109.047 E21.51689
G1 X111.514 Y109.396 E21.53983
G1 X111.358 Y109.821 E21.56236
G1 X111.351 Y110.155 E21.57898
M205 X12.5 Y12.5
G0 F8250 X111.594 Y109.87
M205 X14 Y14
G1 F600 X112.443 Y109.022 E21.6387
M205 X12.5 Y12.5
G0 F8250 X113.016 Y109.086
M205 X14 Y14
G1 F600 X111.661 Y110.44 E21.73403
M205 X12.5 Y12.5
G0 F8250 X111.939 Y110.799
M205 X14 Y14
G1 F600 X113.389 Y109.349 E21.83608
M205 X12.5 Y12.5
G0 F8250 X113.604 Y109.77
M205 X14 Y14
G1 F600 X112.348 Y111.026 E21.92447
M205 X12.5 Y12.5
G0 F8250 X113.08 Y110.93
M205 X14 Y14
G1 F600 X113.533 Y110.477 E21.95635
M205 X12.5 Y12.5
G1 F2400 E19.95635
;MESH:NONMESH
G0 F600 X113.533 Y110.477 Z0.88
G0 F8250 X113.906 Y110.662
G0 X113.309 Y111.216
G0 X112.752 Y111.396
G0 X112.111 Y111.314
G0 X111.629 Y110.992
G0 X110.776 Y109.716
G0 X109.224 Y109.716
G0 X108.05 Y108.815
G0 X107.613 Y108.692
G0 X106.915 Y108.672
G1 F1200 E21.95635
G0 F8250 X106.831 Y108.469
;TIME_ELAPSED:31.646262
;LAYER:2
M106 S170
M205 X20 Y20
;TYPE:WALL-INNER
;MESH:GhostCatEyes.stl
G1 F866.7 X106.564 Y108.59 E21.97256
G1 X106.331 Y108.753 E21.98829
G1 X106.122 Y108.961 E22.00459
G1 X105.959 Y109.195 E22.02036
G1 X105.835 Y109.459 E22.03649
G1 X105.762 Y109.737 E22.05238
G1 X105.738 Y110.024 E22.06831
G1 X105.764 Y110.308 E22.08408
G1 X105.84 Y110.586 E22.10001
G1 X105.965 Y110.851 E22.11621
G1 X106.128 Y111.079 E22.13171
G1 X106.346 Y111.287 E22.14837
G1 X106.593 Y111.453 E22.16483
G1 X106.875 Y111.574 E22.1818
G1 X107.212 Y111.651 E22.20091
G1 X107.565 Y111.651 E22.22043
G1 X107.905 Y111.574 E22.23971
G1 X108.187 Y111.453 E22.25667
G1 X108.435 Y111.286 E22.27321
G1 X108.653 Y111.08 E22.28979
G1 X108.817 Y110.85 E22.30541
G1 X108.942 Y110.586 E22.32156
G1 X109.017 Y110.308 E22.33748
G1 X109.044 Y110.02 E22.35348
G1 X109.019 Y109.738 E22.36913
G1 X108.944 Y109.455 E22.38532
G1 X108.821 Y109.194 E22.40128
G1 X108.658 Y108.96 E22.41704
G1 X108.451 Y108.753 E22.43323
G1 X108.217 Y108.592 E22.44894
G1 X107.95 Y108.47 E22.46517
G1 X107.652 Y108.393 E22.48219
G1 X107.391 Y108.375 E22.49665
G1 X107.127 Y108.392 E22.51128
G1 X106.831 Y108.469 E22.52819
G0 F9000 X106.671 Y108.019
;TYPE:WALL-OUTER
G1 F666.7 X106.327 Y108.176 E22.54701
G1 X106.025 Y108.387 E22.56535
G1 X105.757 Y108.654 E22.58417
G1 X105.546 Y108.956 E22.60251
G1 X105.387 Y109.296 E22.62119
G1 X105.292 Y109.656 E22.63972
G1 X105.261 Y110.026 E22.65819
G1 X105.295 Y110.392 E22.67649
G1 X105.392 Y110.751 E22.69499
G1 X105.554 Y111.093 E22.71382
G1 X105.768 Y111.392 E22.73212
G1 X106.048 Y111.658 E22.75134
G1 X106.365 Y111.873 E22.7704
G1 X106.729 Y112.029 E22.79011
G1 X107.159 Y112.126 E22.81205
G1 X107.618 Y112.126 E22.83489
G1 X108.052 Y112.028 E22.85703
G1 X108.416 Y111.872 E22.87674
G1 X108.733 Y111.658 E22.89578
G1 X109.013 Y111.393 E22.91496
G1 X109.228 Y111.092 E22.93337
G1 X109.389 Y110.751 E22.95214
G1 X109.486 Y110.393 E22.97059
G1 X109.521 Y110.022 E22.98914
G1 X109.489 Y109.656 E23.00742
G1 X109.393 Y109.293 E23.02611
G1 X109.235 Y108.956 E23.04463
G1 X109.024 Y108.654 E23.06297
G1 X108.757 Y108.387 E23.08176
G1 X108.453 Y108.177 E23.10014
G1 X108.11 Y108.02 E23.11892
G1 X107.729 Y107.922 E23.1385
G1 X107.391 Y107.898 E23.15536
G1 X107.051 Y107.921 E23.17232
G1 X106.671 Y108.019 E23.19185
G0 F9000 X106.489 Y108.102
G0 X106.778 Y108.739
G0 X106.372 Y109.009
G0 X106.034 Y109.531
G0 X105.976 Y110.028
G0 X105.976 Y110.514
G0 X106.152 Y110.468
;TYPE:SKIN
G1 F600 X106.379 Y110.856 E23.21422
G1 X106.752 Y111.16 E23.23816
G1 X106.975 Y111.255 E23.25023
G1 X107.252 Y111.319 E23.26438
G1 X107.526 Y111.319 E23.27801
G1 X107.805 Y111.256 E23.29225
G1 X108.028 Y111.16 E23.30433
G1 X108.401 Y110.859 E23.32818
G1 X108.629 Y110.468 E23.35071
G1 X108.711 Y110.018 E23.37347
G1 X108.629 Y109.568 E23.39623
G1 X108.403 Y109.177 E23.41871
G1 X108.053 Y108.883 E23.44145
G1 X107.604 Y108.725 E23.46514
G1 X107.175 Y108.724 E23.48649
G1 X106.941 Y108.784 E23.49851
G1 X106.547 Y109.008 E23.52107
G1 X106.248 Y109.363 E23.54417
G1 X106.148 Y109.575 E23.55583
G1 X106.071 Y110.025 E23.57855
G1 X106.152 Y110.468 E23.60096
G0 F9000 X106.317 Y110.136
G1 F600 X107.274 Y111.092 E23.66828
G0 F9000 X107.812 Y110.994
G1 F600 X106.395 Y109.577 E23.76801
G0 F9000 X106.665 Y109.211
G1 F600 X108.192 Y110.738 E23.87548
G0 F9000 X108.426 Y110.335
G1 F600 X107.072 Y108.982 E23.97073
G0 F9000 X107.731 Y109.004
G1 F600 X108.427 Y109.699 E24.01968
G1 F2400 E22.01968
G0 F9000 X108.825 Y109.596
G0 X109.301 Y110.022
G0 X110.699 Y110.022
G0 X111.698 Y111.122
G0 X112.294 Y111.404
G0 X112.865 Y111.404
G0 X113.559 Y111.169
G1 F1200 E24.01968
G0 F9000 X113.654 Y111.286
;TYPE:WALL-INNER
G1 F866.7 X113.871 Y111.08 E24.03623
G1 X114.035 Y110.851 E24.0518
G1 X114.16 Y110.586 E24.068
G1 X114.236 Y110.308 E24.08394
G1 X114.262 Y110.02 E24.09993
G1 X114.238 Y109.737 E24.11563
G1 X114.162 Y109.455 E24.13178
G1 X114.04 Y109.194 E24.14771
G1 X113.877 Y108.96 E24.16348
G1 X113.67 Y108.753 E24.17967
G1 X113.437 Y108.592 E24.19533
G1 X113.168 Y108.47 E24.21166
G1 X112.872 Y108.393 E24.22858
G1 X112.61 Y108.374 E24.2431
G1 X112.346 Y108.392 E24.25773
G1 X112.049 Y108.469 E24.2747
G1 X111.783 Y108.59 E24.29086
G1 X111.55 Y108.752 E24.30655
G1 X111.341 Y108.961 E24.32289
G1 X111.178 Y109.195 E24.33866
G1 X111.054 Y109.459 E24.35479
G1 X110.981 Y109.737 E24.37068
G1 X110.956 Y110.023 E24.38656
G1 X110.983 Y110.308 E24.40239
G1 X111.058 Y110.586 E24.41831
G1 X111.184 Y110.851 E24.43453
G1 X111.347 Y111.079 E24.45003
G1 X111.566 Y111.287 E24.46673
G1 X111.812 Y111.453 E24.48314
G1 X112.094 Y111.574 E24.50011
G1 X112.431 Y111.651 E24.51922
G1 X112.784 Y111.651 E24.53874
G1 X113.124 Y111.574 E24.55802
G1 X113.406 Y111.453 E24.57499
G1 X113.654 Y111.286 E24.59152
G0 F9000 X113.271 Y112.028
;TYPE:WALL-OUTER
G1 F666.7 X113.635 Y111.872 E24.61123
G1 X113.952 Y111.658 E24.63026
G1 X114.232 Y111.393 E24.64945
G1 X114.447 Y111.092 E24.66786
G1 X114.608 Y110.751 E24.68662
G1 X114.705 Y110.393 E24.70508
G1 X114.739 Y110.022 E24.72362
G1 X114.708 Y109.656 E24.7419
G1 X114.611 Y109.293 E24.7606
G1 X114.454 Y108.956 E24.7791
G1 X114.242 Y108.654 E24.79746
G1 X113.976 Y108.387 E24.81622
G1 X113.672 Y108.177 E24.83461
G1 X113.328 Y108.02 E24.85343
G1 X112.948 Y107.922 E24.87295
G1 X112.61 Y107.898 E24.88982
G1 X112.27 Y107.921 E24.90678
G1 X111.889 Y108.019 E24.92635
G1 X111.546 Y108.176 E24.94513
G1 X111.243 Y108.387 E24.9635
G1 X110.976 Y108.654 E24.98229
G1 X110.765 Y108.956 E25.00063
G1 X110.605 Y109.296 E25.01933
G1 X110.511 Y109.656 E25.03784
G1 X110.479 Y110.026 E25.05633
G1 X110.514 Y110.392 E25.07462
G1 X110.61 Y110.751 E25.09312
G1 X110.773 Y111.093 E25.11197
G1 X110.987 Y111.392 E25.13027
G1 X111.267 Y111.658 E25.14949
G1 X111.584 Y111.873 E25.16855
G1 X111.948 Y112.029 E25.18826
G1 X112.378 Y112.126 E25.2102
G1 X112.837 Y112.126 E25.23304
G1 X113.271 Y112.028 E25.25518
G0 F9000 X113.454 Y111.95
G0 X113.178 Y111.308
G0 X113.62 Y111.027
G0 X113.961 Y110.512
G0 X114.041 Y109.898
G0 X113.857 Y109.301
G0 X113.433 Y108.846
G0 X112.951 Y108.648
G0 X112.408 Y108.538
G0 X112.419 Y108.722
;TYPE:SKIN
G1 F600 X112.158 Y108.785 E25.26854
G1 X111.948 Y108.881 E25.28003
G1 X111.596 Y109.179 E25.30298
G1 X111.367 Y109.575 E25.32575
G1 X111.29 Y110.022 E25.34832
G1 X111.371 Y110.469 E25.37093
G1 X111.599 Y110.859 E25.39341
G1 X111.971 Y111.16 E25.41723
G1 X112.194 Y111.256 E25.42931
G1 X112.471 Y111.319 E25.44345
G1 X112.745 Y111.319 E25.45708
G1 X113.024 Y111.255 E25.47133
G1 X113.247 Y111.161 E25.48337
G1 X113.62 Y110.861 E25.50719
G1 X113.745 Y110.684 E25.51797
G1 X113.907 Y110.246 E25.54121
G1 X113.909 Y109.797 E25.56356
G1 X113.75 Y109.36 E25.5867
G1 X113.454 Y109.009 E25.60955
G1 X113.273 Y108.883 E25.62053
G1 X112.821 Y108.723 E25.64439
G1 X112.419 Y108.722 E25.66439
G0 F9000 X112.766 Y108.948
G1 F600 X113.673 Y109.854 E25.72819
G0 F9000 X113.604 Y110.422
G1 F600 X112.199 Y109.017 E25.82708
G0 F9000 X111.826 Y109.28
G1 F600 X113.342 Y110.797 E25.93381
G0 F9000 X112.934 Y111.025
G1 F600 X111.575 Y109.665 E26.02949
G0 F9000 X111.563 Y110.29
G1 F600 X112.306 Y111.034 E26.08181
G1 F2400 E24.08181
;MESH:NONMESH
G0 F600 X112.306 Y111.034 Z1.16
G0 F9000 X112.214 Y111.446
G0 X110.961 Y110.98
G0 X109.229 Y110.507
G0 X108.696 Y110.754
G1 F1200 E26.08181
G0 F9000 X108.841 Y110.823
;TIME_ELAPSED:40.815206
;LAYER:3
M106 S255
;TYPE:WALL-INNER
;MESH:GhostCatEyes.stl
G1 F780 X108.966 Y110.561 E26.09786
G1 X109.039 Y110.285 E26.11365
G1 X109.062 Y109.999 E26.12952
G1 X109.036 Y109.714 E26.14534
G1 X108.959 Y109.43 E26.16161
G1 X108.835 Y109.17 E26.17754
G1 X108.67 Y108.936 E26.19337
G1 X108.46 Y108.729 E26.20968
G1 X108.22 Y108.562 E26.22584
G1 X107.956 Y108.439 E26.24195
G1 X107.67 Y108.365 E26.25828
G1 X107.375 Y108.347 E26.27463
G1 X107.113 Y108.365 E26.28915
G1 X106.825 Y108.44 E26.3056
G1 X106.561 Y108.562 E26.32168
G1 X106.323 Y108.727 E26.3377
G1 X106.112 Y108.936 E26.35412
G1 X105.946 Y109.17 E26.36998
G1 X105.82 Y109.434 E26.38616
G1 X105.745 Y109.713 E26.40213
G1 X105.719 Y110.003 E26.41823
G1 X105.742 Y110.287 E26.43399
G1 X105.815 Y110.561 E26.44967
G1 X105.94 Y110.824 E26.46577
G1 X106.106 Y111.057 E26.48159
G1 X106.318 Y111.267 E26.49809
G1 X106.555 Y111.432 E26.51406
G1 X106.822 Y111.556 E26.53034
G1 X107.103 Y111.63 E26.5464
G1 X107.381 Y111.655 E26.56184
G1 X107.676 Y111.631 E26.5782
G1 X107.96 Y111.555 E26.59446
G1 X108.227 Y111.431 E26.61074
G1 X108.464 Y111.267 E26.62667
G1 X108.675 Y111.058 E26.6431
G1 X108.841 Y110.823 E26.65901
G0 F9000 X109.509 Y110.366
;TYPE:WALL-OUTER
G1 F600 X109.54 Y109.997 E26.67743
G1 X109.505 Y109.63 E26.69578
G1 X109.407 Y109.265 E26.71459
G1 X109.247 Y108.929 E26.73311
G1 X109.033 Y108.627 E26.75153
G1 X108.764 Y108.361 E26.77036
G1 X108.457 Y108.149 E26.78892
G1 X108.117 Y107.99 E26.8076
G1 X107.744 Y107.894 E26.82677
G1 X107.371 Y107.871 E26.84537
G1 X107.037 Y107.895 E26.86203
G1 X106.665 Y107.99 E26.88114
G1 X106.324 Y108.148 E26.89984
G1 X106.019 Y108.36 E26.91833
G1 X105.748 Y108.627 E26.93726
G1 X105.534 Y108.929 E26.95568
G1 X105.373 Y109.269 E26.9744
G1 X105.276 Y109.629 E26.99295
G1 X105.242 Y110.001 E27.01154
G1 X105.272 Y110.367 E27.02982
G1 X105.367 Y110.725 E27.04825
G1 X105.528 Y111.065 E27.06697
G1 X105.743 Y111.366 E27.08538
G1 X106.013 Y111.634 E27.10431
G1 X106.318 Y111.846 E27.1228
G1 X106.659 Y112.004 E27.1415
G1 X107.02 Y112.1 E27.16009
G1 X107.379 Y112.132 E27.17803
G1 X107.757 Y112.101 E27.1969
G1 X108.123 Y112.003 E27.21576
G1 X108.463 Y111.845 E27.23442
G1 X108.769 Y111.634 E27.25291
G1 X109.038 Y111.366 E27.27181
G1 X109.253 Y111.065 E27.29022
G1 X109.414 Y110.725 E27.30894
G1 X109.509 Y110.366 E27.32742
G0 F9000 X109.525 Y110.167
G0 X108.755 Y109.631
;TYPE:FILL
G1 F720 X107.043 Y111.343 E27.48004
G0 F9000 X106.143 Y110.631
G1 F720 X108.016 Y108.757 E27.64706
G0 F9000 X107.863 Y109.084
G1 F2400 E25.64706
G0 F9000 X109.292 Y110.332
G0 X110.707 Y110.335
G0 X113.866 Y110.713
G1 F1200 E27.64706
G0 F9000 X114.06 Y110.823
;TYPE:WALL-INNER
G1 F780 X114.185 Y110.562 E27.66306
G1 X114.257 Y110.286 E27.67883
G1 X114.28 Y109.998 E27.69481
G1 X114.255 Y109.714 E27.71057
G1 X114.178 Y109.43 E27.72684
G1 X114.054 Y109.17 E27.74277
G1 X113.889 Y108.936 E27.7586
G1 X113.678 Y108.728 E27.77499
G1 X113.439 Y108.562 E27.79108
G1 X113.174 Y108.439 E27.80723
G1 X112.888 Y108.365 E27.82357
G1 X112.591 Y108.347 E27.84002
G1 X112.331 Y108.365 E27.85443
G1 X112.043 Y108.44 E27.87089
G1 X111.78 Y108.562 E27.88692
G1 X111.541 Y108.727 E27.90298
G1 X111.332 Y108.935 E27.91928
G1 X111.164 Y109.171 E27.9353
G1 X111.039 Y109.434 E27.9514
G1 X110.964 Y109.713 E27.96737
G1 X110.937 Y110.003 E27.98348
G1 X110.96 Y110.286 E27.99918
G1 X111.033 Y110.56 E28.01486
G1 X111.158 Y110.824 E28.03101
G1 X111.325 Y111.058 E28.04691
G1 X111.536 Y111.267 E28.06333
G1 X111.774 Y111.432 E28.07934
G1 X112.04 Y111.556 E28.09557
G1 X112.322 Y111.63 E28.11169
G1 X112.598 Y111.655 E28.12702
G1 X112.894 Y111.631 E28.14344
G1 X113.179 Y111.555 E28.15975
G1 X113.446 Y111.431 E28.17602
G1 X113.682 Y111.267 E28.19192
G1 X113.894 Y111.057 E28.20842
G1 X114.06 Y110.823 E28.22428
G1 F2400 E26.22428
G0 F9000 X113.866 Y110.713
G0 X113.103 Y108.651
G1 F1200 E28.22428
G0 F9000 X113.335 Y107.99
;TYPE:WALL-OUTER
G1 F600 X112.962 Y107.894 E28.24345
G1 X112.589 Y107.871 E28.26205
G1 X112.255 Y107.895 E28.27871
G1 X111.883 Y107.99 E28.29782
G1 X111.543 Y108.148 E28.31647
G1 X111.237 Y108.36 E28.335
G1 X110.968 Y108.627 E28.35386
G1 X110.753 Y108.929 E28.37231
G1 X110.591 Y109.269 E28.39105
G1 X110.495 Y109.629 E28.4096
G1 X110.46 Y110.001 E28.42819
G1 X110.49 Y110.367 E28.44647
G1 X110.586 Y110.725 E28.46491
G1 X110.747 Y111.065 E28.48363
G1 X110.962 Y111.366 E28.50204
G1 X111.231 Y111.634 E28.52094
G1 X111.537 Y111.846 E28.53946
G1 X111.877 Y112.004 E28.55812
G1 X112.239 Y112.1 E28.57676
G1 X112.596 Y112.132 E28.5946
G1 X112.975 Y112.101 E28.61352
G1 X113.342 Y112.003 E28.63242
G1 X113.682 Y111.845 E28.65108
G1 X113.987 Y111.634 E28.66954
G1 X114.257 Y111.366 E28.68847
G1 X114.472 Y111.065 E28.70688
G1 X114.633 Y110.725 E28.7256
G1 X114.727 Y110.366 E28.74407
G1 X114.758 Y109.996 E28.76255
G1 X114.724 Y109.629 E28.78089
G1 X114.626 Y109.265 E28.79965
G1 X114.466 Y108.929 E28.81817
G1 X114.252 Y108.627 E28.83659
G1 X113.982 Y108.361 E28.85545
G1 X113.676 Y108.148 E28.874
G1 X113.335 Y107.99 E28.89271
G0 F9000 X113.142 Y107.941
G0 X112.967 Y108.644
;TYPE:FILL
G1 F720 X111.249 Y110.362 E29.04586
G0 F9000 X111.983 Y111.239
G1 F720 X113.854 Y109.368 E29.21266
G0 F9000 X113.529 Y109.521
;MESH:NONMESH
G0 F600 X113.529 Y109.521 Z1.44
G0 F9000 X111.498 Y110.916
G0 X111.348 Y111.033
;TIME_ELAPSED:47.454118
;LAYER:4
;TYPE:WALL-INNER
;MESH:GhostCatEyes.stl
G1 F866.7 X111.554 Y111.239 E29.22876
G1 X111.79 Y111.401 E29.24459
G1 X112.062 Y111.524 E29.2611
G1 X112.354 Y111.598 E29.27776
G1 X112.764 Y111.623 E29.30047
G1 X113.159 Y111.523 E29.323
G1 X113.428 Y111.404 E29.33926
G1 X113.664 Y111.24 E29.35516
G1 X113.871 Y111.033 E29.37134
G1 X114.035 Y110.799 E29.38714
G1 X114.158 Y110.534 E29.4033
G1 X114.231 Y110.258 E29.41908
G1 X114.255 Y109.971 E29.43501
G1 X114.23 Y109.686 E29.45083
G1 X114.153 Y109.404 E29.46699
G1 X114.034 Y109.154 E29.4823
G1 X113.859 Y108.916 E29.49864
G1 X113.639 Y108.709 E29.51534
G1 X113.391 Y108.542 E29.53187
G1 X113.107 Y108.422 E29.54892
G1 X112.727 Y108.344 E29.57037
G1 X112.468 Y108.35 E29.5847
G1 X112.111 Y108.424 E29.60486
G1 X111.826 Y108.542 E29.62191
G1 X111.58 Y108.707 E29.63829
G1 X111.359 Y108.917 E29.65515
G1 X111.187 Y109.152 E29.67125
G1 X111.064 Y109.408 E29.68696
G1 X110.989 Y109.686 E29.70288
G1 X110.962 Y109.974 E29.71887
G1 X110.974 Y110.117 E29.72681
G1 X110.987 Y110.258 E29.73464
G1 X111.059 Y110.535 E29.75046
G1 X111.184 Y110.799 E29.76662
G1 X111.348 Y111.033 E29.78242
G1 F2400 E27.78242
G0 F9000 X111.52 Y110.892
G0 X111.258 Y110.462
G0 X111.186 Y109.842
G0 X111.368 Y109.261
G0 X111.809 Y108.807
G0 X112.411 Y108.576
G0 X113.043 Y108.624
G0 X113.501 Y108.884
G1 F1200 E29.78242
G0 F9000 X113.937 Y108.336
;TYPE:WALL-OUTER
G1 F666.7 X113.617 Y108.122 E29.80157
G1 X113.248 Y107.966 E29.82151
G1 X112.919 Y107.899 E29.83822
G1 X112.67 Y107.87 E29.85069
G1 X112.414 Y107.876 E29.86344
G1 X111.97 Y107.968 E29.886
G1 X111.6 Y108.122 E29.90595
G1 X111.282 Y108.335 E29.925
G1 X111.001 Y108.601 E29.94425
G1 X110.777 Y108.907 E29.96312
G1 X110.616 Y109.242 E29.98162
G1 X110.52 Y109.601 E30.00011
G1 X110.485 Y109.972 E30.01866
G1 X110.501 Y110.157 E30.0279
G1 X110.517 Y110.339 E30.03699
G1 X110.611 Y110.697 E30.05541
G1 X110.771 Y111.037 E30.07411
G1 X110.983 Y111.34 E30.09252
G1 X111.249 Y111.606 E30.11124
G1 X111.556 Y111.817 E30.12978
G1 X111.904 Y111.974 E30.14877
G1 X112.281 Y112.07 E30.16813
G1 X112.61 Y112.089 E30.18453
G1 X112.923 Y112.073 E30.20013
G1 X113.315 Y111.974 E30.22025
G1 X113.663 Y111.82 E30.23919
G1 X113.97 Y111.606 E30.25781
G1 X114.236 Y111.34 E30.27654
G1 X114.448 Y111.038 E30.2949
G1 X114.607 Y110.697 E30.31362
G1 X114.702 Y110.339 E30.33205
G1 X114.733 Y109.968 E30.35058
G1 X114.699 Y109.602 E30.36887
G1 X114.6 Y109.238 E30.38765
G1 X114.443 Y108.909 E30.40579
G1 X114.217 Y108.6 E30.42484
G1 X113.937 Y108.336 E30.44399
G0 F9000 X113.771 Y108.225
G0 X113.384 Y108.806
G0 X113.78 Y109.163
G0 X114.022 Y109.724
G0 X113.991 Y110.341
G0 X113.709 Y110.897
G0 X113.296 Y111.203
G0 X112.726 Y111.459
G0 X112.716 Y111.265
;TYPE:SKIN
G1 F600 X112.795 Y111.221 E30.44849
G1 X113.231 Y111.137 E30.47059
G1 X113.448 Y110.984 E30.4838
G1 X113.616 Y110.817 E30.49559
G1 X113.845 Y110.418 E30.51848
G1 X113.903 Y110.198 E30.52981
G1 X113.901 Y109.749 E30.55215
G1 X113.747 Y109.324 E30.57465
G1 X113.609 Y109.137 E30.58621
G1 X113.23 Y108.835 E30.61033
G1 X113.009 Y108.743 E30.62224
G1 X112.604 Y108.66 E30.64282
G1 X112.207 Y108.744 E30.66301
G1 X111.883 Y108.879 E30.68048
G1 X111.608 Y109.139 E30.69931
G1 X111.377 Y109.524 E30.72166
G1 X111.318 Y109.746 E30.73309
G1 X111.306 Y110.093 E30.75037
G1 X111.372 Y110.419 E30.76692
G1 X111.603 Y110.817 E30.78982
G1 X111.954 Y111.11 E30.81258
G1 X112.402 Y111.266 E30.83618
G1 X112.716 Y111.265 E30.85181
G0 F9000 X112.251 Y110.978
G1 F600 X111.577 Y110.304 E30.89925
G0 F9000 X111.576 Y109.667
G1 F600 X112.883 Y110.974 E30.99123
G0 F9000 X113.32 Y110.774
G1 F600 X111.809 Y109.263 E31.09757
G0 F9000 X112.165 Y108.983
G1 F600 X113.592 Y110.41 E31.198
G0 F9000 X113.678 Y109.86
G1 F600 X112.736 Y108.917 E31.26434
G1 F2400 E29.26434
G0 F9000 X112.783 Y108.513
G0 X112.051 Y108.677
G0 X111.571 Y109.019
G0 X110.733 Y110.3
G0 X109.267 Y110.3
G0 X108.105 Y111.219
G0 X107.468 Y111.398
G0 X106.915 Y111.324
G0 X106.245 Y110.936
G1 F1200 E31.26434
G0 F9000 X106.129 Y111.033
;TYPE:WALL-INNER
G1 F866.7 X106.335 Y111.239 E31.28045
G1 X106.571 Y111.401 E31.29627
G1 X106.844 Y111.524 E31.31283
G1 X107.135 Y111.598 E31.32943
G1 X107.55 Y111.622 E31.35242
G1 X107.941 Y111.523 E31.37472
G1 X108.209 Y111.404 E31.39094
G1 X108.445 Y111.24 E31.40683
G1 X108.652 Y111.034 E31.42298
G1 X108.816 Y110.799 E31.43882
G1 X108.94 Y110.535 E31.45495
G1 X109.013 Y110.258 E31.47079
G1 X109.037 Y109.971 E31.48671
G1 X109.011 Y109.687 E31.50248
G1 X108.934 Y109.404 E31.5187
G1 X108.815 Y109.154 E31.53401
G1 X108.64 Y108.915 E31.55039
G1 X108.42 Y108.708 E31.56709
G1 X108.173 Y108.542 E31.58355
G1 X107.888 Y108.422 E31.60065
G1 X107.504 Y108.344 E31.62231
G1 X107.251 Y108.35 E31.63631
G1 X106.892 Y108.424 E31.65658
G1 X106.608 Y108.542 E31.67358
G1 X106.363 Y108.708 E31.68995
G1 X106.14 Y108.916 E31.70681
G1 X105.968 Y109.151 E31.72291
G1 X105.846 Y109.408 E31.73864
G1 X105.771 Y109.686 E31.75456
G1 X105.744 Y109.974 E31.77056
G1 X105.755 Y110.112 E31.77821
G1 X105.768 Y110.258 E31.78632
G1 X105.841 Y110.535 E31.80216
G1 X105.965 Y110.799 E31.81829
G1 X106.129 Y111.033 E31.83409
G1 F2400 E29.83409
G0 F9000 X106.301 Y110.892
G0 X106.04 Y110.462
G0 X105.976 Y109.905
G0 X106.057 Y109.481
G1 F1200 E31.83409
G0 F9000 X105.398 Y109.242
;TYPE:WALL-OUTER
G1 F666.7 X105.301 Y109.601 E31.85259
G1 X105.267 Y109.972 E31.87113
G1 X105.282 Y110.152 E31.88012
G1 X105.298 Y110.339 E31.88946
G1 X105.393 Y110.697 E31.90789
G1 X105.552 Y111.038 E31.92662
G1 X105.764 Y111.34 E31.94498
G1 X106.03 Y111.606 E31.9637
G1 X106.336 Y111.817 E31.9822
G1 X106.686 Y111.974 E32.00129
G1 X107.062 Y112.07 E32.0206
G1 X107.392 Y112.089 E32.03705
G1 X107.704 Y112.073 E32.0526
G1 X108.097 Y111.974 E32.07277
G1 X108.443 Y111.82 E32.09161
G1 X108.751 Y111.606 E32.11028
G1 X109.017 Y111.34 E32.129
G1 X109.229 Y111.037 E32.1474
G1 X109.389 Y110.697 E32.1661
G1 X109.483 Y110.339 E32.18452
G1 X109.515 Y109.968 E32.20306
G1 X109.48 Y109.602 E32.22135
G1 X109.382 Y109.238 E32.24011
G1 X109.225 Y108.909 E32.25825
G1 X108.998 Y108.6 E32.27733
G1 X108.718 Y108.335 E32.29652
G1 X108.399 Y108.122 E32.31561
G1 X108.029 Y107.966 E32.33559
G1 X107.702 Y107.899 E32.3522
G1 X107.452 Y107.87 E32.36473
G1 X107.197 Y107.876 E32.37742
G1 X106.751 Y107.968 E32.40008
G1 X106.382 Y108.122 E32.41998
G1 X106.064 Y108.335 E32.43903
G1 X105.782 Y108.601 E32.45832
G1 X105.559 Y108.906 E32.47713
G1 X105.398 Y109.242 E32.49567
G0 F9000 X105.346 Y109.435
G0 X106.019 Y109.62
G0 X105.985 Y110.106
G0 X106.104 Y110.736
G0 X106.255 Y110.632
;TYPE:SKIN
G1 F600 X106.55 Y110.983 E32.51848
G1 X106.955 Y111.208 E32.54154
G1 X107.356 Y111.278 E32.5618
G1 X107.534 Y111.197 E32.57153
G1 X108.031 Y111.121 E32.59655
G1 X108.398 Y110.816 E32.6203
G1 X108.626 Y110.421 E32.643
G1 X108.703 Y109.97 E32.66577
G1 X108.621 Y109.518 E32.68863
G1 X108.391 Y109.137 E32.71077
G1 X108.013 Y108.835 E32.73485
G1 X107.792 Y108.743 E32.74677
G1 X107.388 Y108.66 E32.76729
G1 X106.989 Y108.744 E32.78758
G1 X106.766 Y108.837 E32.79961
G1 X106.547 Y108.987 E32.81282
G1 X106.256 Y109.321 E32.83486
G1 X106.158 Y109.526 E32.84617
G1 X106.077 Y109.977 E32.86897
G1 X106.155 Y110.419 E32.89131
G1 X106.255 Y110.632 E32.90302
G0 F9000 X106.104 Y110.736
G0 X106.565 Y111.124
G0 X107.103 Y111.434
G0 X107.21 Y111.029
G1 F600 X106.333 Y110.151 E32.96478
G0 F9000 X106.386 Y109.568
G1 F600 X107.753 Y110.935 E33.06099
G0 F9000 X108.17 Y110.715
G1 F600 X106.655 Y109.2 E33.16761
G0 F9000 X107.052 Y108.961
G1 F600 X108.416 Y110.325 E33.26361
G0 F9000 X108.427 Y109.7
G1 F600 X107.675 Y108.948 E33.31653
;MESH:NONMESH
G0 X107.675 Y108.948 Z1.72
G0 F9000 X108.564 Y108.901
;TIME_ELAPSED:57.034526
;LAYER:5
;TYPE:WALL-INNER
;MESH:GhostCatEyes.stl
G1 F866.7 X108.311 Y108.676 E33.33525
G1 X108.065 Y108.537 E33.35088
G1 X107.68 Y108.405 E33.37338
G1 X107.391 Y108.391 E33.38938
G1 X107.1 Y108.405 E33.40549
G1 X106.716 Y108.538 E33.42796
G1 X106.469 Y108.676 E33.44361
G1 X106.216 Y108.902 E33.46236
G1 X106.039 Y109.133 E33.47846
G1 X105.913 Y109.389 E33.49423
G1 X105.833 Y109.668 E33.51028
G1 X105.804 Y109.951 E33.52601
G1 X105.826 Y110.231 E33.54154
G1 X105.899 Y110.505 E33.55722
G1 X106.023 Y110.767 E33.57325
G1 X106.189 Y110.999 E33.58902
G1 X106.394 Y111.2 E33.6049
G1 X106.676 Y111.382 E33.62346
G1 X106.939 Y111.481 E33.639
G1 X107.39 Y111.557 E33.66429
G1 X107.836 Y111.483 E33.68929
G1 X108.135 Y111.363 E33.7071
G1 X108.384 Y111.202 E33.7235
G1 X108.592 Y110.999 E33.73957
G1 X108.759 Y110.767 E33.75537
G1 X108.883 Y110.505 E33.7714
G1 X108.955 Y110.232 E33.78701
G1 X108.977 Y109.948 E33.80276
G1 X108.949 Y109.668 E33.81832
G1 X108.868 Y109.387 E33.83449
G1 X108.742 Y109.134 E33.85012
G1 X108.564 Y108.901 E33.86634
G0 F9000 X108.914 Y108.576
;TYPE:WALL-OUTER
G1 F666.7 X108.589 Y108.287 E33.88798
G1 X108.26 Y108.102 E33.90676
G1 X107.77 Y107.934 E33.93254
G1 X107.391 Y107.916 E33.95142
G1 X107.009 Y107.934 E33.97046
G1 X106.521 Y108.103 E33.99616
G1 X106.192 Y108.287 E34.01492
G1 X105.866 Y108.577 E34.03663
G1 X105.634 Y108.882 E34.0557
G1 X105.468 Y109.217 E34.07431
G1 X105.364 Y109.577 E34.09295
G1 X105.326 Y109.946 E34.11141
G1 X105.356 Y110.311 E34.12964
G1 X105.451 Y110.669 E34.14807
G1 X105.611 Y111.009 E34.16677
G1 X105.827 Y111.31 E34.18521
G1 X106.097 Y111.573 E34.20397
G1 X106.461 Y111.808 E34.22553
G1 X106.815 Y111.942 E34.24437
G1 X107.228 Y112.011 E34.2652
G1 X107.553 Y112.011 E34.28138
G1 X107.965 Y111.943 E34.30216
G1 X108.355 Y111.787 E34.32306
G1 X108.682 Y111.576 E34.34243
G1 X108.954 Y111.31 E34.36136
G1 X109.17 Y111.009 E34.3798
G1 X109.331 Y110.669 E34.39852
G1 X109.426 Y110.312 E34.41691
G1 X109.455 Y109.942 E34.43538
G1 X109.418 Y109.577 E34.45363
G1 X109.312 Y109.214 E34.47245
G1 X109.148 Y108.882 E34.49088
G1 X108.914 Y108.576 E34.51005
G0 F9000 X108.765 Y108.443
G0 X108.301 Y108.967
G0 X108.619 Y109.36
G0 X108.701 Y109.693
G0 X108.807 Y110.188
G0 X108.626 Y110.174
;TYPE:SKIN
G1 F600 X108.622 Y109.734 E34.53195
G1 X108.46 Y109.313 E34.5544
G1 X108.317 Y109.127 E34.56607
G1 X108.045 Y108.883 E34.58426
G1 X107.618 Y108.735 E34.60675
G1 X107.162 Y108.735 E34.62944
G1 X106.733 Y108.885 E34.65206
G1 X106.464 Y109.127 E34.67007
G1 X106.223 Y109.513 E34.69271
G1 X106.137 Y109.956 E34.71517
G1 X106.212 Y110.389 E34.73704
G1 X106.441 Y110.78 E34.75959
G1 X106.605 Y110.939 E34.77096
G1 X106.826 Y111.082 E34.78406
G1 X107.025 Y111.157 E34.79464
G1 X107.391 Y111.219 E34.81311
G1 X107.735 Y111.163 E34.83046
G1 X107.984 Y111.066 E34.84376
G1 X108.34 Y110.779 E34.86651
G1 X108.569 Y110.391 E34.88893
G1 X108.626 Y110.174 E34.9001
G0 F9000 X108.4 Y109.882
G1 F600 X107.307 Y110.976 E34.97706
G0 F9000 X106.838 Y110.809
G1 F600 X108.253 Y109.394 E35.07665
G0 F9000 X107.93 Y109.08
G1 F600 X106.527 Y110.484 E35.17542
G0 F9000 X106.371 Y110.003
G1 F600 X107.418 Y108.956 E35.24911
G1 F2400 E33.24911
G0 F9000 X107.439 Y108.545
G0 X108.188 Y108.848
G0 X108.49 Y109.17
G0 X109.209 Y110.276
G0 X110.763 Y110.157
G0 X111.372 Y110.689
G1 F1200 E35.24911
G0 F9000 X111.242 Y110.767
;TYPE:WALL-INNER
G1 F866.7 X111.408 Y111 E35.26493
G1 X111.613 Y111.2 E35.28076
G1 X111.865 Y111.363 E35.29736
G1 X112.165 Y111.482 E35.31521
G1 X112.609 Y111.557 E35.3401
G1 X113.055 Y111.483 E35.3651
G1 X113.353 Y111.363 E35.38287
G1 X113.603 Y111.202 E35.39931
G1 X113.811 Y110.999 E35.41538
G1 X113.977 Y110.767 E35.43115
G1 X114.101 Y110.505 E35.44718
G1 X114.174 Y110.231 E35.46286
G1 X114.196 Y109.948 E35.47856
G1 X114.168 Y109.668 E35.49412
G1 X114.086 Y109.386 E35.51036
G1 X113.961 Y109.133 E35.52596
G1 X113.783 Y108.901 E35.54213
G1 X113.53 Y108.675 E35.56089
G1 X113.283 Y108.537 E35.57653
G1 X112.899 Y108.405 E35.59899
G1 X112.61 Y108.392 E35.61498
G1 X112.32 Y108.405 E35.63103
G1 X111.934 Y108.538 E35.65361
G1 X111.688 Y108.677 E35.66923
G1 X111.435 Y108.902 E35.68795
G1 X111.258 Y109.134 E35.70409
G1 X111.131 Y109.39 E35.71989
G1 X111.051 Y109.667 E35.73583
G1 X111.023 Y109.95 E35.75156
G1 X111.044 Y110.232 E35.7672
G1 X111.117 Y110.505 E35.78282
G1 X111.242 Y110.767 E35.79887
G1 F2400 E33.79887
G0 F9000 X111.435 Y110.655
G0 X111.253 Y110.196
G0 X111.295 Y109.581
G0 X111.591 Y109.045
G0 X112.021 Y108.731
G0 X112.549 Y108.605
G0 X113.06 Y108.684
G0 X113.444 Y108.908
G1 F1200 E35.79887
G0 F9000 X114.133 Y108.576
;TYPE:WALL-OUTER
G1 F666.7 X113.807 Y108.286 E35.82059
G1 X113.478 Y108.102 E35.83935
G1 X112.989 Y107.934 E35.86508
G1 X112.61 Y107.916 E35.88396
G1 X112.229 Y107.934 E35.90294
G1 X111.739 Y108.103 E35.92874
G1 X111.41 Y108.288 E35.94752
G1 X111.085 Y108.577 E35.96916
G1 X110.853 Y108.882 E35.98823
G1 X110.686 Y109.217 E36.00686
G1 X110.582 Y109.576 E36.02546
G1 X110.545 Y109.945 E36.04392
G1 X110.574 Y110.312 E36.06224
G1 X110.669 Y110.669 E36.08062
G1 X110.83 Y111.009 E36.09935
G1 X111.046 Y111.31 E36.11778
G1 X111.316 Y111.573 E36.13654
G1 X111.645 Y111.787 E36.15607
G1 X112.036 Y111.942 E36.177
G1 X112.447 Y112.011 E36.19774
G1 X112.772 Y112.011 E36.21392
G1 X113.184 Y111.943 E36.2347
G1 X113.573 Y111.787 E36.25556
G1 X113.901 Y111.576 E36.27496
G1 X114.173 Y111.31 E36.2939
G1 X114.389 Y111.009 E36.31233
G1 X114.549 Y110.669 E36.33103
G1 X114.644 Y110.311 E36.34947
G1 X114.673 Y109.942 E36.36789
G1 X114.636 Y109.577 E36.38614
G1 X114.53 Y109.213 E36.40501
G1 X114.366 Y108.882 E36.4234
G1 X114.133 Y108.576 E36.44254
G0 F9000 X113.984 Y108.443
G0 X113.52 Y108.967
G0 X113.197 Y108.73
G0 X112.671 Y108.606
G0 X112.151 Y108.687
G0 X111.697 Y108.954
G0 X111.411 Y109.322
G0 X111.184 Y110.085
G0 X111.364 Y110.061
;TYPE:SKIN
G1 F600 X111.431 Y110.392 E36.45934
G1 X111.66 Y110.78 E36.48176
G1 X112.016 Y111.065 E36.50446
G1 X112.253 Y111.159 E36.51715
G1 X112.609 Y111.219 E36.53511
G1 X112.968 Y111.16 E36.55322
G1 X113.201 Y111.067 E36.5657
G1 X113.559 Y110.78 E36.58854
G1 X113.786 Y110.392 E36.61091
G1 X113.845 Y110.172 E36.62224
G1 X113.84 Y109.736 E36.64394
G1 X113.679 Y109.313 E36.66647
G1 X113.536 Y109.126 E36.67818
G1 X113.262 Y108.882 E36.69644
G1 X112.837 Y108.736 E36.7188
G1 X112.382 Y108.736 E36.74145
G1 X111.956 Y108.883 E36.76387
G1 X111.683 Y109.127 E36.7821
G1 X111.54 Y109.313 E36.79377
G1 X111.379 Y109.732 E36.81611
G1 X111.364 Y110.061 E36.8325
G0 F9000 X111.599 Y109.866
G1 F600 X112.506 Y108.959 E36.89633
G0 F9000 X113.054 Y109.047
G1 F600 X111.696 Y110.405 E36.99191
G0 F9000 X111.983 Y110.755
G1 F600 X113.398 Y109.339 E37.09153
G0 F9000 X113.61 Y109.764
G1 F600 X112.415 Y110.959 E37.17563
G1 F2400 E35.17563
;MESH:NONMESH
G0 F600 X112.415 Y110.959 Z2
G0 F9000 X112.41 Y111.371
G0 X111.018 Y110.896
G0 X108.982 Y110.896
G0 X107.971 Y111.268
G1 F1200 E37.17563
G0 F9000 X107.988 Y111.311
;TIME_ELAPSED:65.924217
;LAYER:6
;TYPE:WALL-INNER
;MESH:GhostCatEyes.stl
G1 F866.7 X108.3 Y111.133 E37.19549
G1 X108.49 Y110.957 E37.20982
G1 X108.663 Y110.725 E37.22582
G1 X108.79 Y110.47 E37.24157
G1 X108.863 Y110.2 E37.25704
G1 X108.885 Y109.925 E37.27229
G1 X108.853 Y109.648 E37.28771
G1 X108.768 Y109.375 E37.30352
G1 X108.628 Y109.122 E37.31951
G1 X108.466 Y108.916 E37.334
G1 X108.194 Y108.699 E37.35324
G1 X107.88 Y108.546 E37.37255
G1 X107.567 Y108.479 E37.39025
G1 X107.213 Y108.478 E37.40983
G1 X106.899 Y108.548 E37.42762
G1 X106.588 Y108.699 E37.44673
G1 X106.315 Y108.917 E37.46605
G1 X106.152 Y109.123 E37.48058
G1 X106.015 Y109.375 E37.49644
G1 X105.929 Y109.647 E37.51221
G1 X105.896 Y109.929 E37.52791
G1 X105.917 Y110.199 E37.54288
G1 X105.992 Y110.469 E37.55838
G1 X106.118 Y110.725 E37.57416
G1 X106.291 Y110.957 E37.59016
G1 X106.481 Y111.133 E37.60448
G1 X106.767 Y111.301 E37.62282
G1 X107.204 Y111.434 E37.64808
G1 X107.569 Y111.435 E37.66826
G1 X107.988 Y111.311 E37.69242
G1 F2400 E35.69242
G0 F9000 X107.897 Y111.107
G0 X108.332 Y110.815
G0 X108.568 Y110.375
G1 F1200 E37.69242
G0 F9000 X109.334 Y110.282
;TYPE:WALL-OUTER
G1 F666.7 X109.362 Y109.916 E37.71069
G1 X109.319 Y109.548 E37.72913
G1 X109.207 Y109.188 E37.74789
G1 X109.026 Y108.859 E37.76658
G1 X108.806 Y108.579 E37.7843
G1 X108.449 Y108.294 E37.80703
G1 X108.036 Y108.094 E37.82987
G1 X107.618 Y108.004 E37.85115
G1 X107.162 Y108.003 E37.87384
G1 X106.743 Y108.096 E37.8952
G1 X106.333 Y108.294 E37.91786
G1 X105.976 Y108.58 E37.94062
G1 X105.755 Y108.859 E37.95834
G1 X105.575 Y109.188 E37.977
G1 X105.463 Y109.548 E37.99576
G1 X105.419 Y109.92 E38.0144
G1 X105.447 Y110.281 E38.03242
G1 X105.546 Y110.639 E38.05091
G1 X105.711 Y110.974 E38.06949
G1 X105.937 Y111.276 E38.08826
G1 X106.196 Y111.517 E38.10587
G1 X106.575 Y111.739 E38.12773
G1 X106.982 Y111.863 E38.1489
G1 X107.259 Y111.909 E38.16288
G1 X107.522 Y111.91 E38.17596
G1 X107.799 Y111.863 E38.18995
G1 X108.176 Y111.75 E38.20953
G1 X108.583 Y111.519 E38.23282
G1 X108.845 Y111.276 E38.2506
G1 X109.07 Y110.974 E38.26935
G1 X109.236 Y110.639 E38.28795
G1 X109.334 Y110.282 E38.30638
G0 F9000 X109.349 Y110.083
G0 X108.653 Y110.027
G0 X108.105 Y110.032
;TYPE:SKIN
G1 F600 X108.102 Y109.715 E38.32215
G1 X108.007 Y109.4 E38.33853
G1 X107.915 Y109.24 E38.34771
G1 X107.744 Y109.062 E38.35999
G1 X107.561 Y108.954 E38.37057
G1 X107.269 Y108.954 E38.3851
G1 X107.052 Y109.007 E38.39622
G1 X106.886 Y109.123 E38.4063
G1 X106.702 Y109.354 E38.42099
G1 X106.605 Y109.676 E38.43773
G1 X106.591 Y110.033 E38.45551
G1 X107.055 Y110.044 E38.47861
G1 X107.189 Y110.01 E38.48549
G1 X107.497 Y110.066 E38.50107
G1 X107.626 Y110.023 E38.50783
G1 X107.836 Y110.043 E38.51833
G1 X108.105 Y110.032 E38.53173
G0 F9000 X108.722 Y110.076
G0 X108.497 Y109.32
G0 X108.192 Y108.966
G0 X107.77 Y108.764
G0 X107.165 Y108.643
G0 X107.291 Y109.2
;TYPE:SKIN
G1 F666.7 X107.893 Y109.803 E38.57413
G0 F9000 X107.245 Y109.791
G1 F666.7 X106.908 Y109.454 E38.59785
G0 F9000 X106.959 Y108.796
;TYPE:SKIN
G1 F794.1 X106.723 Y108.936 E38.60817
G1 F758.4 X106.456 Y109.204 E38.62306
G1 F671.6 X106.283 Y109.61 E38.64268
G1 F570.8 X106.251 Y110.03 E38.66471
G1 F538.9 X106.284 Y110.215 E38.67513
G0 F9000 X106.498 Y110.393
G1 F499.1 X106.355 Y110.322 E38.68468
G1 F536.8 X106.284 Y110.215 E38.69182
G1 F518.2 X106.361 Y110.401 E38.70342
G1 F470.4 X106.655 Y110.766 E38.73317
G1 F455.3 X106.927 Y110.926 E38.75387
G1 F453 X107.268 Y111.027 E38.77731
G1 F454.5 X107.508 Y111.034 E38.79308
G1 F466.3 X107.836 Y110.945 E38.81484
G1 F473.7 X108.137 Y110.772 E38.83673
G1 F475.4 X108.329 Y110.517 E38.85678
G1 F477.9 X108.447 Y110.245 E38.8753
G1 X108.247 Y110.402 E38.89119
G1 F475.4 X107.991 Y110.386 E38.9073
G1 F473.7 X107.669 Y110.392 E38.9276
G1 F466.3 X107.486 Y110.446 E38.93982
G1 F456.9 X107.179 Y110.394 E38.96017
G1 F455.3 X107.128 Y110.423 E38.96402
G1 X106.795 Y110.416 E38.98586
G1 F467.1 X106.498 Y110.393 E39.0049
G0 F9000 X106.196 Y110.542
G0 X106.729 Y111.034
G0 X107.317 Y111.223
G0 X107.904 Y111.115
G0 X108.25 Y110.872
G0 X108.678 Y110.309
G0 X108.447 Y110.245
G1 F468.8 X108.481 Y109.932 E39.02496
G1 F482.1 X108.454 Y109.613 E39.04478
G1 F515.3 X108.3 Y109.242 E39.06806
G1 F585.7 X108.134 Y109.048 E39.08108
G1 F723.9 X107.894 Y108.857 E39.09373
G1 F794.1 X107.791 Y108.803 E39.0981
G1 F2400 E37.0981
G0 F9000 X107.83 Y108.69
G0 X109.005 Y109.282
G0 X110.895 Y109.596
G0 X111.886 Y108.829
G1 F1200 E39.0981
G0 F9000 X111.806 Y108.7
;TYPE:WALL-INNER
G1 F866.7 X111.533 Y108.918 E39.11742
G1 X111.372 Y109.122 E39.13179
G1 X111.233 Y109.375 E39.14775
G1 X111.147 Y109.647 E39.16353
G1 X111.114 Y109.928 E39.17917
G1 X111.136 Y110.2 E39.19426
G1 X111.21 Y110.469 E39.20969
G1 X111.337 Y110.725 E39.22549
G1 X111.511 Y110.958 E39.24157
G1 X111.698 Y111.132 E39.2557
G1 X111.985 Y111.301 E39.27411
G1 X112.422 Y111.434 E39.29937
G1 X112.788 Y111.435 E39.31961
G1 X113.207 Y111.31 E39.34379
G1 X113.518 Y111.135 E39.36352
G1 X113.709 Y110.957 E39.37795
G1 X113.882 Y110.725 E39.39396
G1 X114.008 Y110.47 E39.40968
G1 X114.082 Y110.199 E39.42522
G1 X114.104 Y109.926 E39.44036
G1 X114.071 Y109.648 E39.45584
G1 X113.986 Y109.375 E39.47165
G1 X113.849 Y109.125 E39.48742
G1 X113.662 Y108.901 E39.50355
G1 X113.412 Y108.699 E39.52132
G1 X113.097 Y108.546 E39.54069
G1 X112.786 Y108.478 E39.55829
G1 X112.432 Y108.478 E39.57786
G1 X112.118 Y108.548 E39.59565
G1 X111.806 Y108.7 E39.61484
G1 F2400 E37.61484
G0 F9000 X111.926 Y108.888
G0 X112.328 Y108.717
G0 X112.89 Y108.716
G0 X113.294 Y108.889
G1 F1200 E39.61484
G0 F9000 X113.668 Y108.294
;TYPE:WALL-OUTER
G1 F666.7 X113.253 Y108.094 E39.63777
G1 X112.837 Y108.003 E39.65896
G1 X112.381 Y108.003 E39.68165
G1 X111.962 Y108.096 E39.70301
G1 X111.551 Y108.294 E39.72572
G1 X111.193 Y108.581 E39.74855
G1 X110.974 Y108.859 E39.76616
G1 X110.794 Y109.188 E39.78483
G1 X110.681 Y109.548 E39.8036
G1 X110.637 Y109.92 E39.82225
G1 X110.666 Y110.282 E39.84032
G1 X110.764 Y110.639 E39.85874
G1 X110.93 Y110.974 E39.87735
G1 X111.156 Y111.276 E39.89612
G1 X111.413 Y111.515 E39.91359
G1 X111.793 Y111.739 E39.93554
G1 X112.201 Y111.863 E39.95676
G1 X112.479 Y111.909 E39.97078
G1 X112.742 Y111.91 E39.98387
G1 X113.018 Y111.863 E39.9978
G1 X113.395 Y111.75 E40.01739
G1 X113.8 Y111.521 E40.04054
G1 X114.063 Y111.276 E40.05843
G1 X114.289 Y110.974 E40.0772
G1 X114.454 Y110.639 E40.09579
G1 X114.553 Y110.281 E40.11427
G1 X114.581 Y109.916 E40.13249
G1 X114.538 Y109.548 E40.15093
G1 X114.425 Y109.188 E40.1697
G1 X114.244 Y108.857 E40.18848
G1 X113.998 Y108.559 E40.20771
G1 X113.668 Y108.294 E40.22877
G0 F9000 X113.488 Y108.208
G0 X113.183 Y108.836
G0 X112.764 Y108.689
G0 X112.188 Y108.748
G0 X111.684 Y109.067
G0 X111.447 Y109.478
G0 X111.276 Y110.083
G0 X111.905 Y110.033
;TYPE:SKIN
G1 F600 X112.355 Y110.044 E40.25117
G1 X112.49 Y110.011 E40.25809
G1 X112.797 Y110.066 E40.27361
G1 X112.884 Y110.03 E40.2783
G1 X113.136 Y110.043 E40.29085
G1 X113.396 Y110.03 E40.30381
G1 X113.414 Y109.871 E40.31177
G1 X113.357 Y109.53 E40.32898
G1 X113.259 Y109.31 E40.34096
G1 X112.989 Y109.027 E40.36043
G1 X112.727 Y108.954 E40.37396
G1 X112.441 Y108.954 E40.3882
G1 X112.187 Y109.123 E40.40338
G1 X112.027 Y109.336 E40.41664
G1 X111.93 Y109.573 E40.42938
G1 X111.886 Y109.84 E40.44285
G1 X111.905 Y110.033 E40.4525
G0 F9000 X112.335 Y109.79
;TYPE:SKIN
G1 F666.7 X112.171 Y109.625 E40.46408
G0 F9000 X112.42 Y109.238
G1 F666.7 X112.984 Y109.802 E40.50377
G0 F9000 X113.702 Y110.229
;TYPE:SKIN
G1 F534.7 X113.725 Y110.135 E40.50917
G1 F543.3 X113.745 Y109.879 E40.52329
G1 F567.2 X113.673 Y109.503 E40.54344
G1 F639.8 X113.496 Y109.167 E40.56116
G1 F750 X113.295 Y108.951 E40.57291
G1 F794.1 X113.079 Y108.812 E40.58257
G1 X112.992 Y108.777 E40.58609
G0 F9000 X112.209 Y108.809
G1 F750 X111.973 Y108.949 E40.59702
G1 F623.6 X111.721 Y109.218 E40.61467
G1 F535.7 X111.602 Y109.462 E40.6298
G1 F495.4 X111.531 Y109.727 E40.64634
G1 F459.2 X111.516 Y110.032 E40.66619
G1 F450.8 X111.561 Y110.237 E40.6801
G0 F9000 X111.32 Y110.305
G0 X111.826 Y110.962
G0 X112.356 Y111.193
G0 X112.863 Y111.194
G0 X113.291 Y111.008
G0 X113.764 Y110.626
G0 X113.561 Y110.525
G1 F518.2 X113.702 Y110.229 E40.69899
G1 F530.5 X113.639 Y110.318 E40.70512
G1 F513.3 X113.482 Y110.39 E40.71517
G1 F496.3 X113.18 Y110.398 E40.73335
G1 F490 X112.967 Y110.382 E40.74636
G1 F478.7 X112.785 Y110.44 E40.75828
G1 F456.1 X112.48 Y110.403 E40.77839
G1 F444.8 X112.426 Y110.432 E40.78251
G1 F446.3 X111.774 Y110.414 E40.82615
G1 F451.5 X111.608 Y110.311 E40.83907
G1 F456.9 X111.561 Y110.237 E40.8448
G1 F453.8 X111.686 Y110.508 E40.86443
G1 F447 X111.877 Y110.758 E40.88545
G1 F444.1 X112.149 Y110.919 E40.9067
G1 X112.496 Y111.025 E40.9311
G1 F456.1 X112.818 Y111.013 E40.95219
G1 F476.2 X113.057 Y110.951 E40.96767
G1 F487.4 X113.36 Y110.783 E40.9889
G1 F496.3 X113.561 Y110.525 E41.00858
G1 F2400 E39.00858
;MESH:NONMESH
G0 F600 X113.561 Y110.525 Z2.28
G0 F9000 X113.764 Y110.626
G0 X113.241 Y111.048
G0 X112.685 Y111.224
G0 X112.07 Y111.106
G0 X110.883 Y110.246
G0 X109.129 Y110.107
G0 X108.616 Y110.48
G1 F1200 E41.00858
G0 F9000 X108.534 Y110.438
;TIME_ELAPSED:75.519315
;LAYER:7
;TYPE:WALL-OUTER
;MESH:GhostCatEyes.stl
G1 F526.3 X108.398 Y110.517 E41.0175
G1 F580.6 X107.994 Y110.471 E41.03841
G1 F600 X107.681 Y110.478 E41.05399
G1 X107.538 Y110.533 E41.06161
G1 X107.207 Y110.473 E41.07836
G1 X107.159 Y110.495 E41.08098
G1 X106.669 Y110.484 E41.10537
G1 X106.647 Y110.515 E41.10727
G1 F580.6 X106.288 Y110.477 E41.12583
G1 F544.4 X106.197 Y110.423 E41.13164
G1 F527.3 X106.112 Y110.105 E41.15027
G1 F524.3 X106.11 Y109.91 E41.16138
G1 F528.4 X106.132 Y109.591 E41.17945
G1 F561.3 X106.287 Y109.139 E41.20487
G1 F596 X106.544 Y108.825 E41.2252
G1 F625 X106.862 Y108.607 E41.24361
G1 F660.1 X107.167 Y108.505 E41.25816
G1 F671.6 X107.525 Y108.503 E41.27408
G1 F658.5 X107.761 Y108.568 E41.28518
G1 F629.4 X108.026 Y108.708 E41.2994
G1 F576.9 X108.293 Y108.953 E41.31815
G1 F529.4 X108.476 Y109.252 E41.33792
G1 F504.7 X108.598 Y109.64 E41.36199
G1 F495.4 X108.618 Y110.076 E41.38829
G1 F494.5 X108.534 Y110.438 E41.41073
G0 F9000 X108.398 Y110.517
G0 X108.356 Y110.513
G0 X108.316 Y110.815
G0 X107.44 Y111.139
G0 X108.298 Y111.525
G1 F600 X108.643 Y111.271 E41.43205
G1 F562.5 X108.889 Y110.925 E41.45459
G1 F512.3 X109.053 Y110.589 E41.47638
G1 F492.7 X109.15 Y110.236 E41.49856
G1 F485.6 X109.172 Y109.891 E41.51982
G1 F489.1 X109.134 Y109.538 E41.54149
G1 F500.9 X109.015 Y109.191 E41.56336
G1 F519.2 X108.828 Y108.853 E41.58557
G1 F546.6 X108.612 Y108.591 E41.60413
G1 F578.2 X108.326 Y108.375 E41.62263
G1 F617.8 X108.068 Y108.226 E41.63703
G1 F652.2 X107.637 Y108.102 E41.65757
G1 F670 X107.11 Y108.106 E41.68105
G1 F660.1 X106.662 Y108.243 E41.70224
G1 F638.3 X106.442 Y108.372 E41.71417
G1 F610.9 X106.16 Y108.579 E41.73127
G1 F579.4 X105.91 Y108.869 E41.75101
G1 F556.7 X105.745 Y109.186 E41.77017
G1 F541.1 X105.628 Y109.533 E41.79038
G1 F527.3 X105.588 Y109.894 E41.81095
G1 F523.3 X105.613 Y110.247 E41.83114
G1 F528.4 X105.712 Y110.595 E41.85159
G1 F546.6 X105.88 Y110.934 E41.87226
G1 F580.6 X106.139 Y111.273 E41.8942
G1 F600 X106.492 Y111.528 E41.91587
G1 X106.823 Y111.662 E41.93364
G1 X107.225 Y111.746 E41.95408
G1 X107.565 Y111.746 E41.971
G1 X107.857 Y111.703 E41.98569
G1 X108.298 Y111.525 E42.00935
G0 F9000 X108.459 Y111.407
G0 X108.013 Y111.037
;TYPE:WALL-INNER
G1 F565.2 X107.55 Y111.15 E42.04572
G1 F541.7 X107.274 Y111.12 E42.06783
G1 F529.9 X106.997 Y111.089 E42.09051
G1 F2400 E40.09051
G0 F9000 X107.487 Y111.096
G0 X108.653 Y110.788
G0 X109.008 Y109.895
G0 X110.992 Y109.893
G0 X110.868 Y109.538
;TYPE:WALL-OUTER
G1 F1200 E42.09051
G1 F488.2 X110.825 Y109.894 E42.11244
G1 F483.9 X110.855 Y110.243 E42.13406
G1 F489.1 X110.948 Y110.588 E42.15587
G1 F513.3 X111.095 Y110.899 E42.17588
G1 F547.7 X111.326 Y111.248 E42.1987
G1 F581.9 X111.71 Y111.528 E42.22309
G1 F600 X112.042 Y111.662 E42.2409
G1 X112.443 Y111.745 E42.26128
G1 X112.783 Y111.746 E42.2782
G1 X113.076 Y111.704 E42.29293
G1 X113.516 Y111.524 E42.31659
G1 X113.861 Y111.271 E42.33788
G1 F580.6 X114.12 Y110.933 E42.35978
G1 F546.6 X114.29 Y110.596 E42.3804
G1 F527.3 X114.386 Y110.239 E42.40133
G1 F524.3 X114.415 Y109.892 E42.42116
G1 F527.3 X114.368 Y109.533 E42.44166
G1 F538.9 X114.254 Y109.182 E42.46211
G1 F563.7 X114.063 Y108.842 E42.48277
G1 F587 X113.838 Y108.577 E42.50045
G1 F602.7 X113.626 Y108.421 E42.5135
G1 F616.4 X113.414 Y108.265 E42.52624
G1 F635.3 X113.152 Y108.186 E42.53911
G1 F660.1 X112.889 Y108.106 E42.55154
G1 F665 X112.33 Y108.111 E42.57664
G1 F642.9 X111.922 Y108.235 E42.59645
G1 F613.6 X111.664 Y108.383 E42.61092
G1 F574.5 X111.388 Y108.594 E42.62898
G1 F544.4 X111.169 Y108.855 E42.64767
G1 F523.3 X110.98 Y109.195 E42.66986
G1 F500.9 X110.868 Y109.538 E42.69137
G0 F9000 X110.844 Y109.736
G1 F2400 E40.69137
G0 F9000 X111.089 Y109.768
G0 X111.278 Y110.645
G0 X112.341 Y110.851
G0 X113.303 Y110.712
G0 X113.99 Y110.792
G0 X114.114 Y110.344
G1 F1200 E42.69137
G0 F9000 X113.856 Y110.314
G1 F532.5 X113.796 Y110.442 E42.6993
G1 F555.6 X113.67 Y110.518 E42.70721
G1 F590.8 X113.295 Y110.471 E42.72631
G1 F600 X112.981 Y110.478 E42.74194
G1 X112.847 Y110.533 E42.74915
G1 X112.507 Y110.473 E42.76633
G1 X112.459 Y110.495 E42.76896
G1 X111.968 Y110.484 E42.7934
G1 F581.9 X111.93 Y110.538 E42.79678
G1 F544.4 X111.496 Y110.464 E42.82093
G1 F507.5 X111.416 Y110.251 E42.83432
G1 F488.2 X111.382 Y109.858 E42.85845
G1 F498.2 X111.46 Y109.421 E42.88505
G1 F522.2 X111.6 Y109.113 E42.9044
G1 F561.3 X111.867 Y108.793 E42.92657
G1 F602.7 X112.194 Y108.582 E42.94585
G1 F641.3 X112.46 Y108.506 E42.95873
G1 F671.6 X112.815 Y108.502 E42.97451
G1 F663.4 X113.183 Y108.63 E42.99205
G1 F638.3 X113.446 Y108.82 E43.00722
G1 F604 X113.654 Y109.07 E43.0233
G1 F568.4 X113.807 Y109.381 E43.04151
G1 F546.6 X113.907 Y109.817 E43.06595
G1 F536.8 X113.856 Y110.314 E43.09374
G0 F9000 X113.796 Y110.442
G0 X113.746 Y110.472
G0 X113.062 Y111.077
;TYPE:WALL-INNER
G1 F526.3 X112.685 Y111.138 E43.12503
G1 F517.9 X112.216 Y111.088 E43.16431
G1 F2400 E41.16431
;MESH:NONMESH
G0 F600 X112.216 Y111.088 Z2.56
G0 F9000 X112.772 Y111.09
G0 X111.267 Y110.819
G0 X108.984 Y110.208
G0 X108.653 Y110.788
G0 X107.44 Y111.139
G1 F1200 E43.16431
G0 F9000 X107.959 Y111.088
;TIME_ELAPSED:81.584286
;LAYER:8
;TYPE:WALL-OUTER
;MESH:GhostCatEyes.stl
G1 F769.2 X107.559 Y111.242 E43.18095
G1 F789.5 X107.275 Y111.259 E43.19171
G1 X106.846 Y111.138 E43.20857
G1 F754.2 X106.585 Y110.946 E43.2214
G1 F712.4 X106.38 Y110.697 E43.23491
G1 F687 X106.211 Y110.338 E43.25216
G1 F668.3 X106.155 Y109.992 E43.26782
G1 F655.3 X106.153 Y109.878 E43.27301
G1 F666.7 X106.179 Y109.531 E43.2886
G1 F708.7 X106.335 Y109.159 E43.3056
G1 F775.9 X106.56 Y108.845 E43.32046
G1 F849.1 X106.835 Y108.649 E43.33234
G1 F897 X107.19 Y108.523 E43.34488
G1 F912.2 X107.479 Y108.516 E43.35434
G1 F888.2 X107.781 Y108.598 E43.36486
G1 F815.7 X108.024 Y108.738 E43.37513
G1 F733.7 X108.274 Y108.986 E43.38946
G1 F673.3 X108.423 Y109.237 E43.4024
G1 F627.9 X108.547 Y109.604 E43.42082
G1 F606.7 X108.574 Y110.011 E43.4409
G1 F605.4 X108.466 Y110.447 E43.46305
G1 F617.8 X108.287 Y110.772 E43.48098
G1 F687 X107.959 Y111.088 E43.50078
G0 F9000 X107.773 Y111.159
G0 X107.613 Y111.581
G1 F733.7 X108.033 Y111.479 E43.51837
G1 F678.4 X108.422 Y111.218 E43.53899
G1 F647.5 X108.705 Y110.906 E43.55841
G1 F613.6 X108.898 Y110.571 E43.57723
G1 F594.7 X108.995 Y110.225 E43.59527
G1 F589.5 X109.024 Y109.862 E43.61371
G1 F598.7 X108.981 Y109.503 E43.63174
G1 F619.3 X108.846 Y109.15 E43.64997
G1 F660.1 X108.6 Y108.771 E43.67041
G1 F727.8 X108.24 Y108.466 E43.68976
G1 F815.7 X107.889 Y108.304 E43.70391
G1 F876.6 X107.636 Y108.238 E43.71282
G1 F903 X107.165 Y108.23 E43.7284
G1 X106.891 Y108.3 E43.73775
G1 F857.1 X106.533 Y108.456 E43.75135
G1 F789.5 X106.167 Y108.762 E43.7694
G1 F737.7 X105.93 Y109.107 E43.78634
G1 F699.5 X105.778 Y109.495 E43.80413
G1 F663.4 X105.737 Y109.886 E43.82182
G1 F649 X105.765 Y110.229 E43.83765
G1 F650.6 X105.869 Y110.584 E43.85463
G1 F675 X106.06 Y110.918 E43.87165
G1 F712.4 X106.341 Y111.225 E43.88909
G1 F750 X106.661 Y111.43 E43.90422
G1 F767 X106.932 Y111.531 E43.91548
G1 F778.1 X107.284 Y111.605 E43.92929
G1 F789.5 X107.613 Y111.581 E43.94176
G0 F9000 X107.807 Y111.534
G1 F2400 E41.94176
G0 F9000 X108.56 Y110.735
G0 X108.726 Y110.383
G0 X109.79 Y110.696
G0 X111.023 Y111.894
G0 X111.513 Y112.187
G0 X112.45 Y112.444
G0 X112.821 Y111.586
G1 F1200 E43.94176
G1 F771.4 X113.24 Y111.494 E43.95837
G1 F737.7 X113.652 Y111.231 E43.97815
G1 F712.4 X113.94 Y110.918 E43.99598
G1 F675 X114.136 Y110.579 E44.0133
G1 F652.2 X114.234 Y110.229 E44.02994
G1 F649 X114.264 Y109.862 E44.04688
G1 F655.3 X114.217 Y109.497 E44.06365
G1 F678.4 X114.083 Y109.14 E44.08043
G1 F710.5 X113.855 Y108.781 E44.09831
G1 F750 X113.499 Y108.468 E44.11718
G1 F838.5 X113.11 Y108.296 E44.13232
G1 F918.4 X112.857 Y108.232 E44.14081
G1 F912.2 X112.375 Y108.235 E44.15659
G1 F873.8 X112.112 Y108.306 E44.1659
G1 F810.8 X111.757 Y108.466 E44.18024
G1 F727.8 X111.4 Y108.772 E44.19953
G1 F661.8 X111.15 Y109.154 E44.22013
G1 F622.1 X111.019 Y109.501 E44.23793
G1 F600 X110.977 Y109.889 E44.25735
G1 F592.1 X111.003 Y110.225 E44.27435
G1 F594.7 X111.105 Y110.576 E44.2927
G1 F619.3 X111.292 Y110.909 E44.31111
G1 F656.9 X111.57 Y111.212 E44.3298
G1 F692.3 X111.887 Y111.417 E44.34608
G1 F731.7 X112.137 Y111.522 E44.35715
G1 F756.3 X112.502 Y111.598 E44.37187
G1 F780.3 X112.821 Y111.586 E44.38408
G0 F9000 X113.016 Y111.544
G1 F2400 E42.38408
G0 F9000 X113.602 Y109.045
G1 F1200 E44.38408
G1 F760.6 X113.768 Y109.377 E44.39866
G1 F690.5 X113.844 Y109.762 E44.41563
G1 F660.1 X113.839 Y110.062 E44.4292
G1 F656.9 X113.75 Y110.44 E44.44685
G1 F676.7 X113.623 Y110.69 E44.45922
G1 F712.4 X113.404 Y110.957 E44.47369
G1 F760.6 X113.153 Y111.14 E44.48589
G1 F796.5 X112.802 Y111.249 E44.49967
G1 F791.8 X112.383 Y111.24 E44.51547
G1 F747.9 X111.937 Y111.02 E44.53533
G1 F676.7 X111.656 Y110.705 E44.55395
G1 F633.8 X111.486 Y110.315 E44.574
G1 F610.9 X111.434 Y109.995 E44.58984
G1 F596 X111.433 Y109.884 E44.5954
G1 F598.7 X111.453 Y109.604 E44.60941
G1 F617.8 X111.524 Y109.361 E44.62164
G1 F658.5 X111.719 Y108.996 E44.6404
G1 F723.9 X111.922 Y108.781 E44.6526
G1 F801.2 X112.138 Y108.638 E44.66226
G1 F857.1 X112.436 Y108.526 E44.67335
G1 F897 X112.801 Y108.52 E44.6855
G1 F921.5 X113.024 Y108.581 E44.69299
G1 F897 X113.351 Y108.759 E44.70538
G1 F843.8 X113.602 Y109.045 E44.71885
G0 F9000 X113.691 Y109.223
G1 F2400 E42.71885
;MESH:NONMESH
G0 F600 X113.691 Y109.223 Z2.84
G0 F9000 X106.285 Y109.115
;TIME_ELAPSED:86.075388
;LAYER:9
;TYPE:WALL-OUTER
;MESH:GhostCatEyes.stl
G1 F1200 E44.71885
G1 F551 X106.117 Y109.481 E44.74067
G1 F490.9 X106.079 Y109.846 E44.76299
G1 F485.6 X106.081 Y109.934 E44.7684
G1 F481.3 X106.111 Y110.185 E44.78409
G1 X106.213 Y110.503 E44.80481
G1 F496.3 X106.433 Y110.849 E44.82947
G1 F546.6 X106.753 Y111.101 E44.85173
G1 F615 X107.066 Y111.232 E44.8682
G1 F633.8 X107.327 Y111.27 E44.88062
G1 F625 X107.693 Y111.226 E44.89824
G1 F597.3 X108.045 Y111.083 E44.91723
G1 F519.2 X108.279 Y110.869 E44.93546
G1 F450.8 X108.536 Y110.487 E44.96596
G1 F423.9 X108.63 Y110.176 E44.98885
G1 F417.3 X108.66 Y109.847 E45.01249
G1 F425.2 X108.613 Y109.501 E45.03701
G1 F457.6 X108.482 Y109.178 E45.05975
G1 F503.7 X108.292 Y108.889 E45.08025
G1 F596 X107.969 Y108.643 E45.10059
G1 F718.1 X107.612 Y108.488 E45.11678
G1 F767 X107.189 Y108.486 E45.13324
G1 F778.1 X106.885 Y108.575 E45.1454
G1 F737.7 X106.533 Y108.789 E45.16207
G1 F661.8 X106.285 Y109.115 E45.18055
G1 F2400 E43.18055
G0 F9000 X112.777 Y111.276
G1 F1200 E45.18055
G1 F605.4 X113.186 Y111.14 E45.20181
G1 F549.9 X113.548 Y110.87 E45.22633
G1 F500 X113.788 Y110.505 E45.25242
G1 F482.1 X113.888 Y110.185 E45.27318
G1 F484.7 X113.928 Y109.739 E45.30077
G1 F502.8 X113.876 Y109.485 E45.31617
G1 F567.2 X113.721 Y109.115 E45.33728
G1 F673.3 X113.472 Y108.805 E45.35492
G1 F731.7 X113.126 Y108.576 E45.37185
G1 F773.6 X112.69 Y108.471 E45.38916
G1 F769.2 X112.361 Y108.499 E45.40197
G1 F723.9 X112.025 Y108.644 E45.41707
G1 F629.4 X111.743 Y108.855 E45.43378
G1 F528.4 X111.514 Y109.177 E45.45611
G1 F463.1 X111.386 Y109.498 E45.47839
G1 F429.9 X111.337 Y109.847 E45.50286
G1 F421.2 X111.366 Y110.177 E45.52635
G1 F439 X111.498 Y110.564 E45.55416
G1 F482.1 X111.761 Y110.918 E45.58147
G1 F526.3 X112.068 Y111.136 E45.60283
G1 F575.7 X112.354 Y111.238 E45.61858
G1 F609.5 X112.777 Y111.276 E45.63939
G1 F2400 E43.63939
;MESH:NONMESH
G0 F600 X112.777 Y111.276 Z3.12
G0 F9000 X106.27 Y109.783
;TIME_ELAPSED:88.901812
;LAYER:10
;TYPE:WALL-OUTER
;MESH:GhostCatEyes.stl
G1 F1200 E45.63939
G1 F794.1 X106.272 Y109.958 E45.64597
G1 X106.32 Y110.236 E45.65657
G1 X106.49 Y110.564 E45.67047
G0 F9000 X107.788 Y110.964
G1 F794.1 X108.063 Y110.77 E45.68312
G1 X108.262 Y110.542 E45.6945
G1 X108.427 Y110.234 E45.70764
G1 X108.476 Y109.825 E45.72313
G1 X108.396 Y109.435 E45.73809
G1 X108.235 Y109.063 E45.75334
G1 X108.172 Y109.099 E45.75606
G1 X108.151 Y109.063 E45.75763
G1 X108.213 Y109.027 E45.76033
G1 F2400 E43.76033
G0 F9000 X108.757 Y108.629
G0 X110.765 Y109.559
G0 X111.531 Y109.786
G1 F1200 E45.76033
G1 F794.1 X111.531 Y109.873 E45.7636
G1 X111.573 Y110.17 E45.77488
G1 X111.739 Y110.542 E45.79019
G1 X111.883 Y110.734 E45.79922
G1 X112.146 Y110.93 E45.81155
G1 X112.22 Y110.967 E45.81466
G0 F9000 X113.504 Y110.577
G1 F794.1 X113.707 Y110.181 E45.83139
G1 X113.726 Y109.785 E45.8463
G1 F2400 E43.8463
G0 F9000 X111.801 Y109.136
G1 F1200 E45.8463
G1 F794.1 X111.738 Y109.172 E45.84903
G1 X111.717 Y109.136 E45.8506
G1 X111.779 Y109.1 E45.85329
;TIME_ELAPSED:90.368753
G1 F2400 E43.85329
M140 S0
M205 X10 Y10
M107
G91 ;Relative positioning
G1 E-2 F2700 ;Retract a bit
G1 E-2 Z0.2 F2400 ;Retract and raise Z
G1 X5 Y5 F3000 ;Wipe out
G1 Z10 ;Raise Z more
G90 ;Absolute positioning

G28 X0 Y0 ;Present print
M106 S0 ;Turn-off fan
M104 S0 ;Turn-off hotend
M140 S0 ;Turn-off bed

;*** Message and End Tones
M117 Print Completed
M300 S440 P200 ; Make Print Completed Tones
M300 S660 P250
M300 S880 P300
;*** End Message and End Tones

M84 X Y E ;Disable all steppers but Z
M82 ;absolute extrusion mode
M104 S0
;End of Gcode
;SETTING_3 {"global_quality": "[general]\\nversion = 4\\nname = FFV5.1_EF(.28)\\
;SETTING_3 ndefinition = creality_ender5\\n\\n[metadata]\\ntype = quality_change
;SETTING_3 s\\nquality_type = standard\\nsetting_version = 20\\n\\n[values]\\nac
;SETTING_3 celeration_enabled = True\\njerk_enabled = True\\nlayer_height = 0.28
;SETTING_3 \\nlayer_height_0 = 0.32\\nmaterial_bed_temperature = 40\\nmaterial_b
;SETTING_3 ed_temperature_layer_0 = 50\\n\\n", "extruder_quality": ["[general]\\
;SETTING_3 nversion = 4\\nname = FFV5.1_EF(.28)\\ndefinition = creality_ender5\\
;SETTING_3 n\\n[metadata]\\ntype = quality_changes\\nquality_type = standard\\ni
;SETTING_3 ntent_category = default\\nposition = 0\\nsetting_version = 20\\n\\n[
;SETTING_3 values]\\nacceleration_print = 500.0\\nacceleration_roofing = 500.0\\
;SETTING_3 nacceleration_topbottom = 500.0\\nacceleration_travel = 500.0\\naccel
;SETTING_3 eration_wall = 500.0\\nbottom_layers = 3\\ncoasting_enable = False\\n
;SETTING_3 fill_outline_gaps = True\\ninfill_line_distance = =0 if infill_sparse
;SETTING_3 _density == 0 else (infill_line_width * 100) / infill_sparse_density 
;SETTING_3 * (2 if infill_pattern == 'grid' else (3 if infill_pattern == 'triang
;SETTING_3 les' or infill_pattern == 'trihexagon' or infill_pattern == 'cubic' o
;SETTING_3 r infill_pattern == 'cubicsubdiv' else (2 if infill_pattern == 'tetra
;SETTING_3 hedral' or infill_pattern == 'quarter_cubic' else (1 if infill_patter
;SETTING_3 n == 'cross' or infill_pattern == 'cross_3d' else 1))))\\ninfill_line
;SETTING_3 _width = 0.57\\ninfill_overlap = 0\\ninfill_pattern = ='zigzag' if in
;SETTING_3 fill_sparse_density > 89 else 'lines' if infill_sparse_density > 31 e
;SETTING_3 lse 'cubic'\\ninfill_sparse_density = 50\\ninfill_sparse_thickness = 
;SETTING_3 0.3\\ninitial_layer_line_width_factor = 100.0\\ninset_direction = ins
;SETTING_3 ide_out\\njerk_layer_0 = 8\\njerk_print = 20\\njerk_travel_layer_0 = 
;SETTING_3 5\\nline_width = 0.45\\nmaterial_flow = 95\\nmaterial_flow_layer_0 = 
;SETTING_3 95\\nmaterial_print_temperature = 210\\nretraction_amount = 2\\nretra
;SETTING_3 ction_retract_speed = 40\\nretraction_speed = 20\\nroofing_layer_coun
;SETTING_3 t = 1\\nskin_angles = [45,135]\\nskin_line_width = 0.45\\nskin_overla
;SETTING_3 p = 30.0\\nskirt_brim_speed = 25.0\\nskirt_line_count = 1\\nspeed_lay
;SETTING_3 er_0 = 25\\nspeed_print = 60.0\\nspeed_roofing = 50\\nspeed_topbottom
;SETTING_3  = 45\\nspeed_travel_layer_0 = 125.0\\nspeed_wall_0 = 50\\nspeed_wall
;SETTING_3 _x = 65\\nspeed_z_hop = 10\\ntop_bottom_pattern = lines\\ntop_bottom_
;SETTING_3 thickness = =layer_height_0+layer_height*3\\ntop_layers = 3\\nwall_0_
;SETTING_3 material_flow = 95\\nwall_0_wipe_dist = 0.2\\nwall_line_count = 2\\nw
;SETTING_3 all_line_width_x = 0.5\\nwall_thickness = =line_width*2\\nxy_offset_l
;SETTING_3 ayer_0 = -0.15\\nz_seam_corner = z_seam_corner_weighted\\nz_seam_type
;SETTING_3  = sharpest_corner\\n\\n"]}
